{
"type": "FeatureCollection",
"name": "points.geojson",
"features": [
{"type":"Feature","properties":{"name":"1172","numCities":12,"numClass":3,"classes":"1101"},"geometry":{"type":"Point","coordinates":[-123.221203478344293,45.871202133965781]}},
{"type":"Feature","properties":{"name":"1199","numCities":2,"numClass":1,"classes":"1000"},"geometry":{"type":"Point","coordinates":[-124.049541506125522,44.429076925600349]}},
{"type":"Feature","properties":{"name":"1200","numCities":1,"numClass":1,"classes":"1000"},"geometry":{"type":"Point","coordinates":[-121.158009114895435,46.134907807530638]}},
{"type":"Feature","properties":{"name":"1227","numCities":3,"numClass":2,"classes":"1010"},"geometry":{"type":"Point","coordinates":[-122.038800487892033,44.713512196812665]}},
{"type":"Feature","properties":{"name":"1253","numCities":3,"numClass":3,"classes":"1110"},"geometry":{"type":"Point","coordinates":[-122.878398066729758,43.285916042567813]}},
{"type":"Feature","properties":{"name":"1280","numCities":2,"numClass":2,"classes":"1100"},"geometry":{"type":"Point","coordinates":[-123.680671803564053,41.851007311583338]}},
{"type":"Feature","properties":{"name":"1281","numCities":1,"numClass":1,"classes":"0100"},"geometry":{"type":"Point","coordinates":[-120.902933650254823,43.535608000217636]}}
]
}
