{"type":"FeatureCollection","features":[{"type":"Feature","properties":{"name": "1"},"geometry":{"type":"Point","coordinates":[11.2500000,58.2825256]}},
{"type":"Feature","properties":{"name": "2"},"geometry":{"type":"Point","coordinates":[-168.7500000,58.2825256]}},
{"type":"Feature","properties":{"name": "3"},"geometry":{"type":"Point","coordinates":[-168.7500000,65.2454846]}},
{"type":"Feature","properties":{"name": "4"},"geometry":{"type":"Point","coordinates":[-168.7500000,72.2343195]}},
{"type":"Feature","properties":{"name": "5"},"geometry":{"type":"Point","coordinates":[-168.7500000,79.2757848]}},
{"type":"Feature","properties":{"name": "6"},"geometry":{"type":"Point","coordinates":[-168.7500000,86.3984769]}},
{"type":"Feature","properties":{"name": "7"},"geometry":{"type":"Point","coordinates":[11.2500000,86.3984769]}},
{"type":"Feature","properties":{"name": "8"},"geometry":{"type":"Point","coordinates":[11.2500000,79.2757848]}},
{"type":"Feature","properties":{"name": "9"},"geometry":{"type":"Point","coordinates":[11.2500000,72.2343195]}},
{"type":"Feature","properties":{"name": "10"},"geometry":{"type":"Point","coordinates":[11.2500000,65.2454846]}},
{"type":"Feature","properties":{"name": "11"},"geometry":{"type":"Point","coordinates":[-162.0358460,52.4494395]}},
{"type":"Feature","properties":{"name": "12"},"geometry":{"type":"Point","coordinates":[-155.5091193,59.7768689]}},
{"type":"Feature","properties":{"name": "13"},"geometry":{"type":"Point","coordinates":[-149.9901470,67.1580723]}},
{"type":"Feature","properties":{"name": "14"},"geometry":{"type":"Point","coordinates":[-141.9562891,73.8656463]}},
{"type":"Feature","properties":{"name": "15"},"geometry":{"type":"Point","coordinates":[-124.0479974,79.8290886]}},
{"type":"Feature","properties":{"name": "16"},"geometry":{"type":"Point","coordinates":[-78.7500000,82.9678319]}},
{"type":"Feature","properties":{"name": "17"},"geometry":{"type":"Point","coordinates":[-33.4520026,79.8290886]}},
{"type":"Feature","properties":{"name": "18"},"geometry":{"type":"Point","coordinates":[-15.5437109,73.8656463]}},
{"type":"Feature","properties":{"name": "19"},"geometry":{"type":"Point","coordinates":[-7.5098530,67.1580723]}},
{"type":"Feature","properties":{"name": "20"},"geometry":{"type":"Point","coordinates":[-156.9123685,46.3033404]}},
{"type":"Feature","properties":{"name": "21"},"geometry":{"type":"Point","coordinates":[-149.2226923,52.8195822]}},
{"type":"Feature","properties":{"name": "22"},"geometry":{"type":"Point","coordinates":[-141.5846283,59.8513928]}},
{"type":"Feature","properties":{"name": "23"},"geometry":{"type":"Point","coordinates":[-131.7347950,66.4109094]}},
{"type":"Feature","properties":{"name": "24"},"geometry":{"type":"Point","coordinates":[-116.5826679,71.9036870]}},
{"type":"Feature","properties":{"name": "25"},"geometry":{"type":"Point","coordinates":[-93.4265196,75.4043030]}},
{"type":"Feature","properties":{"name": "26"},"geometry":{"type":"Point","coordinates":[-64.0734804,75.4043030]}},
{"type":"Feature","properties":{"name": "27"},"geometry":{"type":"Point","coordinates":[-40.9173321,71.9036870]}},
{"type":"Feature","properties":{"name": "28"},"geometry":{"type":"Point","coordinates":[-25.7652050,66.4109094]}},
{"type":"Feature","properties":{"name": "29"},"geometry":{"type":"Point","coordinates":[-152.8119627,39.9269588]}},
{"type":"Feature","properties":{"name": "30"},"geometry":{"type":"Point","coordinates":[-145.4914197,46.0294575]}},
{"type":"Feature","properties":{"name": "31"},"geometry":{"type":"Point","coordinates":[-137.3841452,52.2951257]}},
{"type":"Feature","properties":{"name": "32"},"geometry":{"type":"Point","coordinates":[-128.0880736,58.4725085]}},
{"type":"Feature","properties":{"name": "33"},"geometry":{"type":"Point","coordinates":[-115.8548184,63.7918684]}},
{"type":"Feature","properties":{"name": "34"},"geometry":{"type":"Point","coordinates":[-99.2947216,67.5968802]}},
{"type":"Feature","properties":{"name": "35"},"geometry":{"type":"Point","coordinates":[-78.7500000,69.0948426]}},
{"type":"Feature","properties":{"name": "36"},"geometry":{"type":"Point","coordinates":[-58.2052784,67.5968802]}},
{"type":"Feature","properties":{"name": "37"},"geometry":{"type":"Point","coordinates":[-41.6451816,63.7918684]}},
{"type":"Feature","properties":{"name": "38"},"geometry":{"type":"Point","coordinates":[-149.3825532,33.3555287]}},
{"type":"Feature","properties":{"name": "39"},"geometry":{"type":"Point","coordinates":[-142.5691960,39.2028800]}},
{"type":"Feature","properties":{"name": "40"},"geometry":{"type":"Point","coordinates":[-134.7033614,44.8465203]}},
{"type":"Feature","properties":{"name": "41"},"geometry":{"type":"Point","coordinates":[-126.2043948,50.6224596]}},
{"type":"Feature","properties":{"name": "42"},"geometry":{"type":"Point","coordinates":[-115.9190552,55.7745445]}},
{"type":"Feature","properties":{"name": "43"},"geometry":{"type":"Point","coordinates":[-103.1193785,59.7851629]}},
{"type":"Feature","properties":{"name": "44"},"geometry":{"type":"Point","coordinates":[-87.3873634,62.2596593]}},
{"type":"Feature","properties":{"name": "45"},"geometry":{"type":"Point","coordinates":[-70.1126366,62.2596593]}},
{"type":"Feature","properties":{"name": "46"},"geometry":{"type":"Point","coordinates":[-54.3806215,59.7851629]}},
{"type":"Feature","properties":{"name": "47"},"geometry":{"type":"Point","coordinates":[-146.4080619,26.6277736]}},
{"type":"Feature","properties":{"name": "48"},"geometry":{"type":"Point","coordinates":[-140.0702758,32.2809091]}},
{"type":"Feature","properties":{"name": "49"},"geometry":{"type":"Point","coordinates":[-132.8428944,37.6507869]}},
{"type":"Feature","properties":{"name": "50"},"geometry":{"type":"Point","coordinates":[-124.8918316,42.9023438]}},
{"type":"Feature","properties":{"name": "51"},"geometry":{"type":"Point","coordinates":[-115.9742174,47.8779635]}},
{"type":"Feature","properties":{"name": "52"},"geometry":{"type":"Point","coordinates":[-105.4883438,51.9997156]}},
{"type":"Feature","properties":{"name": "53"},"geometry":{"type":"Point","coordinates":[-92.9889297,55.0472608]}},
{"type":"Feature","properties":{"name": "54"},"geometry":{"type":"Point","coordinates":[-78.7500000,56.3863112]}},
{"type":"Feature","properties":{"name": "55"},"geometry":{"type":"Point","coordinates":[-64.5110703,55.0472608]}},
{"type":"Feature","properties":{"name": "56"},"geometry":{"type":"Point","coordinates":[-143.7950127,19.9209727]}},
{"type":"Feature","properties":{"name": "57"},"geometry":{"type":"Point","coordinates":[-137.5894422,25.4031768]}},
{"type":"Feature","properties":{"name": "58"},"geometry":{"type":"Point","coordinates":[-130.9426042,30.5002275]}},
{"type":"Feature","properties":{"name": "59"},"geometry":{"type":"Point","coordinates":[-123.7500000,35.2643897]}},
{"type":"Feature","properties":{"name": "60"},"geometry":{"type":"Point","coordinates":[-115.9904871,39.8882039]}},
{"type":"Feature","properties":{"name": "61"},"geometry":{"type":"Point","coordinates":[-107.1596439,44.0600182]}},
{"type":"Feature","properties":{"name": "62"},"geometry":{"type":"Point","coordinates":[-96.9147279,47.5090834]}},
{"type":"Feature","properties":{"name": "63"},"geometry":{"type":"Point","coordinates":[-85.0999295,49.7411364]}},
{"type":"Feature","properties":{"name": "64"},"geometry":{"type":"Point","coordinates":[-72.4000705,49.7411364]}},
{"type":"Feature","properties":{"name": "65"},"geometry":{"type":"Point","coordinates":[-141.4225398,13.2561521]}},
{"type":"Feature","properties":{"name": "66"},"geometry":{"type":"Point","coordinates":[-135.3229968,18.5622862]}},
{"type":"Feature","properties":{"name": "67"},"geometry":{"type":"Point","coordinates":[-128.9545812,23.3873460]}},
{"type":"Feature","properties":{"name": "68"},"geometry":{"type":"Point","coordinates":[-122.3571867,27.6674496]}},
{"type":"Feature","properties":{"name": "69"},"geometry":{"type":"Point","coordinates":[-115.4568032,31.8829201]}},
{"type":"Feature","properties":{"name": "70"},"geometry":{"type":"Point","coordinates":[-108.1240760,35.9772081]}},
{"type":"Feature","properties":{"name": "71"},"geometry":{"type":"Point","coordinates":[-99.6038598,39.6328067]}},
{"type":"Feature","properties":{"name": "72"},"geometry":{"type":"Point","coordinates":[-89.8400649,42.5433679]}},
{"type":"Feature","properties":{"name": "73"},"geometry":{"type":"Point","coordinates":[-78.7500000,43.9802342]}},
{"type":"Feature","properties":{"name": "74"},"geometry":{"type":"Point","coordinates":[-139.1938279,6.6206027]}},
{"type":"Feature","properties":{"name": "75"},"geometry":{"type":"Point","coordinates":[-133.1899554,11.6539339]}},
{"type":"Feature","properties":{"name": "76"},"geometry":{"type":"Point","coordinates":[-127.1995291,15.9120587]}},
{"type":"Feature","properties":{"name": "77"},"geometry":{"type":"Point","coordinates":[-121.0180937,19.9924024]}},
{"type":"Feature","properties":{"name": "78"},"geometry":{"type":"Point","coordinates":[-114.5056051,23.9373584]}},
{"type":"Feature","properties":{"name": "79"},"geometry":{"type":"Point","coordinates":[-107.7791429,27.8661593]}},
{"type":"Feature","properties":{"name": "80"},"geometry":{"type":"Point","coordinates":[-100.6678583,31.4810577]}},
{"type":"Feature","properties":{"name": "81"},"geometry":{"type":"Point","coordinates":[-92.9766662,34.7200612]}},
{"type":"Feature","properties":{"name": "82"},"geometry":{"type":"Point","coordinates":[-83.8857677,37.2490994]}},
{"type":"Feature","properties":{"name": "83"},"geometry":{"type":"Point","coordinates":[-78.7500000,31.7174744]}},
{"type":"Feature","properties":{"name": "84"},"geometry":{"type":"Point","coordinates":[-73.6142323,37.2490994]}},
{"type":"Feature","properties":{"name": "85"},"geometry":{"type":"Point","coordinates":[-67.6599351,42.5433679]}},
{"type":"Feature","properties":{"name": "86"},"geometry":{"type":"Point","coordinates":[-60.5852721,47.5090834]}},
{"type":"Feature","properties":{"name": "87"},"geometry":{"type":"Point","coordinates":[-52.0116562,51.9997156]}},
{"type":"Feature","properties":{"name": "88"},"geometry":{"type":"Point","coordinates":[-41.5809448,55.7745445]}},
{"type":"Feature","properties":{"name": "89"},"geometry":{"type":"Point","coordinates":[-29.4119264,58.4725085]}},
{"type":"Feature","properties":{"name": "90"},"geometry":{"type":"Point","coordinates":[-15.9153717,59.8513928]}},
{"type":"Feature","properties":{"name": "91"},"geometry":{"type":"Point","coordinates":[-1.9908807,59.7768689]}},
{"type":"Feature","properties":{"name": "92"},"geometry":{"type":"Point","coordinates":[-78.7500000,24.7545154]}},
{"type":"Feature","properties":{"name": "93"},"geometry":{"type":"Point","coordinates":[-71.1498325,29.3397357]}},
{"type":"Feature","properties":{"name": "94"},"geometry":{"type":"Point","coordinates":[-64.5233338,34.7200612]}},
{"type":"Feature","properties":{"name": "95"},"geometry":{"type":"Point","coordinates":[-57.8961402,39.6328067]}},
{"type":"Feature","properties":{"name": "96"},"geometry":{"type":"Point","coordinates":[-50.3403561,44.0600182]}},
{"type":"Feature","properties":{"name": "97"},"geometry":{"type":"Point","coordinates":[-41.5257826,47.8779635]}},
{"type":"Feature","properties":{"name": "98"},"geometry":{"type":"Point","coordinates":[-31.2956052,50.6224596]}},
{"type":"Feature","properties":{"name": "99"},"geometry":{"type":"Point","coordinates":[-20.1158548,52.2951257]}},
{"type":"Feature","properties":{"name": "100"},"geometry":{"type":"Point","coordinates":[-8.2773077,52.8195822]}},
{"type":"Feature","properties":{"name": "101"},"geometry":{"type":"Point","coordinates":[-78.7500000,17.7656805]}},
{"type":"Feature","properties":{"name": "102"},"geometry":{"type":"Point","coordinates":[-71.0353223,21.5656717]}},
{"type":"Feature","properties":{"name": "103"},"geometry":{"type":"Point","coordinates":[-63.8983251,26.5413242]}},
{"type":"Feature","properties":{"name": "104"},"geometry":{"type":"Point","coordinates":[-56.8321417,31.4810577]}},
{"type":"Feature","properties":{"name": "105"},"geometry":{"type":"Point","coordinates":[-49.3759240,35.9772081]}},
{"type":"Feature","properties":{"name": "106"},"geometry":{"type":"Point","coordinates":[-41.5095129,39.8882039]}},
{"type":"Feature","properties":{"name": "107"},"geometry":{"type":"Point","coordinates":[-32.6081684,42.9023438]}},
{"type":"Feature","properties":{"name": "108"},"geometry":{"type":"Point","coordinates":[-22.7966386,44.8465203]}},
{"type":"Feature","properties":{"name": "109"},"geometry":{"type":"Point","coordinates":[-12.0085803,46.0294575]}},
{"type":"Feature","properties":{"name": "110"},"geometry":{"type":"Point","coordinates":[-78.7500000,10.7242152]}},
{"type":"Feature","properties":{"name": "111"},"geometry":{"type":"Point","coordinates":[-71.3203441,14.3624483]}},
{"type":"Feature","properties":{"name": "112"},"geometry":{"type":"Point","coordinates":[-64.0211895,18.6344843]}},
{"type":"Feature","properties":{"name": "113"},"geometry":{"type":"Point","coordinates":[-56.9620372,23.3695892]}},
{"type":"Feature","properties":{"name": "114"},"geometry":{"type":"Point","coordinates":[-49.7208571,27.8661593]}},
{"type":"Feature","properties":{"name": "115"},"geometry":{"type":"Point","coordinates":[-42.0431968,31.8829201]}},
{"type":"Feature","properties":{"name": "116"},"geometry":{"type":"Point","coordinates":[-33.7500000,35.2643897]}},
{"type":"Feature","properties":{"name": "117"},"geometry":{"type":"Point","coordinates":[-24.6571056,37.6507869]}},
{"type":"Feature","properties":{"name": "118"},"geometry":{"type":"Point","coordinates":[-14.9308040,39.2028800]}},
{"type":"Feature","properties":{"name": "119"},"geometry":{"type":"Point","coordinates":[-78.7500000,3.6015231]}},
{"type":"Feature","properties":{"name": "120"},"geometry":{"type":"Point","coordinates":[-71.5574936,7.2103367]}},
{"type":"Feature","properties":{"name": "121"},"geometry":{"type":"Point","coordinates":[-64.2782321,10.9830268]}},
{"type":"Feature","properties":{"name": "122"},"geometry":{"type":"Point","coordinates":[-57.3162400,15.4517204]}},
{"type":"Feature","properties":{"name": "123"},"geometry":{"type":"Point","coordinates":[-50.2896190,19.8656172]}},
{"type":"Feature","properties":{"name": "124"},"geometry":{"type":"Point","coordinates":[-42.9943949,23.9373584]}},
{"type":"Feature","properties":{"name": "125"},"geometry":{"type":"Point","coordinates":[-35.1428133,27.6674496]}},
{"type":"Feature","properties":{"name": "126"},"geometry":{"type":"Point","coordinates":[-26.5573958,30.5002275]}},
{"type":"Feature","properties":{"name": "127"},"geometry":{"type":"Point","coordinates":[-17.4297242,32.2809091]}},
{"type":"Feature","properties":{"name": "128"},"geometry":{"type":"Point","coordinates":[-78.7500000,-3.6015231]}},
{"type":"Feature","properties":{"name": "129"},"geometry":{"type":"Point","coordinates":[-71.7178319,0.0000000]}},
{"type":"Feature","properties":{"name": "130"},"geometry":{"type":"Point","coordinates":[-64.6111359,3.6606113]}},
{"type":"Feature","properties":{"name": "131"},"geometry":{"type":"Point","coordinates":[-57.6426496,7.6863382]}},
{"type":"Feature","properties":{"name": "132"},"geometry":{"type":"Point","coordinates":[-50.8051759,11.9845108]}},
{"type":"Feature","properties":{"name": "133"},"geometry":{"type":"Point","coordinates":[-43.8445811,16.0811281]}},
{"type":"Feature","properties":{"name": "134"},"geometry":{"type":"Point","coordinates":[-36.4819063,19.9924024]}},
{"type":"Feature","properties":{"name": "135"},"geometry":{"type":"Point","coordinates":[-28.5454188,23.3873460]}},
{"type":"Feature","properties":{"name": "136"},"geometry":{"type":"Point","coordinates":[-19.9105578,25.4031768]}},
{"type":"Feature","properties":{"name": "137"},"geometry":{"type":"Point","coordinates":[-78.7500000,-10.7242152]}},
{"type":"Feature","properties":{"name": "138"},"geometry":{"type":"Point","coordinates":[-71.5574936,-7.2103367]}},
{"type":"Feature","properties":{"name": "139"},"geometry":{"type":"Point","coordinates":[-64.6111359,-3.6606113]}},
{"type":"Feature","properties":{"name": "140"},"geometry":{"type":"Point","coordinates":[-57.8448426,0.0000000]}},
{"type":"Feature","properties":{"name": "141"},"geometry":{"type":"Point","coordinates":[-51.2780179,4.0084518]}},
{"type":"Feature","properties":{"name": "142"},"geometry":{"type":"Point","coordinates":[-44.6321535,8.1007430]}},
{"type":"Feature","properties":{"name": "143"},"geometry":{"type":"Point","coordinates":[-37.7140815,12.1562756]}},
{"type":"Feature","properties":{"name": "144"},"geometry":{"type":"Point","coordinates":[-30.3004709,15.9120587]}},
{"type":"Feature","properties":{"name": "145"},"geometry":{"type":"Point","coordinates":[-22.1770032,18.5622862]}},
{"type":"Feature","properties":{"name": "146"},"geometry":{"type":"Point","coordinates":[-78.7500000,-17.7656805]}},
{"type":"Feature","properties":{"name": "147"},"geometry":{"type":"Point","coordinates":[-71.3203441,-14.3624483]}},
{"type":"Feature","properties":{"name": "148"},"geometry":{"type":"Point","coordinates":[-64.2782321,-10.9830268]}},
{"type":"Feature","properties":{"name": "149"},"geometry":{"type":"Point","coordinates":[-57.6426496,-7.6863382]}},
{"type":"Feature","properties":{"name": "150"},"geometry":{"type":"Point","coordinates":[-51.2780179,-4.0084518]}},
{"type":"Feature","properties":{"name": "151"},"geometry":{"type":"Point","coordinates":[-45.1363112,0.0000000]}},
{"type":"Feature","properties":{"name": "152"},"geometry":{"type":"Point","coordinates":[-38.6649359,4.0986909]}},
{"type":"Feature","properties":{"name": "153"},"geometry":{"type":"Point","coordinates":[-31.8318142,8.1472848]}},
{"type":"Feature","properties":{"name": "154"},"geometry":{"type":"Point","coordinates":[-24.3100446,11.6539339]}},
{"type":"Feature","properties":{"name": "155"},"geometry":{"type":"Point","coordinates":[-78.7500000,-24.7545154]}},
{"type":"Feature","properties":{"name": "156"},"geometry":{"type":"Point","coordinates":[-71.0353223,-21.5656717]}},
{"type":"Feature","properties":{"name": "157"},"geometry":{"type":"Point","coordinates":[-64.0211895,-18.6344843]}},
{"type":"Feature","properties":{"name": "158"},"geometry":{"type":"Point","coordinates":[-57.3162400,-15.4517204]}},
{"type":"Feature","properties":{"name": "159"},"geometry":{"type":"Point","coordinates":[-50.8051759,-11.9845108]}},
{"type":"Feature","properties":{"name": "160"},"geometry":{"type":"Point","coordinates":[-44.6321535,-8.1007430]}},
{"type":"Feature","properties":{"name": "161"},"geometry":{"type":"Point","coordinates":[-38.6649359,-4.0986909]}},
{"type":"Feature","properties":{"name": "162"},"geometry":{"type":"Point","coordinates":[-32.7302342,-0.0000000]}},
{"type":"Feature","properties":{"name": "163"},"geometry":{"type":"Point","coordinates":[-26.1102085,4.0861208]}},
{"type":"Feature","properties":{"name": "164"},"geometry":{"type":"Point","coordinates":[-20.4674744,0.0000000]}},
{"type":"Feature","properties":{"name": "165"},"geometry":{"type":"Point","coordinates":[-18.3061721,6.6206027]}},
{"type":"Feature","properties":{"name": "166"},"geometry":{"type":"Point","coordinates":[-16.0774602,13.2561521]}},
{"type":"Feature","properties":{"name": "167"},"geometry":{"type":"Point","coordinates":[-13.7049873,19.9209727]}},
{"type":"Feature","properties":{"name": "168"},"geometry":{"type":"Point","coordinates":[-11.0919381,26.6277736]}},
{"type":"Feature","properties":{"name": "169"},"geometry":{"type":"Point","coordinates":[-8.1174468,33.3555287]}},
{"type":"Feature","properties":{"name": "170"},"geometry":{"type":"Point","coordinates":[-4.6880373,39.9269588]}},
{"type":"Feature","properties":{"name": "171"},"geometry":{"type":"Point","coordinates":[-0.5876315,46.3033404]}},
{"type":"Feature","properties":{"name": "172"},"geometry":{"type":"Point","coordinates":[4.5358460,52.4494395]}},
{"type":"Feature","properties":{"name": "173"},"geometry":{"type":"Point","coordinates":[-18.3061721,-6.6206027]}},
{"type":"Feature","properties":{"name": "174"},"geometry":{"type":"Point","coordinates":[-13.5045154,0.0000000]}},
{"type":"Feature","properties":{"name": "175"},"geometry":{"type":"Point","coordinates":[-10.4943439,7.1716791]}},
{"type":"Feature","properties":{"name": "176"},"geometry":{"type":"Point","coordinates":[-7.9718474,13.9406013]}},
{"type":"Feature","properties":{"name": "177"},"geometry":{"type":"Point","coordinates":[-5.2890232,20.6229848]}},
{"type":"Feature","properties":{"name": "178"},"geometry":{"type":"Point","coordinates":[-2.2615665,27.2843549]}},
{"type":"Feature","properties":{"name": "179"},"geometry":{"type":"Point","coordinates":[1.4947883,33.7313920]}},
{"type":"Feature","properties":{"name": "180"},"geometry":{"type":"Point","coordinates":[5.8993116,39.9618437]}},
{"type":"Feature","properties":{"name": "181"},"geometry":{"type":"Point","coordinates":[11.2500000,46.0197658]}},
{"type":"Feature","properties":{"name": "182"},"geometry":{"type":"Point","coordinates":[-16.0774602,-13.2561521]}},
{"type":"Feature","properties":{"name": "183"},"geometry":{"type":"Point","coordinates":[-10.4943439,-7.1716791]}},
{"type":"Feature","properties":{"name": "184"},"geometry":{"type":"Point","coordinates":[-6.5156805,0.0000000]}},
{"type":"Feature","properties":{"name": "185"},"geometry":{"type":"Point","coordinates":[-3.2289599,7.1962001]}},
{"type":"Feature","properties":{"name": "186"},"geometry":{"type":"Point","coordinates":[-0.0837544,14.2010777]}},
{"type":"Feature","properties":{"name": "187"},"geometry":{"type":"Point","coordinates":[3.0182038,20.9087639]}},
{"type":"Feature","properties":{"name": "188"},"geometry":{"type":"Point","coordinates":[6.7340825,27.3991307]}},
{"type":"Feature","properties":{"name": "189"},"geometry":{"type":"Point","coordinates":[11.2500000,33.6136888]}},
{"type":"Feature","properties":{"name": "190"},"geometry":{"type":"Point","coordinates":[16.6006884,39.9618437]}},
{"type":"Feature","properties":{"name": "191"},"geometry":{"type":"Point","coordinates":[-13.7049873,-19.9209727]}},
{"type":"Feature","properties":{"name": "192"},"geometry":{"type":"Point","coordinates":[-7.9718474,-13.9406013]}},
{"type":"Feature","properties":{"name": "193"},"geometry":{"type":"Point","coordinates":[-3.2289599,-7.1962001]}},
{"type":"Feature","properties":{"name": "194"},"geometry":{"type":"Point","coordinates":[0.5257848,0.0000000]}},
{"type":"Feature","properties":{"name": "195"},"geometry":{"type":"Point","coordinates":[3.9830847,7.1353315]}},
{"type":"Feature","properties":{"name": "196"},"geometry":{"type":"Point","coordinates":[7.4753575,14.1094190]}},
{"type":"Feature","properties":{"name": "197"},"geometry":{"type":"Point","coordinates":[11.2500000,20.9051574]}},
{"type":"Feature","properties":{"name": "198"},"geometry":{"type":"Point","coordinates":[15.7659175,27.3991307]}},
{"type":"Feature","properties":{"name": "199"},"geometry":{"type":"Point","coordinates":[21.0052117,33.7313920]}},
{"type":"Feature","properties":{"name": "200"},"geometry":{"type":"Point","coordinates":[-11.0919381,-26.6277736]}},
{"type":"Feature","properties":{"name": "201"},"geometry":{"type":"Point","coordinates":[-5.2890232,-20.6229848]}},
{"type":"Feature","properties":{"name": "202"},"geometry":{"type":"Point","coordinates":[-0.0837544,-14.2010777]}},
{"type":"Feature","properties":{"name": "203"},"geometry":{"type":"Point","coordinates":[3.9830847,-7.1353315]}},
{"type":"Feature","properties":{"name": "204"},"geometry":{"type":"Point","coordinates":[7.6484769,0.0000000]}},
{"type":"Feature","properties":{"name": "205"},"geometry":{"type":"Point","coordinates":[11.2500000,7.0321681]}},
{"type":"Feature","properties":{"name": "206"},"geometry":{"type":"Point","coordinates":[15.0246425,14.1094190]}},
{"type":"Feature","properties":{"name": "207"},"geometry":{"type":"Point","coordinates":[19.4817962,20.9087639]}},
{"type":"Feature","properties":{"name": "208"},"geometry":{"type":"Point","coordinates":[24.7615665,27.2843549]}},
{"type":"Feature","properties":{"name": "209"},"geometry":{"type":"Point","coordinates":[-8.1174468,-33.3555287]}},
{"type":"Feature","properties":{"name": "210"},"geometry":{"type":"Point","coordinates":[-2.2615665,-27.2843549]}},
{"type":"Feature","properties":{"name": "211"},"geometry":{"type":"Point","coordinates":[3.0182038,-20.9087639]}},
{"type":"Feature","properties":{"name": "212"},"geometry":{"type":"Point","coordinates":[7.4753575,-14.1094190]}},
{"type":"Feature","properties":{"name": "213"},"geometry":{"type":"Point","coordinates":[11.2500000,-7.0321681]}},
{"type":"Feature","properties":{"name": "214"},"geometry":{"type":"Point","coordinates":[14.8515231,0.0000000]}},
{"type":"Feature","properties":{"name": "215"},"geometry":{"type":"Point","coordinates":[18.5169153,7.1353315]}},
{"type":"Feature","properties":{"name": "216"},"geometry":{"type":"Point","coordinates":[22.5837544,14.2010777]}},
{"type":"Feature","properties":{"name": "217"},"geometry":{"type":"Point","coordinates":[27.7890232,20.6229848]}},
{"type":"Feature","properties":{"name": "218"},"geometry":{"type":"Point","coordinates":[-4.6880373,-39.9269588]}},
{"type":"Feature","properties":{"name": "219"},"geometry":{"type":"Point","coordinates":[1.4947883,-33.7313920]}},
{"type":"Feature","properties":{"name": "220"},"geometry":{"type":"Point","coordinates":[6.7340825,-27.3991307]}},
{"type":"Feature","properties":{"name": "221"},"geometry":{"type":"Point","coordinates":[11.2500000,-20.9051574]}},
{"type":"Feature","properties":{"name": "222"},"geometry":{"type":"Point","coordinates":[15.0246425,-14.1094190]}},
{"type":"Feature","properties":{"name": "223"},"geometry":{"type":"Point","coordinates":[18.5169153,-7.1353315]}},
{"type":"Feature","properties":{"name": "224"},"geometry":{"type":"Point","coordinates":[21.9742152,0.0000000]}},
{"type":"Feature","properties":{"name": "225"},"geometry":{"type":"Point","coordinates":[25.7289599,7.1962001]}},
{"type":"Feature","properties":{"name": "226"},"geometry":{"type":"Point","coordinates":[30.4718474,13.9406013]}},
{"type":"Feature","properties":{"name": "227"},"geometry":{"type":"Point","coordinates":[-0.5876315,-46.3033404]}},
{"type":"Feature","properties":{"name": "228"},"geometry":{"type":"Point","coordinates":[5.8993116,-39.9618437]}},
{"type":"Feature","properties":{"name": "229"},"geometry":{"type":"Point","coordinates":[11.2500000,-33.6136888]}},
{"type":"Feature","properties":{"name": "230"},"geometry":{"type":"Point","coordinates":[15.7659175,-27.3991307]}},
{"type":"Feature","properties":{"name": "231"},"geometry":{"type":"Point","coordinates":[19.4817962,-20.9087639]}},
{"type":"Feature","properties":{"name": "232"},"geometry":{"type":"Point","coordinates":[22.5837544,-14.2010777]}},
{"type":"Feature","properties":{"name": "233"},"geometry":{"type":"Point","coordinates":[25.7289599,-7.1962001]}},
{"type":"Feature","properties":{"name": "234"},"geometry":{"type":"Point","coordinates":[29.0156805,0.0000000]}},
{"type":"Feature","properties":{"name": "235"},"geometry":{"type":"Point","coordinates":[32.9943439,7.1716791]}},
{"type":"Feature","properties":{"name": "236"},"geometry":{"type":"Point","coordinates":[4.5358460,-52.4494395]}},
{"type":"Feature","properties":{"name": "237"},"geometry":{"type":"Point","coordinates":[11.2500000,-46.0197658]}},
{"type":"Feature","properties":{"name": "238"},"geometry":{"type":"Point","coordinates":[16.6006884,-39.9618437]}},
{"type":"Feature","properties":{"name": "239"},"geometry":{"type":"Point","coordinates":[21.0052117,-33.7313920]}},
{"type":"Feature","properties":{"name": "240"},"geometry":{"type":"Point","coordinates":[24.7615665,-27.2843549]}},
{"type":"Feature","properties":{"name": "241"},"geometry":{"type":"Point","coordinates":[27.7890232,-20.6229848]}},
{"type":"Feature","properties":{"name": "242"},"geometry":{"type":"Point","coordinates":[30.4718474,-13.9406013]}},
{"type":"Feature","properties":{"name": "243"},"geometry":{"type":"Point","coordinates":[32.9943439,-7.1716791]}},
{"type":"Feature","properties":{"name": "244"},"geometry":{"type":"Point","coordinates":[36.0045154,0.0000000]}},
{"type":"Feature","properties":{"name": "245"},"geometry":{"type":"Point","coordinates":[42.9674744,0.0000000]}},
{"type":"Feature","properties":{"name": "246"},"geometry":{"type":"Point","coordinates":[40.8061721,6.6206027]}},
{"type":"Feature","properties":{"name": "247"},"geometry":{"type":"Point","coordinates":[38.5774602,13.2561521]}},
{"type":"Feature","properties":{"name": "248"},"geometry":{"type":"Point","coordinates":[36.2049873,19.9209727]}},
{"type":"Feature","properties":{"name": "249"},"geometry":{"type":"Point","coordinates":[33.5919381,26.6277736]}},
{"type":"Feature","properties":{"name": "250"},"geometry":{"type":"Point","coordinates":[30.6174468,33.3555287]}},
{"type":"Feature","properties":{"name": "251"},"geometry":{"type":"Point","coordinates":[27.1880373,39.9269588]}},
{"type":"Feature","properties":{"name": "252"},"geometry":{"type":"Point","coordinates":[23.0876315,46.3033404]}},
{"type":"Feature","properties":{"name": "253"},"geometry":{"type":"Point","coordinates":[17.9641540,52.4494395]}},
{"type":"Feature","properties":{"name": "254"},"geometry":{"type":"Point","coordinates":[48.6102085,-4.0861208]}},
{"type":"Feature","properties":{"name": "255"},"geometry":{"type":"Point","coordinates":[48.6102085,4.0861208]}},
{"type":"Feature","properties":{"name": "256"},"geometry":{"type":"Point","coordinates":[46.8100446,11.6539339]}},
{"type":"Feature","properties":{"name": "257"},"geometry":{"type":"Point","coordinates":[44.6770032,18.5622862]}},
{"type":"Feature","properties":{"name": "258"},"geometry":{"type":"Point","coordinates":[42.4105578,25.4031768]}},
{"type":"Feature","properties":{"name": "259"},"geometry":{"type":"Point","coordinates":[39.9297242,32.2809091]}},
{"type":"Feature","properties":{"name": "260"},"geometry":{"type":"Point","coordinates":[37.4308040,39.2028800]}},
{"type":"Feature","properties":{"name": "261"},"geometry":{"type":"Point","coordinates":[34.5085803,46.0294575]}},
{"type":"Feature","properties":{"name": "262"},"geometry":{"type":"Point","coordinates":[30.7773077,52.8195822]}},
{"type":"Feature","properties":{"name": "263"},"geometry":{"type":"Point","coordinates":[54.3318142,-8.1472848]}},
{"type":"Feature","properties":{"name": "264"},"geometry":{"type":"Point","coordinates":[55.2302342,0.0000000]}},
{"type":"Feature","properties":{"name": "265"},"geometry":{"type":"Point","coordinates":[54.3318142,8.1472848]}},
{"type":"Feature","properties":{"name": "266"},"geometry":{"type":"Point","coordinates":[52.8004709,15.9120587]}},
{"type":"Feature","properties":{"name": "267"},"geometry":{"type":"Point","coordinates":[51.0454188,23.3873460]}},
{"type":"Feature","properties":{"name": "268"},"geometry":{"type":"Point","coordinates":[49.0573958,30.5002275]}},
{"type":"Feature","properties":{"name": "269"},"geometry":{"type":"Point","coordinates":[47.1571056,37.6507869]}},
{"type":"Feature","properties":{"name": "270"},"geometry":{"type":"Point","coordinates":[45.2966386,44.8465203]}},
{"type":"Feature","properties":{"name": "271"},"geometry":{"type":"Point","coordinates":[42.6158548,52.2951257]}},
{"type":"Feature","properties":{"name": "272"},"geometry":{"type":"Point","coordinates":[60.2140815,-12.1562756]}},
{"type":"Feature","properties":{"name": "273"},"geometry":{"type":"Point","coordinates":[61.1649359,-4.0986909]}},
{"type":"Feature","properties":{"name": "274"},"geometry":{"type":"Point","coordinates":[61.1649359,4.0986909]}},
{"type":"Feature","properties":{"name": "275"},"geometry":{"type":"Point","coordinates":[60.2140815,12.1562756]}},
{"type":"Feature","properties":{"name": "276"},"geometry":{"type":"Point","coordinates":[58.9819063,19.9924024]}},
{"type":"Feature","properties":{"name": "277"},"geometry":{"type":"Point","coordinates":[57.6428133,27.6674496]}},
{"type":"Feature","properties":{"name": "278"},"geometry":{"type":"Point","coordinates":[56.2500000,35.2643897]}},
{"type":"Feature","properties":{"name": "279"},"geometry":{"type":"Point","coordinates":[55.1081684,42.9023438]}},
{"type":"Feature","properties":{"name": "280"},"geometry":{"type":"Point","coordinates":[53.7956052,50.6224596]}},
{"type":"Feature","properties":{"name": "281"},"geometry":{"type":"Point","coordinates":[66.3445811,-16.0811281]}},
{"type":"Feature","properties":{"name": "282"},"geometry":{"type":"Point","coordinates":[67.1321535,-8.1007430]}},
{"type":"Feature","properties":{"name": "283"},"geometry":{"type":"Point","coordinates":[67.6363112,0.0000000]}},
{"type":"Feature","properties":{"name": "284"},"geometry":{"type":"Point","coordinates":[67.1321535,8.1007430]}},
{"type":"Feature","properties":{"name": "285"},"geometry":{"type":"Point","coordinates":[66.3445811,16.0811281]}},
{"type":"Feature","properties":{"name": "286"},"geometry":{"type":"Point","coordinates":[65.4943949,23.9373584]}},
{"type":"Feature","properties":{"name": "287"},"geometry":{"type":"Point","coordinates":[64.5431968,31.8829201]}},
{"type":"Feature","properties":{"name": "288"},"geometry":{"type":"Point","coordinates":[64.0095129,39.8882039]}},
{"type":"Feature","properties":{"name": "289"},"geometry":{"type":"Point","coordinates":[64.0257826,47.8779635]}},
{"type":"Feature","properties":{"name": "290"},"geometry":{"type":"Point","coordinates":[72.7896190,-19.8656172]}},
{"type":"Feature","properties":{"name": "291"},"geometry":{"type":"Point","coordinates":[73.3051759,-11.9845108]}},
{"type":"Feature","properties":{"name": "292"},"geometry":{"type":"Point","coordinates":[73.7780179,-4.0084518]}},
{"type":"Feature","properties":{"name": "293"},"geometry":{"type":"Point","coordinates":[73.7780179,4.0084518]}},
{"type":"Feature","properties":{"name": "294"},"geometry":{"type":"Point","coordinates":[73.3051759,11.9845108]}},
{"type":"Feature","properties":{"name": "295"},"geometry":{"type":"Point","coordinates":[72.7896190,19.8656172]}},
{"type":"Feature","properties":{"name": "296"},"geometry":{"type":"Point","coordinates":[72.2208571,27.8661593]}},
{"type":"Feature","properties":{"name": "297"},"geometry":{"type":"Point","coordinates":[71.8759240,35.9772081]}},
{"type":"Feature","properties":{"name": "298"},"geometry":{"type":"Point","coordinates":[72.8403561,44.0600182]}},
{"type":"Feature","properties":{"name": "299"},"geometry":{"type":"Point","coordinates":[79.4620372,-23.3695892]}},
{"type":"Feature","properties":{"name": "300"},"geometry":{"type":"Point","coordinates":[79.8162400,-15.4517204]}},
{"type":"Feature","properties":{"name": "301"},"geometry":{"type":"Point","coordinates":[80.1426496,-7.6863382]}},
{"type":"Feature","properties":{"name": "302"},"geometry":{"type":"Point","coordinates":[80.3448426,0.0000000]}},
{"type":"Feature","properties":{"name": "303"},"geometry":{"type":"Point","coordinates":[80.1426496,7.6863382]}},
{"type":"Feature","properties":{"name": "304"},"geometry":{"type":"Point","coordinates":[79.8162400,15.4517204]}},
{"type":"Feature","properties":{"name": "305"},"geometry":{"type":"Point","coordinates":[79.4620372,23.3695892]}},
{"type":"Feature","properties":{"name": "306"},"geometry":{"type":"Point","coordinates":[79.3321417,31.4810577]}},
{"type":"Feature","properties":{"name": "307"},"geometry":{"type":"Point","coordinates":[80.3961402,39.6328067]}},
{"type":"Feature","properties":{"name": "308"},"geometry":{"type":"Point","coordinates":[86.3983251,-26.5413242]}},
{"type":"Feature","properties":{"name": "309"},"geometry":{"type":"Point","coordinates":[86.5211895,-18.6344843]}},
{"type":"Feature","properties":{"name": "310"},"geometry":{"type":"Point","coordinates":[86.7782321,-10.9830268]}},
{"type":"Feature","properties":{"name": "311"},"geometry":{"type":"Point","coordinates":[87.1111359,-3.6606113]}},
{"type":"Feature","properties":{"name": "312"},"geometry":{"type":"Point","coordinates":[87.1111359,3.6606113]}},
{"type":"Feature","properties":{"name": "313"},"geometry":{"type":"Point","coordinates":[86.7782321,10.9830268]}},
{"type":"Feature","properties":{"name": "314"},"geometry":{"type":"Point","coordinates":[86.5211895,18.6344843]}},
{"type":"Feature","properties":{"name": "315"},"geometry":{"type":"Point","coordinates":[86.3983251,26.5413242]}},
{"type":"Feature","properties":{"name": "316"},"geometry":{"type":"Point","coordinates":[87.0233338,34.7200612]}},
{"type":"Feature","properties":{"name": "317"},"geometry":{"type":"Point","coordinates":[93.6498325,-29.3397357]}},
{"type":"Feature","properties":{"name": "318"},"geometry":{"type":"Point","coordinates":[93.5353223,-21.5656717]}},
{"type":"Feature","properties":{"name": "319"},"geometry":{"type":"Point","coordinates":[93.8203441,-14.3624483]}},
{"type":"Feature","properties":{"name": "320"},"geometry":{"type":"Point","coordinates":[94.0574936,-7.2103367]}},
{"type":"Feature","properties":{"name": "321"},"geometry":{"type":"Point","coordinates":[94.2178319,0.0000000]}},
{"type":"Feature","properties":{"name": "322"},"geometry":{"type":"Point","coordinates":[94.0574936,7.2103367]}},
{"type":"Feature","properties":{"name": "323"},"geometry":{"type":"Point","coordinates":[93.8203441,14.3624483]}},
{"type":"Feature","properties":{"name": "324"},"geometry":{"type":"Point","coordinates":[93.5353223,21.5656717]}},
{"type":"Feature","properties":{"name": "325"},"geometry":{"type":"Point","coordinates":[93.6498325,29.3397357]}},
{"type":"Feature","properties":{"name": "326"},"geometry":{"type":"Point","coordinates":[101.2500000,31.7174744]}},
{"type":"Feature","properties":{"name": "327"},"geometry":{"type":"Point","coordinates":[96.1142323,37.2490994]}},
{"type":"Feature","properties":{"name": "328"},"geometry":{"type":"Point","coordinates":[90.1599351,42.5433679]}},
{"type":"Feature","properties":{"name": "329"},"geometry":{"type":"Point","coordinates":[83.0852721,47.5090834]}},
{"type":"Feature","properties":{"name": "330"},"geometry":{"type":"Point","coordinates":[74.5116562,51.9997156]}},
{"type":"Feature","properties":{"name": "331"},"geometry":{"type":"Point","coordinates":[64.0809448,55.7745445]}},
{"type":"Feature","properties":{"name": "332"},"geometry":{"type":"Point","coordinates":[51.9119264,58.4725085]}},
{"type":"Feature","properties":{"name": "333"},"geometry":{"type":"Point","coordinates":[38.4153717,59.8513928]}},
{"type":"Feature","properties":{"name": "334"},"geometry":{"type":"Point","coordinates":[24.4908807,59.7768689]}},
{"type":"Feature","properties":{"name": "335"},"geometry":{"type":"Point","coordinates":[108.8501675,29.3397357]}},
{"type":"Feature","properties":{"name": "336"},"geometry":{"type":"Point","coordinates":[106.3857677,37.2490994]}},
{"type":"Feature","properties":{"name": "337"},"geometry":{"type":"Point","coordinates":[101.2500000,43.9802342]}},
{"type":"Feature","properties":{"name": "338"},"geometry":{"type":"Point","coordinates":[94.9000705,49.7411364]}},
{"type":"Feature","properties":{"name": "339"},"geometry":{"type":"Point","coordinates":[87.0110703,55.0472608]}},
{"type":"Feature","properties":{"name": "340"},"geometry":{"type":"Point","coordinates":[76.8806215,59.7851629]}},
{"type":"Feature","properties":{"name": "341"},"geometry":{"type":"Point","coordinates":[64.1451816,63.7918684]}},
{"type":"Feature","properties":{"name": "342"},"geometry":{"type":"Point","coordinates":[48.2652050,66.4109094]}},
{"type":"Feature","properties":{"name": "343"},"geometry":{"type":"Point","coordinates":[30.0098530,67.1580723]}},
{"type":"Feature","properties":{"name": "344"},"geometry":{"type":"Point","coordinates":[116.1016749,26.5413242]}},
{"type":"Feature","properties":{"name": "345"},"geometry":{"type":"Point","coordinates":[115.4766662,34.7200612]}},
{"type":"Feature","properties":{"name": "346"},"geometry":{"type":"Point","coordinates":[112.3400649,42.5433679]}},
{"type":"Feature","properties":{"name": "347"},"geometry":{"type":"Point","coordinates":[107.5999295,49.7411364]}},
{"type":"Feature","properties":{"name": "348"},"geometry":{"type":"Point","coordinates":[101.2500000,56.3863112]}},
{"type":"Feature","properties":{"name": "349"},"geometry":{"type":"Point","coordinates":[92.6126366,62.2596593]}},
{"type":"Feature","properties":{"name": "350"},"geometry":{"type":"Point","coordinates":[80.7052784,67.5968802]}},
{"type":"Feature","properties":{"name": "351"},"geometry":{"type":"Point","coordinates":[63.4173321,71.9036870]}},
{"type":"Feature","properties":{"name": "352"},"geometry":{"type":"Point","coordinates":[38.0437109,73.8656463]}},
{"type":"Feature","properties":{"name": "353"},"geometry":{"type":"Point","coordinates":[123.0379628,23.3695892]}},
{"type":"Feature","properties":{"name": "354"},"geometry":{"type":"Point","coordinates":[123.1678583,31.4810577]}},
{"type":"Feature","properties":{"name": "355"},"geometry":{"type":"Point","coordinates":[122.1038598,39.6328067]}},
{"type":"Feature","properties":{"name": "356"},"geometry":{"type":"Point","coordinates":[119.4147279,47.5090834]}},
{"type":"Feature","properties":{"name": "357"},"geometry":{"type":"Point","coordinates":[115.4889297,55.0472608]}},
{"type":"Feature","properties":{"name": "358"},"geometry":{"type":"Point","coordinates":[109.8873634,62.2596593]}},
{"type":"Feature","properties":{"name": "359"},"geometry":{"type":"Point","coordinates":[101.2500000,69.0948426]}},
{"type":"Feature","properties":{"name": "360"},"geometry":{"type":"Point","coordinates":[86.5734804,75.4043030]}},
{"type":"Feature","properties":{"name": "361"},"geometry":{"type":"Point","coordinates":[55.9520026,79.8290886]}},
{"type":"Feature","properties":{"name": "362"},"geometry":{"type":"Point","coordinates":[129.7103810,19.8656172]}},
{"type":"Feature","properties":{"name": "363"},"geometry":{"type":"Point","coordinates":[130.2791429,27.8661593]}},
{"type":"Feature","properties":{"name": "364"},"geometry":{"type":"Point","coordinates":[130.6240760,35.9772081]}},
{"type":"Feature","properties":{"name": "365"},"geometry":{"type":"Point","coordinates":[129.6596439,44.0600182]}},
{"type":"Feature","properties":{"name": "366"},"geometry":{"type":"Point","coordinates":[127.9883438,51.9997156]}},
{"type":"Feature","properties":{"name": "367"},"geometry":{"type":"Point","coordinates":[125.6193785,59.7851629]}},
{"type":"Feature","properties":{"name": "368"},"geometry":{"type":"Point","coordinates":[121.7947216,67.5968802]}},
{"type":"Feature","properties":{"name": "369"},"geometry":{"type":"Point","coordinates":[115.9265196,75.4043030]}},
{"type":"Feature","properties":{"name": "370"},"geometry":{"type":"Point","coordinates":[101.2500000,82.9678319]}},
{"type":"Feature","properties":{"name": "371"},"geometry":{"type":"Point","coordinates":[136.1554189,16.0811281]}},
{"type":"Feature","properties":{"name": "372"},"geometry":{"type":"Point","coordinates":[137.0056051,23.9373584]}},
{"type":"Feature","properties":{"name": "373"},"geometry":{"type":"Point","coordinates":[137.9568032,31.8829201]}},
{"type":"Feature","properties":{"name": "374"},"geometry":{"type":"Point","coordinates":[138.4904871,39.8882039]}},
{"type":"Feature","properties":{"name": "375"},"geometry":{"type":"Point","coordinates":[138.4742174,47.8779635]}},
{"type":"Feature","properties":{"name": "376"},"geometry":{"type":"Point","coordinates":[138.4190552,55.7745445]}},
{"type":"Feature","properties":{"name": "377"},"geometry":{"type":"Point","coordinates":[138.3548184,63.7918684]}},
{"type":"Feature","properties":{"name": "378"},"geometry":{"type":"Point","coordinates":[139.0826679,71.9036870]}},
{"type":"Feature","properties":{"name": "379"},"geometry":{"type":"Point","coordinates":[146.5479974,79.8290886]}},
{"type":"Feature","properties":{"name": "380"},"geometry":{"type":"Point","coordinates":[142.2859185,12.1562756]}},
{"type":"Feature","properties":{"name": "381"},"geometry":{"type":"Point","coordinates":[143.5180937,19.9924024]}},
{"type":"Feature","properties":{"name": "382"},"geometry":{"type":"Point","coordinates":[144.8571867,27.6674496]}},
{"type":"Feature","properties":{"name": "383"},"geometry":{"type":"Point","coordinates":[146.2500000,35.2643897]}},
{"type":"Feature","properties":{"name": "384"},"geometry":{"type":"Point","coordinates":[147.3918316,42.9023438]}},
{"type":"Feature","properties":{"name": "385"},"geometry":{"type":"Point","coordinates":[148.7043948,50.6224596]}},
{"type":"Feature","properties":{"name": "386"},"geometry":{"type":"Point","coordinates":[150.5880736,58.4725085]}},
{"type":"Feature","properties":{"name": "387"},"geometry":{"type":"Point","coordinates":[154.2347950,66.4109094]}},
{"type":"Feature","properties":{"name": "388"},"geometry":{"type":"Point","coordinates":[164.4562891,73.8656463]}},
{"type":"Feature","properties":{"name": "389"},"geometry":{"type":"Point","coordinates":[148.1681858,8.1472848]}},
{"type":"Feature","properties":{"name": "390"},"geometry":{"type":"Point","coordinates":[149.6995291,15.9120587]}},
{"type":"Feature","properties":{"name": "391"},"geometry":{"type":"Point","coordinates":[151.4545812,23.3873460]}},
{"type":"Feature","properties":{"name": "392"},"geometry":{"type":"Point","coordinates":[153.4426042,30.5002275]}},
{"type":"Feature","properties":{"name": "393"},"geometry":{"type":"Point","coordinates":[155.3428944,37.6507869]}},
{"type":"Feature","properties":{"name": "394"},"geometry":{"type":"Point","coordinates":[157.2033614,44.8465203]}},
{"type":"Feature","properties":{"name": "395"},"geometry":{"type":"Point","coordinates":[159.8841452,52.2951257]}},
{"type":"Feature","properties":{"name": "396"},"geometry":{"type":"Point","coordinates":[164.0846283,59.8513928]}},
{"type":"Feature","properties":{"name": "397"},"geometry":{"type":"Point","coordinates":[172.4901470,67.1580723]}},
{"type":"Feature","properties":{"name": "398"},"geometry":{"type":"Point","coordinates":[153.8897915,4.0861208]}},
{"type":"Feature","properties":{"name": "399"},"geometry":{"type":"Point","coordinates":[155.6899554,11.6539339]}},
{"type":"Feature","properties":{"name": "400"},"geometry":{"type":"Point","coordinates":[157.8229968,18.5622862]}},
{"type":"Feature","properties":{"name": "401"},"geometry":{"type":"Point","coordinates":[160.0894422,25.4031768]}},
{"type":"Feature","properties":{"name": "402"},"geometry":{"type":"Point","coordinates":[162.5702758,32.2809091]}},
{"type":"Feature","properties":{"name": "403"},"geometry":{"type":"Point","coordinates":[165.0691960,39.2028800]}},
{"type":"Feature","properties":{"name": "404"},"geometry":{"type":"Point","coordinates":[167.9914197,46.0294575]}},
{"type":"Feature","properties":{"name": "405"},"geometry":{"type":"Point","coordinates":[171.7226923,52.8195822]}},
{"type":"Feature","properties":{"name": "406"},"geometry":{"type":"Point","coordinates":[178.0091193,59.7768689]}},
{"type":"Feature","properties":{"name": "407"},"geometry":{"type":"Point","coordinates":[-137.0325256,0.0000000]}},
{"type":"Feature","properties":{"name": "408"},"geometry":{"type":"Point","coordinates":[-131.3897915,4.0861208]}},
{"type":"Feature","properties":{"name": "409"},"geometry":{"type":"Point","coordinates":[-125.6681858,8.1472848]}},
{"type":"Feature","properties":{"name": "410"},"geometry":{"type":"Point","coordinates":[-119.7859185,12.1562756]}},
{"type":"Feature","properties":{"name": "411"},"geometry":{"type":"Point","coordinates":[-113.6554189,16.0811281]}},
{"type":"Feature","properties":{"name": "412"},"geometry":{"type":"Point","coordinates":[-107.2103810,19.8656172]}},
{"type":"Feature","properties":{"name": "413"},"geometry":{"type":"Point","coordinates":[-100.5379628,23.3695892]}},
{"type":"Feature","properties":{"name": "414"},"geometry":{"type":"Point","coordinates":[-93.6016749,26.5413242]}},
{"type":"Feature","properties":{"name": "415"},"geometry":{"type":"Point","coordinates":[-86.3501675,29.3397357]}},
{"type":"Feature","properties":{"name": "416"},"geometry":{"type":"Point","coordinates":[-139.1938279,-6.6206027]}},
{"type":"Feature","properties":{"name": "417"},"geometry":{"type":"Point","coordinates":[-131.3897915,-4.0861208]}},
{"type":"Feature","properties":{"name": "418"},"geometry":{"type":"Point","coordinates":[-124.7697658,0.0000000]}},
{"type":"Feature","properties":{"name": "419"},"geometry":{"type":"Point","coordinates":[-118.8350641,4.0986909]}},
{"type":"Feature","properties":{"name": "420"},"geometry":{"type":"Point","coordinates":[-112.8678465,8.1007430]}},
{"type":"Feature","properties":{"name": "421"},"geometry":{"type":"Point","coordinates":[-106.6948241,11.9845108]}},
{"type":"Feature","properties":{"name": "422"},"geometry":{"type":"Point","coordinates":[-100.1837600,15.4517204]}},
{"type":"Feature","properties":{"name": "423"},"geometry":{"type":"Point","coordinates":[-93.4788105,18.6344843]}},
{"type":"Feature","properties":{"name": "424"},"geometry":{"type":"Point","coordinates":[-86.4646777,21.5656717]}},
{"type":"Feature","properties":{"name": "425"},"geometry":{"type":"Point","coordinates":[-141.4225398,-13.2561521]}},
{"type":"Feature","properties":{"name": "426"},"geometry":{"type":"Point","coordinates":[-133.1899554,-11.6539339]}},
{"type":"Feature","properties":{"name": "427"},"geometry":{"type":"Point","coordinates":[-125.6681858,-8.1472848]}},
{"type":"Feature","properties":{"name": "428"},"geometry":{"type":"Point","coordinates":[-118.8350641,-4.0986909]}},
{"type":"Feature","properties":{"name": "429"},"geometry":{"type":"Point","coordinates":[-112.3636888,0.0000000]}},
{"type":"Feature","properties":{"name": "430"},"geometry":{"type":"Point","coordinates":[-106.2219821,4.0084518]}},
{"type":"Feature","properties":{"name": "431"},"geometry":{"type":"Point","coordinates":[-99.8573504,7.6863382]}},
{"type":"Feature","properties":{"name": "432"},"geometry":{"type":"Point","coordinates":[-93.2217679,10.9830268]}},
{"type":"Feature","properties":{"name": "433"},"geometry":{"type":"Point","coordinates":[-86.1796559,14.3624483]}},
{"type":"Feature","properties":{"name": "434"},"geometry":{"type":"Point","coordinates":[-143.7950127,-19.9209727]}},
{"type":"Feature","properties":{"name": "435"},"geometry":{"type":"Point","coordinates":[-135.3229968,-18.5622862]}},
{"type":"Feature","properties":{"name": "436"},"geometry":{"type":"Point","coordinates":[-127.1995291,-15.9120587]}},
{"type":"Feature","properties":{"name": "437"},"geometry":{"type":"Point","coordinates":[-119.7859185,-12.1562756]}},
{"type":"Feature","properties":{"name": "438"},"geometry":{"type":"Point","coordinates":[-112.8678465,-8.1007430]}},
{"type":"Feature","properties":{"name": "439"},"geometry":{"type":"Point","coordinates":[-106.2219821,-4.0084518]}},
{"type":"Feature","properties":{"name": "440"},"geometry":{"type":"Point","coordinates":[-99.6551574,-0.0000000]}},
{"type":"Feature","properties":{"name": "441"},"geometry":{"type":"Point","coordinates":[-92.8888641,3.6606113]}},
{"type":"Feature","properties":{"name": "442"},"geometry":{"type":"Point","coordinates":[-85.9425064,7.2103367]}},
{"type":"Feature","properties":{"name": "443"},"geometry":{"type":"Point","coordinates":[-146.4080619,-26.6277736]}},
{"type":"Feature","properties":{"name": "444"},"geometry":{"type":"Point","coordinates":[-137.5894422,-25.4031768]}},
{"type":"Feature","properties":{"name": "445"},"geometry":{"type":"Point","coordinates":[-128.9545812,-23.3873460]}},
{"type":"Feature","properties":{"name": "446"},"geometry":{"type":"Point","coordinates":[-121.0180937,-19.9924024]}},
{"type":"Feature","properties":{"name": "447"},"geometry":{"type":"Point","coordinates":[-113.6554189,-16.0811281]}},
{"type":"Feature","properties":{"name": "448"},"geometry":{"type":"Point","coordinates":[-106.6948241,-11.9845108]}},
{"type":"Feature","properties":{"name": "449"},"geometry":{"type":"Point","coordinates":[-99.8573504,-7.6863382]}},
{"type":"Feature","properties":{"name": "450"},"geometry":{"type":"Point","coordinates":[-92.8888641,-3.6606113]}},
{"type":"Feature","properties":{"name": "451"},"geometry":{"type":"Point","coordinates":[-85.7821681,0.0000000]}},
{"type":"Feature","properties":{"name": "452"},"geometry":{"type":"Point","coordinates":[-149.3825532,-33.3555287]}},
{"type":"Feature","properties":{"name": "453"},"geometry":{"type":"Point","coordinates":[-140.0702758,-32.2809091]}},
{"type":"Feature","properties":{"name": "454"},"geometry":{"type":"Point","coordinates":[-130.9426042,-30.5002275]}},
{"type":"Feature","properties":{"name": "455"},"geometry":{"type":"Point","coordinates":[-122.3571867,-27.6674496]}},
{"type":"Feature","properties":{"name": "456"},"geometry":{"type":"Point","coordinates":[-114.5056051,-23.9373584]}},
{"type":"Feature","properties":{"name": "457"},"geometry":{"type":"Point","coordinates":[-107.2103810,-19.8656172]}},
{"type":"Feature","properties":{"name": "458"},"geometry":{"type":"Point","coordinates":[-100.1837600,-15.4517204]}},
{"type":"Feature","properties":{"name": "459"},"geometry":{"type":"Point","coordinates":[-93.2217679,-10.9830268]}},
{"type":"Feature","properties":{"name": "460"},"geometry":{"type":"Point","coordinates":[-85.9425064,-7.2103367]}},
{"type":"Feature","properties":{"name": "461"},"geometry":{"type":"Point","coordinates":[-152.8119627,-39.9269588]}},
{"type":"Feature","properties":{"name": "462"},"geometry":{"type":"Point","coordinates":[-142.5691960,-39.2028800]}},
{"type":"Feature","properties":{"name": "463"},"geometry":{"type":"Point","coordinates":[-132.8428944,-37.6507869]}},
{"type":"Feature","properties":{"name": "464"},"geometry":{"type":"Point","coordinates":[-123.7500000,-35.2643897]}},
{"type":"Feature","properties":{"name": "465"},"geometry":{"type":"Point","coordinates":[-115.4568032,-31.8829201]}},
{"type":"Feature","properties":{"name": "466"},"geometry":{"type":"Point","coordinates":[-107.7791429,-27.8661593]}},
{"type":"Feature","properties":{"name": "467"},"geometry":{"type":"Point","coordinates":[-100.5379628,-23.3695892]}},
{"type":"Feature","properties":{"name": "468"},"geometry":{"type":"Point","coordinates":[-93.4788105,-18.6344843]}},
{"type":"Feature","properties":{"name": "469"},"geometry":{"type":"Point","coordinates":[-86.1796559,-14.3624483]}},
{"type":"Feature","properties":{"name": "470"},"geometry":{"type":"Point","coordinates":[-156.9123685,-46.3033404]}},
{"type":"Feature","properties":{"name": "471"},"geometry":{"type":"Point","coordinates":[-145.4914197,-46.0294575]}},
{"type":"Feature","properties":{"name": "472"},"geometry":{"type":"Point","coordinates":[-134.7033614,-44.8465203]}},
{"type":"Feature","properties":{"name": "473"},"geometry":{"type":"Point","coordinates":[-124.8918316,-42.9023438]}},
{"type":"Feature","properties":{"name": "474"},"geometry":{"type":"Point","coordinates":[-115.9904871,-39.8882039]}},
{"type":"Feature","properties":{"name": "475"},"geometry":{"type":"Point","coordinates":[-108.1240760,-35.9772081]}},
{"type":"Feature","properties":{"name": "476"},"geometry":{"type":"Point","coordinates":[-100.6678583,-31.4810577]}},
{"type":"Feature","properties":{"name": "477"},"geometry":{"type":"Point","coordinates":[-93.6016749,-26.5413242]}},
{"type":"Feature","properties":{"name": "478"},"geometry":{"type":"Point","coordinates":[-86.4646777,-21.5656717]}},
{"type":"Feature","properties":{"name": "479"},"geometry":{"type":"Point","coordinates":[-162.0358460,-52.4494395]}},
{"type":"Feature","properties":{"name": "480"},"geometry":{"type":"Point","coordinates":[-149.2226923,-52.8195822]}},
{"type":"Feature","properties":{"name": "481"},"geometry":{"type":"Point","coordinates":[-137.3841452,-52.2951257]}},
{"type":"Feature","properties":{"name": "482"},"geometry":{"type":"Point","coordinates":[-126.2043948,-50.6224596]}},
{"type":"Feature","properties":{"name": "483"},"geometry":{"type":"Point","coordinates":[-115.9742174,-47.8779635]}},
{"type":"Feature","properties":{"name": "484"},"geometry":{"type":"Point","coordinates":[-107.1596439,-44.0600182]}},
{"type":"Feature","properties":{"name": "485"},"geometry":{"type":"Point","coordinates":[-99.6038598,-39.6328067]}},
{"type":"Feature","properties":{"name": "486"},"geometry":{"type":"Point","coordinates":[-92.9766662,-34.7200612]}},
{"type":"Feature","properties":{"name": "487"},"geometry":{"type":"Point","coordinates":[-86.3501675,-29.3397357]}},
{"type":"Feature","properties":{"name": "488"},"geometry":{"type":"Point","coordinates":[-78.7500000,-31.7174744]}},
{"type":"Feature","properties":{"name": "489"},"geometry":{"type":"Point","coordinates":[-71.1498325,-29.3397357]}},
{"type":"Feature","properties":{"name": "490"},"geometry":{"type":"Point","coordinates":[-63.8983251,-26.5413242]}},
{"type":"Feature","properties":{"name": "491"},"geometry":{"type":"Point","coordinates":[-56.9620372,-23.3695892]}},
{"type":"Feature","properties":{"name": "492"},"geometry":{"type":"Point","coordinates":[-50.2896190,-19.8656172]}},
{"type":"Feature","properties":{"name": "493"},"geometry":{"type":"Point","coordinates":[-43.8445811,-16.0811281]}},
{"type":"Feature","properties":{"name": "494"},"geometry":{"type":"Point","coordinates":[-37.7140815,-12.1562756]}},
{"type":"Feature","properties":{"name": "495"},"geometry":{"type":"Point","coordinates":[-31.8318142,-8.1472848]}},
{"type":"Feature","properties":{"name": "496"},"geometry":{"type":"Point","coordinates":[-26.1102085,-4.0861208]}},
{"type":"Feature","properties":{"name": "497"},"geometry":{"type":"Point","coordinates":[-83.8857677,-37.2490994]}},
{"type":"Feature","properties":{"name": "498"},"geometry":{"type":"Point","coordinates":[-73.6142323,-37.2490994]}},
{"type":"Feature","properties":{"name": "499"},"geometry":{"type":"Point","coordinates":[-64.5233338,-34.7200612]}},
{"type":"Feature","properties":{"name": "500"},"geometry":{"type":"Point","coordinates":[-56.8321417,-31.4810577]}},
{"type":"Feature","properties":{"name": "501"},"geometry":{"type":"Point","coordinates":[-49.7208571,-27.8661593]}},
{"type":"Feature","properties":{"name": "502"},"geometry":{"type":"Point","coordinates":[-42.9943949,-23.9373584]}},
{"type":"Feature","properties":{"name": "503"},"geometry":{"type":"Point","coordinates":[-36.4819063,-19.9924024]}},
{"type":"Feature","properties":{"name": "504"},"geometry":{"type":"Point","coordinates":[-30.3004709,-15.9120587]}},
{"type":"Feature","properties":{"name": "505"},"geometry":{"type":"Point","coordinates":[-24.3100446,-11.6539339]}},
{"type":"Feature","properties":{"name": "506"},"geometry":{"type":"Point","coordinates":[-89.8400649,-42.5433679]}},
{"type":"Feature","properties":{"name": "507"},"geometry":{"type":"Point","coordinates":[-78.7500000,-43.9802342]}},
{"type":"Feature","properties":{"name": "508"},"geometry":{"type":"Point","coordinates":[-67.6599351,-42.5433679]}},
{"type":"Feature","properties":{"name": "509"},"geometry":{"type":"Point","coordinates":[-57.8961402,-39.6328067]}},
{"type":"Feature","properties":{"name": "510"},"geometry":{"type":"Point","coordinates":[-49.3759240,-35.9772081]}},
{"type":"Feature","properties":{"name": "511"},"geometry":{"type":"Point","coordinates":[-42.0431968,-31.8829201]}},
{"type":"Feature","properties":{"name": "512"},"geometry":{"type":"Point","coordinates":[-35.1428133,-27.6674496]}},
{"type":"Feature","properties":{"name": "513"},"geometry":{"type":"Point","coordinates":[-28.5454188,-23.3873460]}},
{"type":"Feature","properties":{"name": "514"},"geometry":{"type":"Point","coordinates":[-22.1770032,-18.5622862]}},
{"type":"Feature","properties":{"name": "515"},"geometry":{"type":"Point","coordinates":[-96.9147279,-47.5090834]}},
{"type":"Feature","properties":{"name": "516"},"geometry":{"type":"Point","coordinates":[-85.0999295,-49.7411364]}},
{"type":"Feature","properties":{"name": "517"},"geometry":{"type":"Point","coordinates":[-72.4000705,-49.7411364]}},
{"type":"Feature","properties":{"name": "518"},"geometry":{"type":"Point","coordinates":[-60.5852721,-47.5090834]}},
{"type":"Feature","properties":{"name": "519"},"geometry":{"type":"Point","coordinates":[-50.3403561,-44.0600182]}},
{"type":"Feature","properties":{"name": "520"},"geometry":{"type":"Point","coordinates":[-41.5095129,-39.8882039]}},
{"type":"Feature","properties":{"name": "521"},"geometry":{"type":"Point","coordinates":[-33.7500000,-35.2643897]}},
{"type":"Feature","properties":{"name": "522"},"geometry":{"type":"Point","coordinates":[-26.5573958,-30.5002275]}},
{"type":"Feature","properties":{"name": "523"},"geometry":{"type":"Point","coordinates":[-19.9105578,-25.4031768]}},
{"type":"Feature","properties":{"name": "524"},"geometry":{"type":"Point","coordinates":[-105.4883438,-51.9997156]}},
{"type":"Feature","properties":{"name": "525"},"geometry":{"type":"Point","coordinates":[-92.9889297,-55.0472608]}},
{"type":"Feature","properties":{"name": "526"},"geometry":{"type":"Point","coordinates":[-78.7500000,-56.3863112]}},
{"type":"Feature","properties":{"name": "527"},"geometry":{"type":"Point","coordinates":[-64.5110703,-55.0472608]}},
{"type":"Feature","properties":{"name": "528"},"geometry":{"type":"Point","coordinates":[-52.0116562,-51.9997156]}},
{"type":"Feature","properties":{"name": "529"},"geometry":{"type":"Point","coordinates":[-41.5257826,-47.8779635]}},
{"type":"Feature","properties":{"name": "530"},"geometry":{"type":"Point","coordinates":[-32.6081684,-42.9023438]}},
{"type":"Feature","properties":{"name": "531"},"geometry":{"type":"Point","coordinates":[-24.6571056,-37.6507869]}},
{"type":"Feature","properties":{"name": "532"},"geometry":{"type":"Point","coordinates":[-17.4297242,-32.2809091]}},
{"type":"Feature","properties":{"name": "533"},"geometry":{"type":"Point","coordinates":[-115.9190552,-55.7745445]}},
{"type":"Feature","properties":{"name": "534"},"geometry":{"type":"Point","coordinates":[-103.1193785,-59.7851629]}},
{"type":"Feature","properties":{"name": "535"},"geometry":{"type":"Point","coordinates":[-87.3873634,-62.2596593]}},
{"type":"Feature","properties":{"name": "536"},"geometry":{"type":"Point","coordinates":[-70.1126366,-62.2596593]}},
{"type":"Feature","properties":{"name": "537"},"geometry":{"type":"Point","coordinates":[-54.3806215,-59.7851629]}},
{"type":"Feature","properties":{"name": "538"},"geometry":{"type":"Point","coordinates":[-41.5809448,-55.7745445]}},
{"type":"Feature","properties":{"name": "539"},"geometry":{"type":"Point","coordinates":[-31.2956052,-50.6224596]}},
{"type":"Feature","properties":{"name": "540"},"geometry":{"type":"Point","coordinates":[-22.7966386,-44.8465203]}},
{"type":"Feature","properties":{"name": "541"},"geometry":{"type":"Point","coordinates":[-14.9308040,-39.2028800]}},
{"type":"Feature","properties":{"name": "542"},"geometry":{"type":"Point","coordinates":[-128.0880736,-58.4725085]}},
{"type":"Feature","properties":{"name": "543"},"geometry":{"type":"Point","coordinates":[-115.8548184,-63.7918684]}},
{"type":"Feature","properties":{"name": "544"},"geometry":{"type":"Point","coordinates":[-99.2947216,-67.5968802]}},
{"type":"Feature","properties":{"name": "545"},"geometry":{"type":"Point","coordinates":[-78.7500000,-69.0948426]}},
{"type":"Feature","properties":{"name": "546"},"geometry":{"type":"Point","coordinates":[-58.2052784,-67.5968802]}},
{"type":"Feature","properties":{"name": "547"},"geometry":{"type":"Point","coordinates":[-41.6451816,-63.7918684]}},
{"type":"Feature","properties":{"name": "548"},"geometry":{"type":"Point","coordinates":[-29.4119264,-58.4725085]}},
{"type":"Feature","properties":{"name": "549"},"geometry":{"type":"Point","coordinates":[-20.1158548,-52.2951257]}},
{"type":"Feature","properties":{"name": "550"},"geometry":{"type":"Point","coordinates":[-12.0085803,-46.0294575]}},
{"type":"Feature","properties":{"name": "551"},"geometry":{"type":"Point","coordinates":[-141.5846283,-59.8513928]}},
{"type":"Feature","properties":{"name": "552"},"geometry":{"type":"Point","coordinates":[-131.7347950,-66.4109094]}},
{"type":"Feature","properties":{"name": "553"},"geometry":{"type":"Point","coordinates":[-116.5826679,-71.9036870]}},
{"type":"Feature","properties":{"name": "554"},"geometry":{"type":"Point","coordinates":[-93.4265196,-75.4043030]}},
{"type":"Feature","properties":{"name": "555"},"geometry":{"type":"Point","coordinates":[-64.0734804,-75.4043030]}},
{"type":"Feature","properties":{"name": "556"},"geometry":{"type":"Point","coordinates":[-40.9173321,-71.9036870]}},
{"type":"Feature","properties":{"name": "557"},"geometry":{"type":"Point","coordinates":[-25.7652050,-66.4109094]}},
{"type":"Feature","properties":{"name": "558"},"geometry":{"type":"Point","coordinates":[-15.9153717,-59.8513928]}},
{"type":"Feature","properties":{"name": "559"},"geometry":{"type":"Point","coordinates":[-8.2773077,-52.8195822]}},
{"type":"Feature","properties":{"name": "560"},"geometry":{"type":"Point","coordinates":[-155.5091193,-59.7768689]}},
{"type":"Feature","properties":{"name": "561"},"geometry":{"type":"Point","coordinates":[-149.9901470,-67.1580723]}},
{"type":"Feature","properties":{"name": "562"},"geometry":{"type":"Point","coordinates":[-141.9562891,-73.8656463]}},
{"type":"Feature","properties":{"name": "563"},"geometry":{"type":"Point","coordinates":[-124.0479974,-79.8290886]}},
{"type":"Feature","properties":{"name": "564"},"geometry":{"type":"Point","coordinates":[-78.7500000,-82.9678319]}},
{"type":"Feature","properties":{"name": "565"},"geometry":{"type":"Point","coordinates":[-33.4520026,-79.8290886]}},
{"type":"Feature","properties":{"name": "566"},"geometry":{"type":"Point","coordinates":[-15.5437109,-73.8656463]}},
{"type":"Feature","properties":{"name": "567"},"geometry":{"type":"Point","coordinates":[-7.5098530,-67.1580723]}},
{"type":"Feature","properties":{"name": "568"},"geometry":{"type":"Point","coordinates":[-1.9908807,-59.7768689]}},
{"type":"Feature","properties":{"name": "569"},"geometry":{"type":"Point","coordinates":[11.2500000,-58.2825256]}},
{"type":"Feature","properties":{"name": "570"},"geometry":{"type":"Point","coordinates":[17.9641540,-52.4494395]}},
{"type":"Feature","properties":{"name": "571"},"geometry":{"type":"Point","coordinates":[23.0876315,-46.3033404]}},
{"type":"Feature","properties":{"name": "572"},"geometry":{"type":"Point","coordinates":[27.1880373,-39.9269588]}},
{"type":"Feature","properties":{"name": "573"},"geometry":{"type":"Point","coordinates":[30.6174468,-33.3555287]}},
{"type":"Feature","properties":{"name": "574"},"geometry":{"type":"Point","coordinates":[33.5919381,-26.6277736]}},
{"type":"Feature","properties":{"name": "575"},"geometry":{"type":"Point","coordinates":[36.2049873,-19.9209727]}},
{"type":"Feature","properties":{"name": "576"},"geometry":{"type":"Point","coordinates":[38.5774602,-13.2561521]}},
{"type":"Feature","properties":{"name": "577"},"geometry":{"type":"Point","coordinates":[40.8061721,-6.6206027]}},
{"type":"Feature","properties":{"name": "578"},"geometry":{"type":"Point","coordinates":[11.2500000,-65.2454846]}},
{"type":"Feature","properties":{"name": "579"},"geometry":{"type":"Point","coordinates":[24.4908807,-59.7768689]}},
{"type":"Feature","properties":{"name": "580"},"geometry":{"type":"Point","coordinates":[30.7773077,-52.8195822]}},
{"type":"Feature","properties":{"name": "581"},"geometry":{"type":"Point","coordinates":[34.5085803,-46.0294575]}},
{"type":"Feature","properties":{"name": "582"},"geometry":{"type":"Point","coordinates":[37.4308040,-39.2028800]}},
{"type":"Feature","properties":{"name": "583"},"geometry":{"type":"Point","coordinates":[39.9297242,-32.2809091]}},
{"type":"Feature","properties":{"name": "584"},"geometry":{"type":"Point","coordinates":[42.4105578,-25.4031768]}},
{"type":"Feature","properties":{"name": "585"},"geometry":{"type":"Point","coordinates":[44.6770032,-18.5622862]}},
{"type":"Feature","properties":{"name": "586"},"geometry":{"type":"Point","coordinates":[46.8100446,-11.6539339]}},
{"type":"Feature","properties":{"name": "587"},"geometry":{"type":"Point","coordinates":[11.2500000,-72.2343195]}},
{"type":"Feature","properties":{"name": "588"},"geometry":{"type":"Point","coordinates":[30.0098530,-67.1580723]}},
{"type":"Feature","properties":{"name": "589"},"geometry":{"type":"Point","coordinates":[38.4153717,-59.8513928]}},
{"type":"Feature","properties":{"name": "590"},"geometry":{"type":"Point","coordinates":[42.6158548,-52.2951257]}},
{"type":"Feature","properties":{"name": "591"},"geometry":{"type":"Point","coordinates":[45.2966386,-44.8465203]}},
{"type":"Feature","properties":{"name": "592"},"geometry":{"type":"Point","coordinates":[47.1571056,-37.6507869]}},
{"type":"Feature","properties":{"name": "593"},"geometry":{"type":"Point","coordinates":[49.0573958,-30.5002275]}},
{"type":"Feature","properties":{"name": "594"},"geometry":{"type":"Point","coordinates":[51.0454188,-23.3873460]}},
{"type":"Feature","properties":{"name": "595"},"geometry":{"type":"Point","coordinates":[52.8004709,-15.9120587]}},
{"type":"Feature","properties":{"name": "596"},"geometry":{"type":"Point","coordinates":[11.2500000,-79.2757848]}},
{"type":"Feature","properties":{"name": "597"},"geometry":{"type":"Point","coordinates":[38.0437109,-73.8656463]}},
{"type":"Feature","properties":{"name": "598"},"geometry":{"type":"Point","coordinates":[48.2652050,-66.4109094]}},
{"type":"Feature","properties":{"name": "599"},"geometry":{"type":"Point","coordinates":[51.9119264,-58.4725085]}},
{"type":"Feature","properties":{"name": "600"},"geometry":{"type":"Point","coordinates":[53.7956052,-50.6224596]}},
{"type":"Feature","properties":{"name": "601"},"geometry":{"type":"Point","coordinates":[55.1081684,-42.9023438]}},
{"type":"Feature","properties":{"name": "602"},"geometry":{"type":"Point","coordinates":[56.2500000,-35.2643897]}},
{"type":"Feature","properties":{"name": "603"},"geometry":{"type":"Point","coordinates":[57.6428133,-27.6674496]}},
{"type":"Feature","properties":{"name": "604"},"geometry":{"type":"Point","coordinates":[58.9819063,-19.9924024]}},
{"type":"Feature","properties":{"name": "605"},"geometry":{"type":"Point","coordinates":[11.2500000,-86.3984769]}},
{"type":"Feature","properties":{"name": "606"},"geometry":{"type":"Point","coordinates":[55.9520026,-79.8290886]}},
{"type":"Feature","properties":{"name": "607"},"geometry":{"type":"Point","coordinates":[63.4173321,-71.9036870]}},
{"type":"Feature","properties":{"name": "608"},"geometry":{"type":"Point","coordinates":[64.1451816,-63.7918684]}},
{"type":"Feature","properties":{"name": "609"},"geometry":{"type":"Point","coordinates":[64.0809448,-55.7745445]}},
{"type":"Feature","properties":{"name": "610"},"geometry":{"type":"Point","coordinates":[64.0257826,-47.8779635]}},
{"type":"Feature","properties":{"name": "611"},"geometry":{"type":"Point","coordinates":[64.0095129,-39.8882039]}},
{"type":"Feature","properties":{"name": "612"},"geometry":{"type":"Point","coordinates":[64.5431968,-31.8829201]}},
{"type":"Feature","properties":{"name": "613"},"geometry":{"type":"Point","coordinates":[65.4943949,-23.9373584]}},
{"type":"Feature","properties":{"name": "614"},"geometry":{"type":"Point","coordinates":[-168.7500000,-86.3984769]}},
{"type":"Feature","properties":{"name": "615"},"geometry":{"type":"Point","coordinates":[101.2500000,-82.9678319]}},
{"type":"Feature","properties":{"name": "616"},"geometry":{"type":"Point","coordinates":[86.5734804,-75.4043030]}},
{"type":"Feature","properties":{"name": "617"},"geometry":{"type":"Point","coordinates":[80.7052784,-67.5968802]}},
{"type":"Feature","properties":{"name": "618"},"geometry":{"type":"Point","coordinates":[76.8806215,-59.7851629]}},
{"type":"Feature","properties":{"name": "619"},"geometry":{"type":"Point","coordinates":[74.5116562,-51.9997156]}},
{"type":"Feature","properties":{"name": "620"},"geometry":{"type":"Point","coordinates":[72.8403561,-44.0600182]}},
{"type":"Feature","properties":{"name": "621"},"geometry":{"type":"Point","coordinates":[71.8759240,-35.9772081]}},
{"type":"Feature","properties":{"name": "622"},"geometry":{"type":"Point","coordinates":[72.2208571,-27.8661593]}},
{"type":"Feature","properties":{"name": "623"},"geometry":{"type":"Point","coordinates":[-168.7500000,-79.2757848]}},
{"type":"Feature","properties":{"name": "624"},"geometry":{"type":"Point","coordinates":[146.5479974,-79.8290886]}},
{"type":"Feature","properties":{"name": "625"},"geometry":{"type":"Point","coordinates":[115.9265196,-75.4043030]}},
{"type":"Feature","properties":{"name": "626"},"geometry":{"type":"Point","coordinates":[101.2500000,-69.0948426]}},
{"type":"Feature","properties":{"name": "627"},"geometry":{"type":"Point","coordinates":[92.6126366,-62.2596593]}},
{"type":"Feature","properties":{"name": "628"},"geometry":{"type":"Point","coordinates":[87.0110703,-55.0472608]}},
{"type":"Feature","properties":{"name": "629"},"geometry":{"type":"Point","coordinates":[83.0852721,-47.5090834]}},
{"type":"Feature","properties":{"name": "630"},"geometry":{"type":"Point","coordinates":[80.3961402,-39.6328067]}},
{"type":"Feature","properties":{"name": "631"},"geometry":{"type":"Point","coordinates":[79.3321417,-31.4810577]}},
{"type":"Feature","properties":{"name": "632"},"geometry":{"type":"Point","coordinates":[-168.7500000,-72.2343195]}},
{"type":"Feature","properties":{"name": "633"},"geometry":{"type":"Point","coordinates":[164.4562891,-73.8656463]}},
{"type":"Feature","properties":{"name": "634"},"geometry":{"type":"Point","coordinates":[139.0826679,-71.9036870]}},
{"type":"Feature","properties":{"name": "635"},"geometry":{"type":"Point","coordinates":[121.7947216,-67.5968802]}},
{"type":"Feature","properties":{"name": "636"},"geometry":{"type":"Point","coordinates":[109.8873634,-62.2596593]}},
{"type":"Feature","properties":{"name": "637"},"geometry":{"type":"Point","coordinates":[101.2500000,-56.3863112]}},
{"type":"Feature","properties":{"name": "638"},"geometry":{"type":"Point","coordinates":[94.9000705,-49.7411364]}},
{"type":"Feature","properties":{"name": "639"},"geometry":{"type":"Point","coordinates":[90.1599351,-42.5433679]}},
{"type":"Feature","properties":{"name": "640"},"geometry":{"type":"Point","coordinates":[87.0233338,-34.7200612]}},
{"type":"Feature","properties":{"name": "641"},"geometry":{"type":"Point","coordinates":[-168.7500000,-65.2454846]}},
{"type":"Feature","properties":{"name": "642"},"geometry":{"type":"Point","coordinates":[172.4901470,-67.1580723]}},
{"type":"Feature","properties":{"name": "643"},"geometry":{"type":"Point","coordinates":[154.2347950,-66.4109094]}},
{"type":"Feature","properties":{"name": "644"},"geometry":{"type":"Point","coordinates":[138.3548184,-63.7918684]}},
{"type":"Feature","properties":{"name": "645"},"geometry":{"type":"Point","coordinates":[125.6193785,-59.7851629]}},
{"type":"Feature","properties":{"name": "646"},"geometry":{"type":"Point","coordinates":[115.4889297,-55.0472608]}},
{"type":"Feature","properties":{"name": "647"},"geometry":{"type":"Point","coordinates":[107.5999295,-49.7411364]}},
{"type":"Feature","properties":{"name": "648"},"geometry":{"type":"Point","coordinates":[101.2500000,-43.9802342]}},
{"type":"Feature","properties":{"name": "649"},"geometry":{"type":"Point","coordinates":[96.1142323,-37.2490994]}},
{"type":"Feature","properties":{"name": "650"},"geometry":{"type":"Point","coordinates":[101.2500000,-31.7174744]}},
{"type":"Feature","properties":{"name": "651"},"geometry":{"type":"Point","coordinates":[101.2500000,-24.7545154]}},
{"type":"Feature","properties":{"name": "652"},"geometry":{"type":"Point","coordinates":[101.2500000,-17.7656805]}},
{"type":"Feature","properties":{"name": "653"},"geometry":{"type":"Point","coordinates":[101.2500000,-10.7242152]}},
{"type":"Feature","properties":{"name": "654"},"geometry":{"type":"Point","coordinates":[101.2500000,-3.6015231]}},
{"type":"Feature","properties":{"name": "655"},"geometry":{"type":"Point","coordinates":[101.2500000,3.6015231]}},
{"type":"Feature","properties":{"name": "656"},"geometry":{"type":"Point","coordinates":[101.2500000,10.7242152]}},
{"type":"Feature","properties":{"name": "657"},"geometry":{"type":"Point","coordinates":[101.2500000,17.7656805]}},
{"type":"Feature","properties":{"name": "658"},"geometry":{"type":"Point","coordinates":[101.2500000,24.7545154]}},
{"type":"Feature","properties":{"name": "659"},"geometry":{"type":"Point","coordinates":[106.3857677,-37.2490994]}},
{"type":"Feature","properties":{"name": "660"},"geometry":{"type":"Point","coordinates":[108.8501675,-29.3397357]}},
{"type":"Feature","properties":{"name": "661"},"geometry":{"type":"Point","coordinates":[108.9646777,-21.5656717]}},
{"type":"Feature","properties":{"name": "662"},"geometry":{"type":"Point","coordinates":[108.6796559,-14.3624483]}},
{"type":"Feature","properties":{"name": "663"},"geometry":{"type":"Point","coordinates":[108.4425064,-7.2103367]}},
{"type":"Feature","properties":{"name": "664"},"geometry":{"type":"Point","coordinates":[108.2821681,0.0000000]}},
{"type":"Feature","properties":{"name": "665"},"geometry":{"type":"Point","coordinates":[108.4425064,7.2103367]}},
{"type":"Feature","properties":{"name": "666"},"geometry":{"type":"Point","coordinates":[108.6796559,14.3624483]}},
{"type":"Feature","properties":{"name": "667"},"geometry":{"type":"Point","coordinates":[108.9646777,21.5656717]}},
{"type":"Feature","properties":{"name": "668"},"geometry":{"type":"Point","coordinates":[112.3400649,-42.5433679]}},
{"type":"Feature","properties":{"name": "669"},"geometry":{"type":"Point","coordinates":[115.4766662,-34.7200612]}},
{"type":"Feature","properties":{"name": "670"},"geometry":{"type":"Point","coordinates":[116.1016749,-26.5413242]}},
{"type":"Feature","properties":{"name": "671"},"geometry":{"type":"Point","coordinates":[115.9788105,-18.6344843]}},
{"type":"Feature","properties":{"name": "672"},"geometry":{"type":"Point","coordinates":[115.7217679,-10.9830268]}},
{"type":"Feature","properties":{"name": "673"},"geometry":{"type":"Point","coordinates":[115.3888641,-3.6606113]}},
{"type":"Feature","properties":{"name": "674"},"geometry":{"type":"Point","coordinates":[115.3888641,3.6606113]}},
{"type":"Feature","properties":{"name": "675"},"geometry":{"type":"Point","coordinates":[115.7217679,10.9830268]}},
{"type":"Feature","properties":{"name": "676"},"geometry":{"type":"Point","coordinates":[115.9788105,18.6344843]}},
{"type":"Feature","properties":{"name": "677"},"geometry":{"type":"Point","coordinates":[119.4147279,-47.5090834]}},
{"type":"Feature","properties":{"name": "678"},"geometry":{"type":"Point","coordinates":[122.1038598,-39.6328067]}},
{"type":"Feature","properties":{"name": "679"},"geometry":{"type":"Point","coordinates":[123.1678583,-31.4810577]}},
{"type":"Feature","properties":{"name": "680"},"geometry":{"type":"Point","coordinates":[123.0379628,-23.3695892]}},
{"type":"Feature","properties":{"name": "681"},"geometry":{"type":"Point","coordinates":[122.6837600,-15.4517204]}},
{"type":"Feature","properties":{"name": "682"},"geometry":{"type":"Point","coordinates":[122.3573504,-7.6863382]}},
{"type":"Feature","properties":{"name": "683"},"geometry":{"type":"Point","coordinates":[122.1551574,0.0000000]}},
{"type":"Feature","properties":{"name": "684"},"geometry":{"type":"Point","coordinates":[122.3573504,7.6863382]}},
{"type":"Feature","properties":{"name": "685"},"geometry":{"type":"Point","coordinates":[122.6837600,15.4517204]}},
{"type":"Feature","properties":{"name": "686"},"geometry":{"type":"Point","coordinates":[127.9883438,-51.9997156]}},
{"type":"Feature","properties":{"name": "687"},"geometry":{"type":"Point","coordinates":[129.6596439,-44.0600182]}},
{"type":"Feature","properties":{"name": "688"},"geometry":{"type":"Point","coordinates":[130.6240760,-35.9772081]}},
{"type":"Feature","properties":{"name": "689"},"geometry":{"type":"Point","coordinates":[130.2791429,-27.8661593]}},
{"type":"Feature","properties":{"name": "690"},"geometry":{"type":"Point","coordinates":[129.7103810,-19.8656172]}},
{"type":"Feature","properties":{"name": "691"},"geometry":{"type":"Point","coordinates":[129.1948241,-11.9845108]}},
{"type":"Feature","properties":{"name": "692"},"geometry":{"type":"Point","coordinates":[128.7219821,-4.0084518]}},
{"type":"Feature","properties":{"name": "693"},"geometry":{"type":"Point","coordinates":[128.7219821,4.0084518]}},
{"type":"Feature","properties":{"name": "694"},"geometry":{"type":"Point","coordinates":[129.1948241,11.9845108]}},
{"type":"Feature","properties":{"name": "695"},"geometry":{"type":"Point","coordinates":[138.4190552,-55.7745445]}},
{"type":"Feature","properties":{"name": "696"},"geometry":{"type":"Point","coordinates":[138.4742174,-47.8779635]}},
{"type":"Feature","properties":{"name": "697"},"geometry":{"type":"Point","coordinates":[138.4904871,-39.8882039]}},
{"type":"Feature","properties":{"name": "698"},"geometry":{"type":"Point","coordinates":[137.9568032,-31.8829201]}},
{"type":"Feature","properties":{"name": "699"},"geometry":{"type":"Point","coordinates":[137.0056051,-23.9373584]}},
{"type":"Feature","properties":{"name": "700"},"geometry":{"type":"Point","coordinates":[136.1554189,-16.0811281]}},
{"type":"Feature","properties":{"name": "701"},"geometry":{"type":"Point","coordinates":[135.3678465,-8.1007430]}},
{"type":"Feature","properties":{"name": "702"},"geometry":{"type":"Point","coordinates":[134.8636888,0.0000000]}},
{"type":"Feature","properties":{"name": "703"},"geometry":{"type":"Point","coordinates":[135.3678465,8.1007430]}},
{"type":"Feature","properties":{"name": "704"},"geometry":{"type":"Point","coordinates":[150.5880736,-58.4725085]}},
{"type":"Feature","properties":{"name": "705"},"geometry":{"type":"Point","coordinates":[148.7043948,-50.6224596]}},
{"type":"Feature","properties":{"name": "706"},"geometry":{"type":"Point","coordinates":[147.3918316,-42.9023438]}},
{"type":"Feature","properties":{"name": "707"},"geometry":{"type":"Point","coordinates":[146.2500000,-35.2643897]}},
{"type":"Feature","properties":{"name": "708"},"geometry":{"type":"Point","coordinates":[144.8571867,-27.6674496]}},
{"type":"Feature","properties":{"name": "709"},"geometry":{"type":"Point","coordinates":[143.5180937,-19.9924024]}},
{"type":"Feature","properties":{"name": "710"},"geometry":{"type":"Point","coordinates":[142.2859185,-12.1562756]}},
{"type":"Feature","properties":{"name": "711"},"geometry":{"type":"Point","coordinates":[141.3350641,-4.0986909]}},
{"type":"Feature","properties":{"name": "712"},"geometry":{"type":"Point","coordinates":[141.3350641,4.0986909]}},
{"type":"Feature","properties":{"name": "713"},"geometry":{"type":"Point","coordinates":[164.0846283,-59.8513928]}},
{"type":"Feature","properties":{"name": "714"},"geometry":{"type":"Point","coordinates":[159.8841452,-52.2951257]}},
{"type":"Feature","properties":{"name": "715"},"geometry":{"type":"Point","coordinates":[157.2033614,-44.8465203]}},
{"type":"Feature","properties":{"name": "716"},"geometry":{"type":"Point","coordinates":[155.3428944,-37.6507869]}},
{"type":"Feature","properties":{"name": "717"},"geometry":{"type":"Point","coordinates":[153.4426042,-30.5002275]}},
{"type":"Feature","properties":{"name": "718"},"geometry":{"type":"Point","coordinates":[151.4545812,-23.3873460]}},
{"type":"Feature","properties":{"name": "719"},"geometry":{"type":"Point","coordinates":[149.6995291,-15.9120587]}},
{"type":"Feature","properties":{"name": "720"},"geometry":{"type":"Point","coordinates":[148.1681858,-8.1472848]}},
{"type":"Feature","properties":{"name": "721"},"geometry":{"type":"Point","coordinates":[147.2697658,0.0000000]}},
{"type":"Feature","properties":{"name": "722"},"geometry":{"type":"Point","coordinates":[178.0091193,-59.7768689]}},
{"type":"Feature","properties":{"name": "723"},"geometry":{"type":"Point","coordinates":[171.7226923,-52.8195822]}},
{"type":"Feature","properties":{"name": "724"},"geometry":{"type":"Point","coordinates":[167.9914197,-46.0294575]}},
{"type":"Feature","properties":{"name": "725"},"geometry":{"type":"Point","coordinates":[165.0691960,-39.2028800]}},
{"type":"Feature","properties":{"name": "726"},"geometry":{"type":"Point","coordinates":[162.5702758,-32.2809091]}},
{"type":"Feature","properties":{"name": "727"},"geometry":{"type":"Point","coordinates":[160.0894422,-25.4031768]}},
{"type":"Feature","properties":{"name": "728"},"geometry":{"type":"Point","coordinates":[157.8229968,-18.5622862]}},
{"type":"Feature","properties":{"name": "729"},"geometry":{"type":"Point","coordinates":[155.6899554,-11.6539339]}},
{"type":"Feature","properties":{"name": "730"},"geometry":{"type":"Point","coordinates":[153.8897915,-4.0861208]}},
{"type":"Feature","properties":{"name": "731"},"geometry":{"type":"Point","coordinates":[159.5325256,0.0000000]}},
{"type":"Feature","properties":{"name": "732"},"geometry":{"type":"Point","coordinates":[161.6938279,6.6206027]}},
{"type":"Feature","properties":{"name": "733"},"geometry":{"type":"Point","coordinates":[163.9225398,13.2561521]}},
{"type":"Feature","properties":{"name": "734"},"geometry":{"type":"Point","coordinates":[166.2950127,19.9209727]}},
{"type":"Feature","properties":{"name": "735"},"geometry":{"type":"Point","coordinates":[168.9080619,26.6277736]}},
{"type":"Feature","properties":{"name": "736"},"geometry":{"type":"Point","coordinates":[171.8825532,33.3555287]}},
{"type":"Feature","properties":{"name": "737"},"geometry":{"type":"Point","coordinates":[175.3119627,39.9269588]}},
{"type":"Feature","properties":{"name": "738"},"geometry":{"type":"Point","coordinates":[179.4123685,46.3033404]}},
{"type":"Feature","properties":{"name": "739"},"geometry":{"type":"Point","coordinates":[-175.4641540,52.4494395]}},
{"type":"Feature","properties":{"name": "740"},"geometry":{"type":"Point","coordinates":[161.6938279,-6.6206027]}},
{"type":"Feature","properties":{"name": "741"},"geometry":{"type":"Point","coordinates":[166.4954846,0.0000000]}},
{"type":"Feature","properties":{"name": "742"},"geometry":{"type":"Point","coordinates":[169.5056561,7.1716791]}},
{"type":"Feature","properties":{"name": "743"},"geometry":{"type":"Point","coordinates":[172.0281526,13.9406013]}},
{"type":"Feature","properties":{"name": "744"},"geometry":{"type":"Point","coordinates":[174.7109768,20.6229848]}},
{"type":"Feature","properties":{"name": "745"},"geometry":{"type":"Point","coordinates":[177.7384335,27.2843549]}},
{"type":"Feature","properties":{"name": "746"},"geometry":{"type":"Point","coordinates":[-178.5052117,33.7313920]}},
{"type":"Feature","properties":{"name": "747"},"geometry":{"type":"Point","coordinates":[-174.1006884,39.9618437]}},
{"type":"Feature","properties":{"name": "748"},"geometry":{"type":"Point","coordinates":[-168.7500000,46.0197658]}},
{"type":"Feature","properties":{"name": "749"},"geometry":{"type":"Point","coordinates":[163.9225398,-13.2561521]}},
{"type":"Feature","properties":{"name": "750"},"geometry":{"type":"Point","coordinates":[169.5056561,-7.1716791]}},
{"type":"Feature","properties":{"name": "751"},"geometry":{"type":"Point","coordinates":[173.4843195,0.0000000]}},
{"type":"Feature","properties":{"name": "752"},"geometry":{"type":"Point","coordinates":[176.7710401,7.1962001]}},
{"type":"Feature","properties":{"name": "753"},"geometry":{"type":"Point","coordinates":[179.9162456,14.2010777]}},
{"type":"Feature","properties":{"name": "754"},"geometry":{"type":"Point","coordinates":[-176.9817962,20.9087639]}},
{"type":"Feature","properties":{"name": "755"},"geometry":{"type":"Point","coordinates":[-173.2659175,27.3991307]}},
{"type":"Feature","properties":{"name": "756"},"geometry":{"type":"Point","coordinates":[-168.7500000,33.6136888]}},
{"type":"Feature","properties":{"name": "757"},"geometry":{"type":"Point","coordinates":[-163.3993116,39.9618437]}},
{"type":"Feature","properties":{"name": "758"},"geometry":{"type":"Point","coordinates":[166.2950127,-19.9209727]}},
{"type":"Feature","properties":{"name": "759"},"geometry":{"type":"Point","coordinates":[172.0281526,-13.9406013]}},
{"type":"Feature","properties":{"name": "760"},"geometry":{"type":"Point","coordinates":[176.7710401,-7.1962001]}},
{"type":"Feature","properties":{"name": "761"},"geometry":{"type":"Point","coordinates":[-179.4742152,0.0000000]}},
{"type":"Feature","properties":{"name": "762"},"geometry":{"type":"Point","coordinates":[-176.0169153,7.1353315]}},
{"type":"Feature","properties":{"name": "763"},"geometry":{"type":"Point","coordinates":[-172.5246425,14.1094190]}},
{"type":"Feature","properties":{"name": "764"},"geometry":{"type":"Point","coordinates":[-168.7500000,20.9051574]}},
{"type":"Feature","properties":{"name": "765"},"geometry":{"type":"Point","coordinates":[-164.2340825,27.3991307]}},
{"type":"Feature","properties":{"name": "766"},"geometry":{"type":"Point","coordinates":[-158.9947883,33.7313920]}},
{"type":"Feature","properties":{"name": "767"},"geometry":{"type":"Point","coordinates":[168.9080619,-26.6277736]}},
{"type":"Feature","properties":{"name": "768"},"geometry":{"type":"Point","coordinates":[174.7109768,-20.6229848]}},
{"type":"Feature","properties":{"name": "769"},"geometry":{"type":"Point","coordinates":[179.9162456,-14.2010777]}},
{"type":"Feature","properties":{"name": "770"},"geometry":{"type":"Point","coordinates":[-176.0169153,-7.1353315]}},
{"type":"Feature","properties":{"name": "771"},"geometry":{"type":"Point","coordinates":[-172.3515231,0.0000000]}},
{"type":"Feature","properties":{"name": "772"},"geometry":{"type":"Point","coordinates":[-168.7500000,7.0321681]}},
{"type":"Feature","properties":{"name": "773"},"geometry":{"type":"Point","coordinates":[-164.9753575,14.1094190]}},
{"type":"Feature","properties":{"name": "774"},"geometry":{"type":"Point","coordinates":[-160.5182038,20.9087639]}},
{"type":"Feature","properties":{"name": "775"},"geometry":{"type":"Point","coordinates":[-155.2384335,27.2843549]}},
{"type":"Feature","properties":{"name": "776"},"geometry":{"type":"Point","coordinates":[171.8825532,-33.3555287]}},
{"type":"Feature","properties":{"name": "777"},"geometry":{"type":"Point","coordinates":[177.7384335,-27.2843549]}},
{"type":"Feature","properties":{"name": "778"},"geometry":{"type":"Point","coordinates":[-176.9817962,-20.9087639]}},
{"type":"Feature","properties":{"name": "779"},"geometry":{"type":"Point","coordinates":[-172.5246425,-14.1094190]}},
{"type":"Feature","properties":{"name": "780"},"geometry":{"type":"Point","coordinates":[-168.7500000,-7.0321681]}},
{"type":"Feature","properties":{"name": "781"},"geometry":{"type":"Point","coordinates":[-165.1484769,0.0000000]}},
{"type":"Feature","properties":{"name": "782"},"geometry":{"type":"Point","coordinates":[-161.4830847,7.1353315]}},
{"type":"Feature","properties":{"name": "783"},"geometry":{"type":"Point","coordinates":[-157.4162456,14.2010777]}},
{"type":"Feature","properties":{"name": "784"},"geometry":{"type":"Point","coordinates":[-152.2109768,20.6229848]}},
{"type":"Feature","properties":{"name": "785"},"geometry":{"type":"Point","coordinates":[175.3119627,-39.9269588]}},
{"type":"Feature","properties":{"name": "786"},"geometry":{"type":"Point","coordinates":[-178.5052117,-33.7313920]}},
{"type":"Feature","properties":{"name": "787"},"geometry":{"type":"Point","coordinates":[-173.2659175,-27.3991307]}},
{"type":"Feature","properties":{"name": "788"},"geometry":{"type":"Point","coordinates":[-168.7500000,-20.9051574]}},
{"type":"Feature","properties":{"name": "789"},"geometry":{"type":"Point","coordinates":[-164.9753575,-14.1094190]}},
{"type":"Feature","properties":{"name": "790"},"geometry":{"type":"Point","coordinates":[-161.4830847,-7.1353315]}},
{"type":"Feature","properties":{"name": "791"},"geometry":{"type":"Point","coordinates":[-158.0257848,0.0000000]}},
{"type":"Feature","properties":{"name": "792"},"geometry":{"type":"Point","coordinates":[-154.2710401,7.1962001]}},
{"type":"Feature","properties":{"name": "793"},"geometry":{"type":"Point","coordinates":[-149.5281526,13.9406013]}},
{"type":"Feature","properties":{"name": "794"},"geometry":{"type":"Point","coordinates":[179.4123685,-46.3033404]}},
{"type":"Feature","properties":{"name": "795"},"geometry":{"type":"Point","coordinates":[-174.1006884,-39.9618437]}},
{"type":"Feature","properties":{"name": "796"},"geometry":{"type":"Point","coordinates":[-168.7500000,-33.6136888]}},
{"type":"Feature","properties":{"name": "797"},"geometry":{"type":"Point","coordinates":[-164.2340825,-27.3991307]}},
{"type":"Feature","properties":{"name": "798"},"geometry":{"type":"Point","coordinates":[-160.5182038,-20.9087639]}},
{"type":"Feature","properties":{"name": "799"},"geometry":{"type":"Point","coordinates":[-157.4162456,-14.2010777]}},
{"type":"Feature","properties":{"name": "800"},"geometry":{"type":"Point","coordinates":[-154.2710401,-7.1962001]}},
{"type":"Feature","properties":{"name": "801"},"geometry":{"type":"Point","coordinates":[-150.9843195,0.0000000]}},
{"type":"Feature","properties":{"name": "802"},"geometry":{"type":"Point","coordinates":[-147.0056561,7.1716791]}},
{"type":"Feature","properties":{"name": "803"},"geometry":{"type":"Point","coordinates":[-175.4641540,-52.4494395]}},
{"type":"Feature","properties":{"name": "804"},"geometry":{"type":"Point","coordinates":[-168.7500000,-46.0197658]}},
{"type":"Feature","properties":{"name": "805"},"geometry":{"type":"Point","coordinates":[-163.3993116,-39.9618437]}},
{"type":"Feature","properties":{"name": "806"},"geometry":{"type":"Point","coordinates":[-158.9947883,-33.7313920]}},
{"type":"Feature","properties":{"name": "807"},"geometry":{"type":"Point","coordinates":[-155.2384335,-27.2843549]}},
{"type":"Feature","properties":{"name": "808"},"geometry":{"type":"Point","coordinates":[-152.2109768,-20.6229848]}},
{"type":"Feature","properties":{"name": "809"},"geometry":{"type":"Point","coordinates":[-149.5281526,-13.9406013]}},
{"type":"Feature","properties":{"name": "810"},"geometry":{"type":"Point","coordinates":[-147.0056561,-7.1716791]}},
{"type":"Feature","properties":{"name": "811"},"geometry":{"type":"Point","coordinates":[-143.9954846,0.0000000]}},
{"type":"Feature","properties":{"name": "812"},"geometry":{"type":"Point","coordinates":[-168.7500000,-58.2825256]}}]}
