<?xml version="1.0" encoding="UTF-8"?>
<kml xmlns="http://earth.google.com/kml/2.1">
<Folder>
   <name>Res 0 Quadrilaterals</name>
   <description>www.discreteglobalgrids.org</description>
   <Style id="lineStyle1">
      <LineStyle id="lineStyle2">
         <color>ffff0000</color>
         <width>6</width>
      </LineStyle>
   </Style>
   <Placemark>
      <name>1</name>
      <Point>
         <coordinates>
            -44.6097376,50.1597545
         </coordinates>
      </Point>
   </Placemark>
   <Placemark>
      <name>2</name>
      <Point>
         <coordinates>
            -62.8059392,-7.7166783
         </coordinates>
      </Point>
   </Placemark>
   <Placemark>
      <name>3</name>
      <Point>
         <coordinates>
            -16.4278225,-55.2504461
         </coordinates>
      </Point>
   </Placemark>
   <Placemark>
      <name>4</name>
      <Point>
         <coordinates>
            49.6429530,-20.1430502
         </coordinates>
      </Point>
   </Placemark>
   <Placemark>
      <name>5</name>
      <Point>
         <coordinates>
            44.2137488,39.6421467
         </coordinates>
      </Point>
   </Placemark>
   <Placemark>
      <name>6</name>
      <Point>
         <coordinates>
            -130.3570470,20.1430502
         </coordinates>
      </Point>
   </Placemark>
   <Placemark>
      <name>7</name>
      <Point>
         <coordinates>
            -135.7862512,-39.6421467
         </coordinates>
      </Point>
   </Placemark>
   <Placemark>
      <name>8</name>
      <Point>
         <coordinates>
            135.3902624,-50.1597545
         </coordinates>
      </Point>
   </Placemark>
   <Placemark>
      <name>9</name>
      <Point>
         <coordinates>
            117.1940608,7.7166783
         </coordinates>
      </Point>
   </Placemark>
   <Placemark>
      <name>10</name>
      <Point>
         <coordinates>
            163.5721775,55.2504461
         </coordinates>
      </Point>
   </Placemark>
</Folder>
</kml>
