{
"type": "FeatureCollection",
"name": "everything.geojson",
"features": [
{"type":"Feature","properties":{"name":"5","neighbors":["8","9","6","2","85","88"],"children":["11","17","14","8","250","253","259"]},"geometry":{"type":"GeometryCollection","geometries":[{"type":"Point","coordinates":[-152.857103247946185,40.005481779570083]},{"type":"Polygon","coordinates":[[[-134.262384585105337,44.529621964661608],[-148.615905405971915,52.567655013246423],[-168.75,45.573994275838814],[-168.75,33.167917220093571],[-155.217311979781385,27.292889173535048],[-140.093613055497713,32.274919874523299],[-134.262384585105337,44.529621964661608]]]}]}},
{"type":"Feature","properties":{"name":"6","neighbors":["9","10","7","3","2","5"],"children":["12","18","15","9","5","8","14"]},"geometry":{"type":"GeometryCollection","geometries":[{"type":"Point","coordinates":[-128.245092124199005,58.497531759252745]},{"type":"Polygon","coordinates":[[[-103.144526251219474,59.768885870807125],[-115.151744270018725,71.943585350566408],[-149.065748308883371,67.425229764296787],[-148.615905405971915,52.567655013246423],[-134.262384585105337,44.529621964661608],[-115.960048080342006,47.896263602334663],[-103.144526251219474,59.768885870807125]]]}]}},
{"type":"Feature","properties":{"name":"7","neighbors":["10","12","13","4","3","6"],"children":["13","19","16","10","6","9","15"]},"geometry":{"type":"GeometryCollection","geometries":[{"type":"Point","coordinates":[-78.75,69.094842552110691]},{"type":"Polygon","coordinates":[[[-54.355473748780497,59.768885870807125],[-42.34825572998124,71.943585350566408],[-78.75,82.988451763080477],[-115.151744270018725,71.943585350566408],[-103.144526251219474,59.768885870807125],[-78.75,56.832082779906429],[-54.355473748780497,59.768885870807125]]]}]}},
{"type":"Feature","properties":{"name":"8","neighbors":["47","48","9","5","88","91"],"children":["20","26","23","17","259","262","268"]},"geometry":{"type":"GeometryCollection","geometries":[{"type":"Point","coordinates":[-143.765029747833353,19.839930894564745]},{"type":"Polygon","coordinates":[[[-128.79054324824051,23.807007669065296],[-140.093613055497713,32.274919874523299],[-155.217311979781385,27.292889173535048],[-157.800395845117578,14.446380652526139],[-147.372212755290491,7.429590809585262],[-133.046122862228771,12.076898721235345],[-128.79054324824051,23.807007669065296]]]}]}}
]
}
