{
"type": "FeatureCollection",
"name": "everything.geojson",
"features": [
{"type":"Feature","properties":{"name":"1400000000000000","neighbors":["1800000000000000","1900000000000000","1500000000000000","1000000000000000","a200000000000000","a600000000000000"],"children":["1400000000000000","1480000000000000","1440000000000000","1080000000000000","a240000000000000","a280000000000000","a640000000000000"]},"geometry":{"type":"GeometryCollection","geometries":[{"type":"Point","coordinates":[-152.857103247946185,40.005481779570083]},{"type":"Polygon","coordinates":[[[-134.262384585105337,44.529621964661608],[-148.615905405971915,52.567655013246423],[-168.75,45.573994275838814],[-168.75,33.167917220093571],[-155.217311979781385,27.292889173535048],[-140.093613055497713,32.274919874523299],[-134.262384585105337,44.529621964661608]]]}]}},
{"type":"Feature","properties":{"name":"1500000000000000","neighbors":["1900000000000000","1a00000000000000","1600000000000000","1100000000000000","1000000000000000","1400000000000000"],"children":["1500000000000000","1580000000000000","1540000000000000","1180000000000000","1040000000000000","1080000000000000","1440000000000000"]},"geometry":{"type":"GeometryCollection","geometries":[{"type":"Point","coordinates":[-128.245092124199005,58.497531759252745]},{"type":"Polygon","coordinates":[[[-103.144526251219474,59.768885870807125],[-115.151744270018725,71.943585350566408],[-149.065748308883371,67.425229764296787],[-148.615905405971915,52.567655013246423],[-134.262384585105337,44.529621964661608],[-115.960048080342006,47.896263602334663],[-103.144526251219474,59.768885870807125]]]}]}},
{"type":"Feature","properties":{"name":"1600000000000000","neighbors":["1a00000000000000","2100000000000000","2200000000000000","1200000000000000","1100000000000000","1500000000000000"],"children":["1600000000000000","1680000000000000","1640000000000000","1280000000000000","1140000000000000","1180000000000000","1540000000000000"]},"geometry":{"type":"GeometryCollection","geometries":[{"type":"Point","coordinates":[-78.75,69.094842552110691]},{"type":"Polygon","coordinates":[[[-54.355473748780497,59.768885870807125],[-42.34825572998124,71.943585350566408],[-78.75,82.988451763080477],[-115.151744270018725,71.943585350566408],[-103.144526251219474,59.768885870807125],[-78.75,56.832082779906429],[-54.355473748780497,59.768885870807125]]]}]}},
{"type":"Feature","properties":{"name":"1800000000000000","neighbors":["6000000000000000","6100000000000000","1900000000000000","1400000000000000","a600000000000000","aa00000000000000"],"children":["1800000000000000","1880000000000000","1840000000000000","1480000000000000","a640000000000000","a680000000000000","aa40000000000000"]},"geometry":{"type":"GeometryCollection","geometries":[{"type":"Point","coordinates":[-143.765029747833353,19.839930894564745]},{"type":"Polygon","coordinates":[[[-128.79054324824051,23.807007669065296],[-140.093613055497713,32.274919874523299],[-155.217311979781385,27.292889173535048],[-157.800395845117578,14.446380652526139],[-147.372212755290491,7.429590809585262],[-133.046122862228771,12.076898721235345],[-128.79054324824051,23.807007669065296]]]}]}}
]
}
