<?xml version="1.0" encoding="UTF-8"?>
<kml xmlns="http://earth.google.com/kml/2.1">
<Folder>
   <name>ISEAL Ellipsoidal Icosahedron</name>
   <description>www.discreteglobalgrids.org</description>
   <Style id="lineStyle1">
      <LineStyle id="lineStyle2">
         <color>ff0000ff</color>
         <width>6</width>
      </LineStyle>
   </Style>
<Placemark>
<name>1</name>
      <styleUrl>#lineStyle1</styleUrl>
      <LineString>
         <tessellate>1</tessellate>
         <coordinates>
            -168.8000000,58.3971459
            -78.8000000,31.8323590
            -137.0825256,0.0000000
            -168.8000000,58.3971459
         </coordinates>
      </LineString>
</Placemark>
<Placemark>
<name>2</name>
      <styleUrl>#lineStyle1</styleUrl>
      <LineString>
         <tessellate>1</tessellate>
         <coordinates>
            11.2000000,58.3971459
            -78.8000000,31.8323590
            -168.8000000,58.3971459
            11.2000000,58.3971459
         </coordinates>
      </LineString>
</Placemark>
<Placemark>
<name>3</name>
      <styleUrl>#lineStyle1</styleUrl>
      <LineString>
         <tessellate>1</tessellate>
         <coordinates>
            -78.8000000,31.8323590
            -20.5174744,0.0000000
            -78.8000000,-31.8323590
            -78.8000000,31.8323590
         </coordinates>
      </LineString>
</Placemark>
<Placemark>
<name>4</name>
      <styleUrl>#lineStyle1</styleUrl>
      <LineString>
         <tessellate>1</tessellate>
         <coordinates>
            11.2000000,58.3971459
            -20.5174744,0.0000000
            -78.8000000,31.8323590
            11.2000000,58.3971459
         </coordinates>
      </LineString>
</Placemark>
<Placemark>
<name>5</name>
      <styleUrl>#lineStyle1</styleUrl>
      <LineString>
         <tessellate>1</tessellate>
         <coordinates>
            -20.5174744,-0.0000000
            42.9174744,0.0000000
            11.2000000,-58.3971459
            -20.5174744,-0.0000000
         </coordinates>
      </LineString>
</Placemark>
<Placemark>
<name>6</name>
      <styleUrl>#lineStyle1</styleUrl>
      <LineString>
         <tessellate>1</tessellate>
         <coordinates>
            11.2000000,58.3971459
            42.9174744,0.0000000
            -20.5174744,-0.0000000
            11.2000000,58.3971459
         </coordinates>
      </LineString>
</Placemark>
<Placemark>
<name>7</name>
      <styleUrl>#lineStyle1</styleUrl>
      <LineString>
         <tessellate>1</tessellate>
         <coordinates>
            42.9174744,0.0000000
            101.2000000,31.8323590
            101.2000000,-31.8323590
            42.9174744,0.0000000
         </coordinates>
      </LineString>
</Placemark>
<Placemark>
<name>8</name>
      <styleUrl>#lineStyle1</styleUrl>
      <LineString>
         <tessellate>1</tessellate>
         <coordinates>
            11.2000000,58.3971459
            101.2000000,31.8323590
            42.9174744,0.0000000
            11.2000000,58.3971459
         </coordinates>
      </LineString>
</Placemark>
<Placemark>
<name>9</name>
      <styleUrl>#lineStyle1</styleUrl>
      <LineString>
         <tessellate>1</tessellate>
         <coordinates>
            101.2000000,31.8323590
            -168.8000000,58.3971459
            159.4825256,0.0000000
            101.2000000,31.8323590
         </coordinates>
      </LineString>
</Placemark>
<Placemark>
<name>10</name>
      <styleUrl>#lineStyle1</styleUrl>
      <LineString>
         <tessellate>1</tessellate>
         <coordinates>
            11.2000000,58.3971459
            -168.8000000,58.3971459
            101.2000000,31.8323590
            11.2000000,58.3971459
         </coordinates>
      </LineString>
</Placemark>
<Placemark>
<name>11</name>
      <styleUrl>#lineStyle1</styleUrl>
      <LineString>
         <tessellate>1</tessellate>
         <coordinates>
            -137.0825256,-0.0000000
            -78.8000000,-31.8323590
            -168.8000000,-58.3971459
            -137.0825256,-0.0000000
         </coordinates>
      </LineString>
</Placemark>
<Placemark>
<name>12</name>
      <styleUrl>#lineStyle1</styleUrl>
      <LineString>
         <tessellate>1</tessellate>
         <coordinates>
            -78.8000000,31.8323590
            -78.8000000,-31.8323590
            -137.0825256,-0.0000000
            -78.8000000,31.8323590
         </coordinates>
      </LineString>
</Placemark>
<Placemark>
<name>13</name>
      <styleUrl>#lineStyle1</styleUrl>
      <LineString>
         <tessellate>1</tessellate>
         <coordinates>
            -78.8000000,-31.8323590
            11.2000000,-58.3971459
            -168.8000000,-58.3971459
            -78.8000000,-31.8323590
         </coordinates>
      </LineString>
</Placemark>
<Placemark>
<name>14</name>
      <styleUrl>#lineStyle1</styleUrl>
      <LineString>
         <tessellate>1</tessellate>
         <coordinates>
            -20.5174744,0.0000000
            11.2000000,-58.3971459
            -78.8000000,-31.8323590
            -20.5174744,0.0000000
         </coordinates>
      </LineString>
</Placemark>
<Placemark>
<name>15</name>
      <styleUrl>#lineStyle1</styleUrl>
      <LineString>
         <tessellate>1</tessellate>
         <coordinates>
            11.2000000,-58.3971459
            101.2000000,-31.8323590
            -168.8000000,-58.3971459
            11.2000000,-58.3971459
         </coordinates>
      </LineString>
</Placemark>
<Placemark>
<name>16</name>
      <styleUrl>#lineStyle1</styleUrl>
      <LineString>
         <tessellate>1</tessellate>
         <coordinates>
            42.9174744,0.0000000
            101.2000000,-31.8323590
            11.2000000,-58.3971459
            42.9174744,0.0000000
         </coordinates>
      </LineString>
</Placemark>
<Placemark>
<name>17</name>
      <styleUrl>#lineStyle1</styleUrl>
      <LineString>
         <tessellate>1</tessellate>
         <coordinates>
            101.2000000,-31.8323590
            159.4825256,0.0000000
            -168.8000000,-58.3971459
            101.2000000,-31.8323590
         </coordinates>
      </LineString>
</Placemark>
<Placemark>
<name>18</name>
      <styleUrl>#lineStyle1</styleUrl>
      <LineString>
         <tessellate>1</tessellate>
         <coordinates>
            101.2000000,31.8323590
            159.4825256,0.0000000
            101.2000000,-31.8323590
            101.2000000,31.8323590
         </coordinates>
      </LineString>
</Placemark>
<Placemark>
<name>19</name>
      <styleUrl>#lineStyle1</styleUrl>
      <LineString>
         <tessellate>1</tessellate>
         <coordinates>
            159.4825256,-0.0000000
            -137.0825256,0.0000000
            -168.8000000,-58.3971459
            159.4825256,-0.0000000
         </coordinates>
      </LineString>
</Placemark>
<Placemark>
<name>20</name>
      <styleUrl>#lineStyle1</styleUrl>
      <LineString>
         <tessellate>1</tessellate>
         <coordinates>
            -168.8000000,58.3971459
            -137.0825256,0.0000000
            159.4825256,-0.0000000
            -168.8000000,58.3971459
         </coordinates>
      </LineString>
</Placemark>
</Folder>
</kml>
