<?xml version="1.0" encoding="UTF-8"?>
<kml xmlns="http://earth.google.com/kml/2.1">
<Folder>
   <name>ISEAL Ellipsoidal Icosahedron</name>
   <description>www.discreteglobalgrids.org</description>
   <Style id="lineStyle1">
      <LineStyle id="lineStyle2">
         <color>ff0000ff</color>
         <width>6</width>
      </LineStyle>
   </Style>
   <Placemark>
      <name>1</name>
      <Point>
         <coordinates>
            -123.8000000,35.3854531
         </coordinates>
      </Point>
   </Placemark>
   <Placemark>
      <name>2</name>
      <Point>
         <coordinates>
            -78.8000000,69.1802101
         </coordinates>
      </Point>
   </Placemark>
   <Placemark>
      <name>3</name>
      <Point>
         <coordinates>
            -57.8948426,0.0000000
         </coordinates>
      </Point>
   </Placemark>
   <Placemark>
      <name>4</name>
      <Point>
         <coordinates>
            -33.8000000,35.3854531
         </coordinates>
      </Point>
   </Placemark>
   <Placemark>
      <name>5</name>
      <Point>
         <coordinates>
            11.2000000,-20.9908533
         </coordinates>
      </Point>
   </Placemark>
   <Placemark>
      <name>6</name>
      <Point>
         <coordinates>
            11.2000000,20.9908533
         </coordinates>
      </Point>
   </Placemark>
   <Placemark>
      <name>7</name>
      <Point>
         <coordinates>
            80.2948426,0.0000000
         </coordinates>
      </Point>
   </Placemark>
   <Placemark>
      <name>8</name>
      <Point>
         <coordinates>
            56.2000000,35.3854531
         </coordinates>
      </Point>
   </Placemark>
   <Placemark>
      <name>9</name>
      <Point>
         <coordinates>
            146.2000000,35.3854531
         </coordinates>
      </Point>
   </Placemark>
   <Placemark>
      <name>10</name>
      <Point>
         <coordinates>
            101.2000000,69.1802101
         </coordinates>
      </Point>
   </Placemark>
   <Placemark>
      <name>11</name>
      <Point>
         <coordinates>
            -123.8000000,-35.3854531
         </coordinates>
      </Point>
   </Placemark>
   <Placemark>
      <name>12</name>
      <Point>
         <coordinates>
            -99.7051574,0.0000000
         </coordinates>
      </Point>
   </Placemark>
   <Placemark>
      <name>13</name>
      <Point>
         <coordinates>
            -78.8000000,-69.1802101
         </coordinates>
      </Point>
   </Placemark>
   <Placemark>
      <name>14</name>
      <Point>
         <coordinates>
            -33.8000000,-35.3854531
         </coordinates>
      </Point>
   </Placemark>
   <Placemark>
      <name>15</name>
      <Point>
         <coordinates>
            101.2000000,-69.1802101
         </coordinates>
      </Point>
   </Placemark>
   <Placemark>
      <name>16</name>
      <Point>
         <coordinates>
            56.2000000,-35.3854531
         </coordinates>
      </Point>
   </Placemark>
   <Placemark>
      <name>17</name>
      <Point>
         <coordinates>
            146.2000000,-35.3854531
         </coordinates>
      </Point>
   </Placemark>
   <Placemark>
      <name>18</name>
      <Point>
         <coordinates>
            122.1051574,0.0000000
         </coordinates>
      </Point>
   </Placemark>
   <Placemark>
      <name>19</name>
      <Point>
         <coordinates>
            -168.8000000,-20.9908533
         </coordinates>
      </Point>
   </Placemark>
   <Placemark>
      <name>20</name>
      <Point>
         <coordinates>
            -168.8000000,20.9908533
         </coordinates>
      </Point>
   </Placemark>
</Folder>
</kml>
