{
"type": "FeatureCollection",
"name": "everything.geojson",
"features": [
{"type":"Feature","properties":{"name":"11ffffffffffffff","neighbors":["16ffffffffffffff","14ffffffffffffff","12ffffffffffffff","10ffffffffffffff","a9ffffffffffffff","a8ffffffffffffff"],"children":["113fffffffffffff","117fffffffffffff","11bfffffffffffff","107fffffffffffff","a9bfffffffffffff","a97fffffffffffff","a8bfffffffffffff"]},"geometry":{"type":"GeometryCollection","geometries":[{"type":"Point","coordinates":[-152.857103247946185,40.005481779570083]},{"type":"Polygon","coordinates":[[[-134.262384585105337,44.529621964661608],[-148.615905405971915,52.567655013246423],[-168.75,45.573994275838814],[-168.75,33.167917220093571],[-155.217311979781385,27.292889173535048],[-140.093613055497713,32.274919874523299],[-134.262384585105337,44.529621964661608]]]}]}},
{"type":"Feature","properties":{"name":"12ffffffffffffff","neighbors":["14ffffffffffffff","15ffffffffffffff","18ffffffffffffff","1affffffffffffff","10ffffffffffffff","11ffffffffffffff"],"children":["123fffffffffffff","127fffffffffffff","12bfffffffffffff","1a7fffffffffffff","10bfffffffffffff","107fffffffffffff","11bfffffffffffff"]},"geometry":{"type":"GeometryCollection","geometries":[{"type":"Point","coordinates":[-128.245092124199005,58.497531759252745]},{"type":"Polygon","coordinates":[[[-103.144526251219474,59.768885870807125],[-115.151744270018725,71.943585350566408],[-149.065748308883371,67.425229764296787],[-148.615905405971915,52.567655013246423],[-134.262384585105337,44.529621964661608],[-115.960048080342006,47.896263602334663],[-103.144526251219474,59.768885870807125]]]}]}},
{"type":"Feature","properties":{"name":"18ffffffffffffff","neighbors":["15ffffffffffffff","2affffffffffffff","29ffffffffffffff","19ffffffffffffff","1affffffffffffff","12ffffffffffffff"],"children":["183fffffffffffff","187fffffffffffff","18bfffffffffffff","197fffffffffffff","1abfffffffffffff","1a7fffffffffffff","12bfffffffffffff"]},"geometry":{"type":"GeometryCollection","geometries":[{"type":"Point","coordinates":[-78.75,69.094842552110691]},{"type":"Polygon","coordinates":[[[-54.355473748780497,59.768885870807125],[-42.34825572998124,71.943585350566408],[-78.75,82.988451763080477],[-115.151744270018725,71.943585350566408],[-103.144526251219474,59.768885870807125],[-78.75,56.832082779906429],[-54.355473748780497,59.768885870807125]]]}]}},
{"type":"Feature","properties":{"name":"16ffffffffffffff","neighbors":["60ffffffffffffff","6affffffffffffff","14ffffffffffffff","11ffffffffffffff","a8ffffffffffffff","a5ffffffffffffff"],"children":["163fffffffffffff","167fffffffffffff","16bfffffffffffff","117fffffffffffff","a8bfffffffffffff","a87fffffffffffff","a5bfffffffffffff"]},"geometry":{"type":"GeometryCollection","geometries":[{"type":"Point","coordinates":[-143.765029747833353,19.839930894564745]},{"type":"Polygon","coordinates":[[[-128.79054324824051,23.807007669065296],[-140.093613055497713,32.274919874523299],[-155.217311979781385,27.292889173535048],[-157.800395845117578,14.446380652526139],[-147.372212755290491,7.429590809585262],[-133.046122862228771,12.076898721235345],[-128.79054324824051,23.807007669065296]]]}]}}
]
}
