{
"type": "FeatureCollection",
"name": "corvallisCells.geojson",
"features": [
{"type":"Feature","properties":{"name":"22090054"},"geometry":{"type":"Polygon","coordinates":[[[-123.286942885002603,44.581220217290827],[-123.293969106770774,44.584435714463652],[-123.301758876616404,44.58119065614347],[-123.302521495148298,44.574730836754433],[-123.295495920172982,44.571516203288496],[-123.287707079833325,44.574760525306971],[-123.286942885002603,44.581220217290827]]]}},
{"type":"Feature","properties":{"name":"22094856"},"geometry":{"type":"Polygon","coordinates":[[[-123.27212695808943,44.581246651861655],[-123.27915235870357,44.584463648535689],[-123.286942885002603,44.581220217290827],[-123.287707079833325,44.574760525306971],[-123.280682324624493,44.57154439135968],[-123.272892729140793,44.57478708647259],[-123.27212695808943,44.581246651861655]]]}},
{"type":"Feature","properties":{"name":"22097257"},"geometry":{"type":"Polygon","coordinates":[[[-123.280682324624493,44.57154439135968],[-123.287707079833325,44.574760525306971],[-123.295495920172982,44.571516203288496],[-123.296259075594747,44.565056483601175],[-123.289234966229884,44.561841213172741],[-123.281447055560022,44.565084798714814],[-123.280682324624493,44.57154439135968]]]}},
{"type":"Feature","properties":{"name":"22099658"},"geometry":{"type":"Polygon","coordinates":[[[-123.289234966229884,44.561841213172741],[-123.296259075594747,44.565056483601175],[-123.304046230438118,44.561811269721559],[-123.304808347353259,44.555351522035423],[-123.297784884273028,44.552137115921603],[-123.289998657953291,44.555381592980318],[-123.289234966229884,44.561841213172741]]]}},
{"type":"Feature","properties":{"name":"22099659"},"geometry":{"type":"Polygon","coordinates":[[[-123.257311099772551,44.581269962238146],[-123.26433567732434,44.584488457626385],[-123.27212695808943,44.581246651861662],[-123.272892729140793,44.57478708647259],[-123.265868795610672,44.57156945283208],[-123.258078446969336,44.574810522636767],[-123.257311099772551,44.581269962238146]]]}},
{"type":"Feature","properties":{"name":"22102060"},"geometry":{"type":"Polygon","coordinates":[[[-123.265868795610672,44.57156945283208],[-123.272892729140793,44.57478708647259],[-123.280682324624493,44.57154439135968],[-123.281447055560022,44.565084798714814],[-123.27442376648726,44.561868027611247],[-123.266635101983098,44.565109986418463],[-123.265868795610672,44.57156945283208]]]}},
{"type":"Feature","properties":{"name":"22104460"},"geometry":{"type":"Polygon","coordinates":[[[-123.27442376648726,44.561868027611247],[-123.281447055560022,44.565084798714814],[-123.289234966229884,44.561841213172741],[-123.289998657953291,44.555381592980304],[-123.282976013775723,44.552165685206539],[-123.275189032940617,44.555408534097225],[-123.27442376648726,44.561868027611247]]]}},
{"type":"Feature","properties":{"name":"22106861"},"geometry":{"type":"Polygon","coordinates":[[[-123.282976013775723,44.552165685206539],[-123.289998657953291,44.555381592980318],[-123.297784884273028,44.552137115921603],[-123.298547537686943,44.54567746788716],[-123.291525538844454,44.542462424239751],[-123.283740241213621,44.545706164301215],[-123.282976013775723,44.552165685206539]]]}},
{"type":"Feature","properties":{"name":"22106862"},"geometry":{"type":"Polygon","coordinates":[[[-123.251055337026756,44.571591390091399],[-123.258078446969336,44.574810522636767],[-123.265868795610672,44.57156945283208],[-123.266635101983098,44.565109986418463],[-123.259612635115261,44.561891715429297],[-123.251823218762439,44.565132049101216],[-123.251055337026756,44.571591390091399]]]}},
{"type":"Feature","properties":{"name":"22109263"},"geometry":{"type":"Polygon","coordinates":[[[-123.259612635115261,44.561891715429297],[-123.266635101983098,44.565109986418463],[-123.27442376648726,44.561868027611247],[-123.275189032940617,44.555408534097225],[-123.268167209582217,44.552191125454144],[-123.260379476222937,44.555432347781647],[-123.259612635115261,44.561891715429297]]]}},
{"type":"Feature","properties":{"name":"22111663"},"geometry":{"type":"Polygon","coordinates":[[[-123.268167209582217,44.552191125454144],[-123.275189032940617,44.555408534097225],[-123.282976013775723,44.552165685206539],[-123.283740241213621,44.545706164301215],[-123.276719061801941,44.542489618797909],[-123.268933010967089,44.545731730861789],[-123.268167209582217,44.552191125454144]]]}},
{"type":"Feature","properties":{"name":"22116466"},"geometry":{"type":"Polygon","coordinates":[[[-123.253358475597366,44.55221343906026],[-123.260379476222937,44.555432347781647],[-123.268167209582217,44.552191125454144],[-123.268933010967089,44.545731730861789],[-123.261912652903604,44.542513684294711],[-123.254125850855232,44.545754169968085],[-123.253358475597366,44.55221343906026]]]}}
]
}
