{
"type": "FeatureCollection",
"name": "everything.geojson",
"features": [
{"type":"Feature","properties":{"name":"0104","neighbors":["0141","0143","0106","0100","0105","0152"],"children":["01040","01044","01046","01042","01043","01041","01045","01431","01065","01004","01056","01522","01413"],"ndxChildren":["01040","01041","01042","01043","01044","01045","01046"],"ndxParent":"010"},"geometry":{"type":"GeometryCollection","geometries":[{"type":"Point","coordinates":[-160.570686886185143,50.868147991962189]},{"type":"Polygon","coordinates":[[[-151.099416202396185,53.561639415134302],[-159.322542986485303,56.220647678003935],[-168.75,52.787565493291758],[-168.75,47.366928668717783],[-161.318675855284368,45.446792324825303],[-153.201491261504543,48.254663247024304],[-151.099416202396185,53.561639415134302]]]}]}},
{"type":"Feature","properties":{"name":"0106","neighbors":["0143","0165","0161","0103","0100","0104"],"children":["01060","01064","01066","01062","01063","01061","01065","01651","01615","01036","01006","01042","01433"],"ndxChildren":["01060","01061","01062","01063","01064","01065","01066"],"ndxParent":"010"},"geometry":{"type":"GeometryCollection","geometries":[{"type":"Point","coordinates":[-151.890904300144598,59.938049482713367]},{"type":"Polygon","coordinates":[[[-142.456532405634874,63.00868031828773],[-152.660978559301128,66.319728321782861],[-161.734979947088391,62.557047589008427],[-159.322542986485303,56.220647678003935],[-151.099416202396185,53.561639415134302],[-143.379645544196592,56.809094022879499],[-142.456532405634874,63.00868031828773]]]}]}},
{"type":"Feature","properties":{"name":"0161","neighbors":["0165","0160","0163","0136","0103","0106"],"children":["01610","01614","01616","01612","01613","01611","01615","01601","01635","01366","01032","01062","01653"],"ndxChildren":["01610","01611","01612","01613","01614","01615","01616"],"ndxParent":"016"},"geometry":{"type":"GeometryCollection","geometries":[{"type":"Point","coordinates":[-140.898400443105743,69.351990068175354]},{"type":"Polygon","coordinates":[[[-126.196488280402193,71.347387524028591],[-144.703117732712542,74.755961022708277],[-159.017938039713471,71.290209372137213],[-152.660978559301128,66.319728321782861],[-142.456532405634874,63.00868031828773],[-131.178365663669496,65.274227639114301],[-126.196488280402193,71.347387524028591]]]}]}},
{"type":"Feature","properties":{"name":"0163","neighbors":["0160","0162","0055","0132","0136","0161"],"children":["01630","01634","01636","01632","01633","01631","01635","01621","00555","01326","01362","01612","01603"],"ndxChildren":["01630","01631","01632","01633","01634","01635","01636"],"ndxParent":"016"},"geometry":{"type":"GeometryCollection","geometries":[{"type":"Point","coordinates":[-124.33893161188729,76.901356490967032]},{"type":"Polygon","coordinates":[[[-100.151180033325872,77.049323618318866],[-116.583082380663541,82.357905001287463],[-150.606243824402128,80.20445034632111],[-144.703117732712542,74.755961022708277],[-126.196488280402193,71.347387524028591],[-109.474998794399113,71.997473473662893],[-100.151180033325872,77.049323618318866]]]}]}}
]
}
