{
"type": "FeatureCollection",
"name": "cities3h9.geojson",
"features": [
{"type":"Feature","properties":{"name":"10966","data":"139600 Eugene"},"geometry":{"type":"GeometryCollection","geometries":[{"type":"Point","coordinates":[-122.989566958221133,44.147495484660247]},{"type":"Polygon","coordinates":[[[-122.674545643762897,44.337436248921755],[-123.027289191270739,44.434715975267608],[-123.341775141808938,44.243197439162188],[-123.302687857927936,43.956227573887787],[-122.952181970281728,43.860291649004829],[-122.638543872669516,44.049971987507043],[-122.674545643762897,44.337436248921755]]]}]}},
{"type":"Feature","properties":{"name":"10723","data":"138600 Salem"},"geometry":{"type":"GeometryCollection","geometries":[{"type":"Point","coordinates":[-123.103772595098761,45.009222948403306]},{"type":"Polygon","coordinates":[[[-122.784506366916503,45.199920055108016],[-123.142547982321375,45.296516807505625],[-123.461226346659487,45.104267561567056],[-123.421036836489634,44.817214206268929],[-123.065355408010575,44.721957194812624],[-122.747520533817521,44.912405860977699],[-122.784506366916503,45.199920055108016]]]}]}},
{"type":"Feature","properties":{"name":"10642","data":"535700 Portland"},"geometry":{"type":"GeometryCollection","geometries":[{"type":"Point","coordinates":[-122.821833373211575,45.487459258708839]},{"type":"Polygon","coordinates":[[[-122.499081080314042,45.677131285285434],[-122.859508556493211,45.775027229650981],[-123.181689040002482,45.58384213970664],[-123.14254798232146,45.29651680750564],[-122.784506366916602,45.199920055108038],[-122.463237288370607,45.389344015883822],[-122.499081080314042,45.677131285285434]]]}]}},
{"type":"Feature","properties":{"name":"10803","data":"49900 Corvallis"},"geometry":{"type":"GeometryCollection","geometries":[{"type":"Point","coordinates":[-123.381222323022001,44.530191875797726]},{"type":"Polygon","coordinates":[[[-123.065355408010575,44.721957194812624],[-123.421036836489634,44.817214206268929],[-123.736295871226744,44.623849334092164],[-123.695117301478462,44.33706272763456],[-123.341775141808938,44.243197439162188],[-123.027289191270739,44.434715975267608],[-123.065355408010575,44.721957194812624]]]}]}},
{"type":"Feature","properties":{"name":"10642","data":"42300 Aloha"},"geometry":{"type":"GeometryCollection","geometries":[{"type":"Point","coordinates":[-122.821833373211575,45.487459258708839]},{"type":"Polygon","coordinates":[[[-122.499081080314042,45.677131285285434],[-122.859508556493211,45.775027229650981],[-123.181689040002482,45.58384213970664],[-123.14254798232146,45.29651680750564],[-122.784506366916602,45.199920055108038],[-122.463237288370607,45.389344015883822],[-122.499081080314042,45.677131285285434]]]}]}},
{"type":"Feature","properties":{"name":"10642","data":"41700 Tigard"},"geometry":{"type":"GeometryCollection","geometries":[{"type":"Point","coordinates":[-122.821833373211575,45.487459258708839]},{"type":"Polygon","coordinates":[[[-122.499081080314042,45.677131285285434],[-122.859508556493211,45.775027229650981],[-123.181689040002482,45.58384213970664],[-123.14254798232146,45.29651680750564],[-122.784506366916602,45.199920055108038],[-122.463237288370607,45.389344015883822],[-122.499081080314042,45.677131285285434]]]}]}},
{"type":"Feature","properties":{"name":"10803","data":"41400 Albany"},"geometry":{"type":"GeometryCollection","geometries":[{"type":"Point","coordinates":[-123.381222323022001,44.530191875797726]},{"type":"Polygon","coordinates":[[[-123.065355408010575,44.721957194812624],[-123.421036836489634,44.817214206268929],[-123.736295871226744,44.623849334092164],[-123.695117301478462,44.33706272763456],[-123.341775141808938,44.243197439162188],[-123.027289191270739,44.434715975267608],[-123.065355408010575,44.721957194812624]]]}]}},
{"type":"Feature","properties":{"name":"10642","data":"35700 LakeOswego"},"geometry":{"type":"GeometryCollection","geometries":[{"type":"Point","coordinates":[-122.821833373211575,45.487459258708839]},{"type":"Polygon","coordinates":[[[-122.499081080314042,45.677131285285434],[-122.859508556493211,45.775027229650981],[-123.181689040002482,45.58384213970664],[-123.14254798232146,45.29651680750564],[-122.784506366916602,45.199920055108038],[-122.463237288370607,45.389344015883822],[-122.499081080314042,45.677131285285434]]]}]}},
{"type":"Feature","properties":{"name":"10723","data":"32600 Keizer"},"geometry":{"type":"GeometryCollection","geometries":[{"type":"Point","coordinates":[-123.103772595098761,45.009222948403306]},{"type":"Polygon","coordinates":[[[-122.784506366916503,45.199920055108016],[-123.142547982321375,45.296516807505625],[-123.461226346659487,45.104267561567056],[-123.421036836489634,44.817214206268929],[-123.065355408010575,44.721957194812624],[-122.747520533817521,44.912405860977699],[-122.784506366916503,45.199920055108016]]]}]}},
{"type":"Feature","properties":{"name":"10723","data":"26800 MacMinnville"},"geometry":{"type":"GeometryCollection","geometries":[{"type":"Point","coordinates":[-123.103772595098761,45.009222948403306]},{"type":"Polygon","coordinates":[[[-122.784506366916503,45.199920055108016],[-123.142547982321375,45.296516807505625],[-123.461226346659487,45.104267561567056],[-123.421036836489634,44.817214206268929],[-123.065355408010575,44.721957194812624],[-122.747520533817521,44.912405860977699],[-122.784506366916503,45.199920055108016]]]}]}},
{"type":"Feature","properties":{"name":"10642","data":"26100 OregonCity"},"geometry":{"type":"GeometryCollection","geometries":[{"type":"Point","coordinates":[-122.821833373211575,45.487459258708839]},{"type":"Polygon","coordinates":[[[-122.499081080314042,45.677131285285434],[-122.859508556493211,45.775027229650981],[-123.181689040002482,45.58384213970664],[-123.14254798232146,45.29651680750564],[-122.784506366916602,45.199920055108038],[-122.463237288370607,45.389344015883822],[-122.499081080314042,45.677131285285434]]]}]}},
{"type":"Feature","properties":{"name":"11370","data":"23300 GrantsPass"},"geometry":{"type":"GeometryCollection","geometries":[{"type":"Point","coordinates":[-123.417182868025421,42.330250125463166]},{"type":"Polygon","coordinates":[[[-123.112406060690702,42.521612836515899],[-123.455833562715881,42.616886789897372],[-123.760080819083356,42.423758503961523],[-123.72020298601889,42.137376105261524],[-123.378865479857254,42.043619781270934],[-123.075335318229435,42.234705289800566],[-123.112406060690702,42.521612836515899]]]}]}},
{"type":"Feature","properties":{"name":"10642","data":"23100 Tualatin"},"geometry":{"type":"GeometryCollection","geometries":[{"type":"Point","coordinates":[-122.821833373211575,45.487459258708839]},{"type":"Polygon","coordinates":[[[-122.499081080314042,45.677131285285434],[-122.859508556493211,45.775027229650981],[-123.181689040002482,45.58384213970664],[-123.14254798232146,45.29651680750564],[-122.784506366916602,45.199920055108038],[-122.463237288370607,45.389344015883822],[-122.499081080314042,45.677131285285434]]]}]}},
{"type":"Feature","properties":{"name":"10642","data":"22500 WestLinn"},"geometry":{"type":"GeometryCollection","geometries":[{"type":"Point","coordinates":[-122.821833373211575,45.487459258708839]},{"type":"Polygon","coordinates":[[[-122.499081080314042,45.677131285285434],[-122.859508556493211,45.775027229650981],[-123.181689040002482,45.58384213970664],[-123.14254798232146,45.29651680750564],[-122.784506366916602,45.199920055108038],[-122.463237288370607,45.389344015883822],[-122.499081080314042,45.677131285285434]]]}]}},
{"type":"Feature","properties":{"name":"10642","data":"20700 Milwaukie"},"geometry":{"type":"GeometryCollection","geometries":[{"type":"Point","coordinates":[-122.821833373211575,45.487459258708839]},{"type":"Polygon","coordinates":[[[-122.499081080314042,45.677131285285434],[-122.859508556493211,45.775027229650981],[-123.181689040002482,45.58384213970664],[-123.14254798232146,45.29651680750564],[-122.784506366916602,45.199920055108038],[-122.463237288370607,45.389344015883822],[-122.499081080314042,45.677131285285434]]]}]}},
{"type":"Feature","properties":{"name":"10805","data":"20600 CitrusPark"},"geometry":{"type":"GeometryCollection","geometries":[{"type":"Point","coordinates":[-121.456445941443263,45.66176860580223]},{"type":"Polygon","coordinates":[[[-121.128704915449546,45.846142887333343],[-121.487357293904452,45.950287132983718],[-121.814670900901348,45.764500911704602],[-121.782187990245887,45.476231880762064],[-121.425800099268386,45.373257421207285],[-121.09964807126066,45.557382269592303],[-121.128704915449546,45.846142887333343]]]}]}},
{"type":"Feature","properties":{"name":"10723","data":"20400 Woodburn"},"geometry":{"type":"GeometryCollection","geometries":[{"type":"Point","coordinates":[-123.103772595098761,45.009222948403306]},{"type":"Polygon","coordinates":[[[-122.784506366916503,45.199920055108016],[-123.142547982321375,45.296516807505625],[-123.461226346659487,45.104267561567056],[-123.421036836489634,44.817214206268929],[-123.065355408010575,44.721957194812624],[-122.747520533817521,44.912405860977699],[-122.784506366916503,45.199920055108016]]]}]}},
{"type":"Feature","properties":{"name":"11127","data":"20300 Roseburg"},"geometry":{"type":"GeometryCollection","geometries":[{"type":"Point","coordinates":[-123.534161118210292,43.19019633901037]},{"type":"Polygon","coordinates":[[[-123.225564397920806,43.382347125877153],[-123.57385167785219,43.476876951674441],[-123.881864799940686,43.283020500941809],[-123.84090446911911,42.996577635277383],[-123.494824067098762,42.903534185904462],[-123.187514519198345,43.095428642557209],[-123.225564397920806,43.382347125877153]]]}]}},
{"type":"Feature","properties":{"name":"10724","data":"91300 Gresham"},"geometry":{"type":"GeometryCollection","geometries":[{"type":"Point","coordinates":[-122.13996113349036,45.577528081074284]},{"type":"Polygon","coordinates":[[[-121.814670900901348,45.764500911704602],[-122.174286448658165,45.865564352248676],[-122.499081080314042,45.677131285285434],[-122.463237288370607,45.389344015883822],[-122.10594210520766,45.289510528213185],[-121.782187990245887,45.476231880762064],[-121.814670900901348,45.764500911704602]]]}]}},
{"type":"Feature","properties":{"name":"10642","data":"77100 Beaverton"},"geometry":{"type":"GeometryCollection","geometries":[{"type":"Point","coordinates":[-122.821833373211575,45.487459258708839]},{"type":"Polygon","coordinates":[[[-122.499081080314042,45.677131285285434],[-122.859508556493211,45.775027229650981],[-123.181689040002482,45.58384213970664],[-123.14254798232146,45.29651680750564],[-122.784506366916602,45.199920055108038],[-122.463237288370607,45.389344015883822],[-122.499081080314042,45.677131285285434]]]}]}},
{"type":"Feature","properties":{"name":"10642","data":"71100 Hillsboro"},"geometry":{"type":"GeometryCollection","geometries":[{"type":"Point","coordinates":[-122.821833373211575,45.487459258708839]},{"type":"Polygon","coordinates":[[[-122.499081080314042,45.677131285285434],[-122.859508556493211,45.775027229650981],[-123.181689040002482,45.58384213970664],[-123.14254798232146,45.29651680750564],[-122.784506366916602,45.199920055108038],[-122.463237288370607,45.389344015883822],[-122.499081080314042,45.677131285285434]]]}]}},
{"type":"Feature","properties":{"name":"11452","data":"63900 Medford"},"geometry":{"type":"GeometryCollection","geometries":[{"type":"Point","coordinates":[-122.770098562161948,42.424354841517406]},{"type":"Polygon","coordinates":[[[-122.463163731518577,42.61264456459741],[-122.805888932910321,42.71154937333462],[-123.112406060690702,42.521612836515899],[-123.075335318229435,42.234705289800566],[-122.73461097898705,42.137143830386862],[-122.428978927156209,42.325132600066759],[-122.463163731518577,42.61264456459741]]]}]}},
{"type":"Feature","properties":{"name":"10966","data":"53500 Springfield"},"geometry":{"type":"GeometryCollection","geometries":[{"type":"Point","coordinates":[-122.989566958221133,44.147495484660247]},{"type":"Polygon","coordinates":[[[-122.674545643762897,44.337436248921755],[-123.027289191270739,44.434715975267608],[-123.341775141808938,44.243197439162188],[-123.302687857927936,43.956227573887787],[-122.952181970281728,43.860291649004829],[-122.638543872669516,44.049971987507043],[-122.674545643762897,44.337436248921755]]]}]}},
{"type":"Feature","properties":{"name":"11291","data":"52700 Bend"},"geometry":{"type":"GeometryCollection","geometries":[{"type":"Point","coordinates":[-121.276421206515352,43.93059384369603]},{"type":"Polygon","coordinates":[[[-120.957965173296927,44.113415587795799],[-121.305794211490038,44.219164101361535],[-121.62393164554598,44.034929929863601],[-121.593083627174764,43.746633695046903],[-121.24729488535246,43.641988795355651],[-120.930333283094427,43.824536485117292],[-120.957965173296927,44.113415587795799]]]}]}}
]
}
