{
"type": "FeatureCollection",
"name": "cells.geojson",
"features": [
{"type":"Feature","properties":{"name":"1"},"geometry":{"type":"Polygon","coordinates":[[[1.943466512793907,49.560529239514786],[20.556533487205996,49.560529239514914],[31.090807828567069,59.995718851042732],[11.25,68.562621827391254],[-8.590807828567417,59.995718851042717],[1.943466512793907,49.560529239514786]]]}},
{"type":"Feature","properties":{"name":"2"},"geometry":{"type":"Polygon","coordinates":[[[191.25,68.562621827390956],[171.409192171432892,59.995718851042717],[181.943466512794004,49.560529239514906],[200.556533487206195,49.5605292395147],[211.09080782856762,59.995718851042746],[191.25,68.562621827390956]]]}},
{"type":"Feature","properties":{"name":"3"},"geometry":{"type":"Polygon","coordinates":[[[11.250000000000114,79.189978118836009],[73.765598298300759,78.08590585097383],[128.734401701698971,78.085905850973859],[191.25,79.189978118835796],[253.765598298300745,78.08590585097383],[308.734401701698914,78.085905850973859],[11.250000000000114,79.189978118836009]]]}},
{"type":"Feature","properties":{"name":"4"},"geometry":{"type":"Polygon","coordinates":[[[-106.234401701699241,78.08590585097383],[-168.75,79.189978118835796],[-168.75,68.562621827390956],[-148.90919217143238,59.995718851042746],[-128.245092124199033,58.497531759252738],[-108.331451241627491,65.867662107937662],[-106.234401701699241,78.08590585097383]]]}},
{"type":"Feature","properties":{"name":"5"},"geometry":{"type":"Polygon","coordinates":[[[-8.590807828567341,59.995718851042703],[11.25,68.562621827391212],[11.250000000000114,79.189978118836009],[-51.265598298300489,78.085905850973774],[-49.168548758372218,65.867662107937733],[-29.254907875800967,58.497531759252709],[-8.590807828567341,59.995718851042703]]]}},
{"type":"Feature","properties":{"name":"6"},"geometry":{"type":"Polygon","coordinates":[[[-128.245092124199033,58.497531759252738],[-148.90919217143238,59.995718851042746],[-159.443466512793805,49.5605292395147],[-152.857103247946185,40.005481779570083],[-137.75204620291143,38.528489141589041],[-125.492857871920961,46.841040636752027],[-128.245092124199033,58.497531759252738]]]}},
{"type":"Feature","properties":{"name":"7"},"geometry":{"type":"Polygon","coordinates":[[[-49.168548758372218,65.867662107937733],[-51.2655982983011,78.085905850973859],[-106.234401701699241,78.08590585097383],[-108.331451241627491,65.867662107937662],[-90.557569635705747,58.618601020688196],[-66.942430364294154,58.618601020688246],[-49.168548758372218,65.867662107937733]]]}},
{"type":"Feature","properties":{"name":"8"},"geometry":{"type":"Polygon","coordinates":[[[-137.75204620291143,38.528489141589041],[-152.857103247946185,40.005481779570083],[-161.635550514252657,30.644780596601294],[-156.279234534750231,20.827434436773029],[-143.765029747833353,19.839930894564745],[-134.419868963227287,27.952813407938457],[-137.75204620291143,38.528489141589041]]]}},
{"type":"Feature","properties":{"name":"9"},"geometry":{"type":"Polygon","coordinates":[[[-90.557569635705747,58.618601020688196],[-108.331451241627491,65.867662107937662],[-128.245092124199033,58.497531759252738],[-125.492857871920961,46.841040636752027],[-111.644494893346504,42.111467291335963],[-96.820799374464841,47.451351800013896],[-90.557569635705747,58.618601020688196]]]}},
{"type":"Feature","properties":{"name":"10"},"geometry":{"type":"Polygon","coordinates":[[[-111.644494893346504,42.111467291335963],[-125.492857871920961,46.841040636752027],[-137.75204620291143,38.528489141589041],[-134.419868963227287,27.952813407938457],[-121.639308305762114,23.758944785448936],[-111.474468333781616,29.878695340962452],[-111.644494893346504,42.111467291335963]]]}},
{"type":"Feature","properties":{"name":"11"},"geometry":{"type":"Polygon","coordinates":[[[-60.679200625535273,47.451351800013803],[-66.942430364294154,58.618601020688246],[-90.557569635705747,58.618601020688196],[-96.820799374464841,47.451351800013896],[-86.597273406111128,39.799757231711212],[-70.902726593888985,39.799757231711098],[-60.679200625535273,47.451351800013803]]]}},
{"type":"Feature","properties":{"name":"12"},"geometry":{"type":"Polygon","coordinates":[[[-121.639308305762114,23.758944785448936],[-134.419868963227287,27.952813407938457],[-143.765029747833353,19.839930894564745],[-140.240427086367504,9.771885122035442],[-128.684913399744545,6.021197802427085],[-119.858545533394647,12.108097955048763],[-121.639308305762114,23.758944785448936]]]}},
{"type":"Feature","properties":{"name":"13"},"geometry":{"type":"Polygon","coordinates":[[[-86.597273406111128,39.799757231711212],[-96.820799374464841,47.451351800013896],[-111.644494893346504,42.111467291335963],[-111.474468333781616,29.878695340962452],[-100.455556714077844,23.410113762746892],[-89.838904021828455,28.058998600227206],[-86.597273406111128,39.799757231711212]]]}},
{"type":"Feature","properties":{"name":"14"},"geometry":{"type":"Polygon","coordinates":[[[-70.902726593889099,39.799757231711013],[-86.597273406110901,39.799757231710998],[-89.838904021828469,28.058998600227209],[-78.75,21.437378172608806],[-67.661095978171247,28.058998600227106],[-70.902726593889099,39.799757231711013]]]}},
{"type":"Feature","properties":{"name":"15"},"geometry":{"type":"Polygon","coordinates":[[[-29.254907875801248,58.497531759252709],[-49.16854875837236,65.867662107937718],[-66.942430364294054,58.618601020688295],[-60.679200625535294,47.451351800013818],[-45.85550510665356,42.11146729133592],[-32.007142128079145,46.841040636751984],[-29.254907875801248,58.497531759252709]]]}},
{"type":"Feature","properties":{"name":"16"},"geometry":{"type":"Polygon","coordinates":[[[-45.85550510665356,42.11146729133592],[-60.679200625535294,47.451351800013818],[-70.902726593889099,39.799757231711013],[-67.661095978171247,28.058998600227106],[-57.044443285922149,23.410113762746885],[-46.025531666218313,29.878695340962405],[-45.85550510665356,42.11146729133592]]]}},
{"type":"Feature","properties":{"name":"17"},"geometry":{"type":"Polygon","coordinates":[[[1.943466512793926,49.560529239514786],[-8.590807828567579,59.995718851042703],[-29.254907875801248,58.497531759252709],[-32.007142128078939,46.841040636752034],[-19.747953797088552,38.528489141589098],[-4.64289675205382,40.005481779570061],[1.943466512793926,49.560529239514786]]]}},
{"type":"Feature","properties":{"name":"18"},"geometry":{"type":"Polygon","coordinates":[[[-57.044443285922149,23.410113762746885],[-67.661095978171247,28.058998600227106],[-78.75,21.437378172608806],[-78.75,10.810021881164209],[-68.148228583583574,5.46719294548573],[-57.463883564982702,11.644043428737891],[-57.044443285922149,23.410113762746885]]]}},
{"type":"Feature","properties":{"name":"19"},"geometry":{"type":"Polygon","coordinates":[[[-19.747953797088552,38.528489141589098],[-32.007142128079145,46.841040636751984],[-45.85550510665356,42.11146729133592],[-46.025531666218313,29.878695340962405],[-35.860691694237751,23.758944785448865],[-23.080131036772713,27.952813407938446],[-19.747953797088552,38.528489141589098]]]}},
{"type":"Feature","properties":{"name":"20"},"geometry":{"type":"Polygon","coordinates":[[[-68.148228583583574,5.46719294548573],[-78.75,10.810021881164209],[-89.351771416416454,5.467192945485791],[-89.351771416416454,-5.467192945485787],[-78.75,-10.810021881164301],[-68.148228583583574,-5.467192945485708],[-68.148228583583574,5.46719294548573]]]}},
{"type":"Feature","properties":{"name":"21"},"geometry":{"type":"Polygon","coordinates":[[[-35.860691694237751,23.758944785448865],[-46.025531666218313,29.878695340962405],[-57.044443285922149,23.410113762746885],[-57.463883564982702,11.644043428737891],[-47.910660566712366,6.116768897618467],[-37.641454466605325,12.108097955048741],[-35.860691694237751,23.758944785448865]]]}},
{"type":"Feature","properties":{"name":"22"},"geometry":{"type":"Polygon","coordinates":[[[-47.910660566712366,6.116768897618467],[-57.463883564982702,11.644043428737891],[-68.148228583583574,5.46719294548573],[-68.148228583583574,-5.467192945485708],[-57.463883564982652,-11.644043428737852],[-47.910660566712316,-6.116768897618422],[-47.910660566712366,6.116768897618467]]]}},
{"type":"Feature","properties":{"name":"23"},"geometry":{"type":"Polygon","coordinates":[[[-13.734970252166613,19.839930894564858],[-23.080131036772713,27.952813407938446],[-35.860691694237751,23.758944785448865],[-37.641454466605325,12.108097955048741],[-28.815086600255569,6.021197802427161],[-17.259572913632468,9.771885122035565],[-13.734970252166613,19.839930894564858]]]}},
{"type":"Feature","properties":{"name":"24"},"geometry":{"type":"Polygon","coordinates":[[[-57.463883564982652,-11.644043428737852],[-68.148228583583574,-5.467192945485708],[-78.75,-10.810021881164301],[-78.75,-21.437378172609041],[-67.661095978171417,-28.058998600227145],[-57.044443285922014,-23.4101137627468],[-57.463883564982652,-11.644043428737852]]]}},
{"type":"Feature","properties":{"name":"25"},"geometry":{"type":"Polygon","coordinates":[[[-28.815086600255569,6.021197802427161],[-37.641454466605325,12.108097955048741],[-47.910660566712366,6.116768897618467],[-47.910660566712316,-6.116768897618422],[-37.641454466605225,-12.108097955048668],[-28.815086600255345,-6.02119780242701],[-28.815086600255569,6.021197802427161]]]}},
{"type":"Feature","properties":{"name":"26"},"geometry":{"type":"Polygon","coordinates":[[[-17.259572913632507,9.771885122035435],[-28.81508660025537,6.021197802427022],[-28.815086600255359,-6.021197802427007],[-17.259572913632404,-9.77188512203567],[-10.187378172608772,0.0],[-17.259572913632507,9.771885122035435]]]}},
{"type":"Feature","properties":{"name":"27"},"geometry":{"type":"Polygon","coordinates":[[[-4.642896752053931,40.005481779569934],[-19.747953797088581,38.528489141589034],[-23.080131036772684,27.952813407938521],[-13.734970252166624,19.839930894564841],[-1.220765465249777,20.82743443677311],[4.135550514252547,30.644780596601166],[-4.642896752053931,40.005481779569934]]]}},
{"type":"Feature","properties":{"name":"28"},"geometry":{"type":"Polygon","coordinates":[[[-1.220765465249777,20.82743443677311],[-13.734970252166624,19.839930894564841],[-17.259572913632507,9.771885122035435],[-10.187378172608772,0.0],[0.439978118835811,0.0],[5.688449680597961,10.552988882570956],[-1.220765465249777,20.82743443677311]]]}},
{"type":"Feature","properties":{"name":"29"},"geometry":{"type":"Polygon","coordinates":[[[20.556533487206114,49.560529239514807],[1.943466512793829,49.560529239514679],[-4.642896752053931,40.005481779569934],[4.135550514252631,30.644780596601294],[18.364449485747372,30.644780596601294],[27.142896752053847,40.005481779570069],[20.556533487206114,49.560529239514807]]]}},
{"type":"Feature","properties":{"name":"30"},"geometry":{"type":"Polygon","coordinates":[[[0.439978118835811,0.0],[-10.187378172608772,0.0],[-17.259572913632404,-9.77188512203567],[-13.734970252166612,-19.839930894564841],[-1.220765465249779,-20.827434436773107],[5.688449680597903,-10.552988882570945],[0.439978118835811,0.0]]]}},
{"type":"Feature","properties":{"name":"31"},"geometry":{"type":"Polygon","coordinates":[[[18.364449485747372,30.644780596601294],[4.135550514252547,30.644780596601166],[-1.220765465249777,20.82743443677311],[5.688449680597961,10.552988882570956],[16.811550319402176,10.552988882570959],[23.720765465249773,20.827434436773107],[18.364449485747372,30.644780596601294]]]}},
{"type":"Feature","properties":{"name":"32"},"geometry":{"type":"Polygon","coordinates":[[[-1.220765465249779,-20.827434436773107],[-13.734970252166612,-19.839930894564841],[-23.080131036772737,-27.952813407938386],[-19.747953797088581,-38.528489141589112],[-4.642896752053762,-40.005481779570175],[4.135550514252597,-30.644780596601237],[-1.220765465249779,-20.827434436773107]]]}},
{"type":"Feature","properties":{"name":"33"},"geometry":{"type":"Polygon","coordinates":[[[16.811550319402176,10.552988882570959],[5.688449680597961,10.552988882570956],[0.439978118835811,0.0],[5.688449680597903,-10.552988882570945],[16.811550319402048,-10.552988882570945],[22.060021881164072,-0.0],[16.811550319402176,10.552988882570959]]]}},
{"type":"Feature","properties":{"name":"34"},"geometry":{"type":"Polygon","coordinates":[[[16.811550319402048,-10.552988882570945],[5.688449680597903,-10.552988882570945],[-1.220765465249779,-20.827434436773107],[4.135550514252597,-30.644780596601237],[18.364449485747464,-30.644780596601166],[23.720765465249787,-20.827434436773107],[16.811550319402048,-10.552988882570945]]]}},
{"type":"Feature","properties":{"name":"35"},"geometry":{"type":"Polygon","coordinates":[[[36.234970252166619,19.839930894564866],[23.720765465249773,20.827434436773107],[16.811550319402176,10.552988882570959],[22.060021881164072,-0.0],[32.687378172608796,0.0],[39.759572913632454,9.771885122035563],[36.234970252166619,19.839930894564866]]]}},
{"type":"Feature","properties":{"name":"36"},"geometry":{"type":"Polygon","coordinates":[[[18.364449485747464,-30.644780596601166],[4.135550514252597,-30.644780596601237],[-4.642896752053762,-40.005481779570175],[1.943466512793996,-49.560529239514914],[20.556533487206149,-49.5605292395148],[27.142896752053943,-40.005481779569912],[18.364449485747464,-30.644780596601166]]]}},
{"type":"Feature","properties":{"name":"37"},"geometry":{"type":"Polygon","coordinates":[[[32.687378172608796,0.0],[22.060021881164072,-0.0],[16.811550319402048,-10.552988882570945],[23.720765465249787,-20.827434436773107],[36.234970252166619,-19.839930894564837],[39.75957291363251,-9.771885122035425],[32.687378172608796,0.0]]]}},
{"type":"Feature","properties":{"name":"38"},"geometry":{"type":"Polygon","coordinates":[[[39.75957291363251,9.771885122035437],[32.687378172609037,-0.0],[39.759572913632496,-9.771885122035432],[51.315086600255576,-6.021197802427146],[51.315086600255576,6.021197802427185],[39.75957291363251,9.771885122035437]]]}},
{"type":"Feature","properties":{"name":"39"},"geometry":{"type":"Polygon","coordinates":[[[27.142896752053897,40.005481779569926],[18.364449485747407,30.644780596601237],[23.720765465249748,20.827434436773174],[36.234970252166633,19.839930894564844],[45.58013103677272,27.952813407938454],[42.247953797088599,38.528489141588956],[27.142896752053897,40.005481779569926]]]}},
{"type":"Feature","properties":{"name":"40"},"geometry":{"type":"Polygon","coordinates":[[[45.58013103677272,27.952813407938454],[36.234970252166633,19.839930894564844],[39.75957291363251,9.771885122035437],[51.315086600255576,6.021197802427185],[60.141454466605232,12.108097955048681],[58.360691694237879,23.758944785448943],[45.58013103677272,27.952813407938454]]]}},
{"type":"Feature","properties":{"name":"41"},"geometry":{"type":"Polygon","coordinates":[[[31.090807828567328,59.995718851042732],[20.556533487206195,49.560529239514693],[27.142896752053897,40.005481779569926],[42.247953797088556,38.528489141589098],[54.507142128078947,46.841040636752041],[51.754907875800988,58.497531759252738],[31.090807828567328,59.995718851042732]]]}},
{"type":"Feature","properties":{"name":"42"},"geometry":{"type":"Polygon","coordinates":[[[60.141454466605232,12.108097955048681],[51.315086600255576,6.021197802427185],[51.315086600255576,-6.021197802427146],[60.141454466605232,-12.108097955048661],[70.410660566712323,-6.116768897618418],[70.410660566712323,6.116768897618442],[60.141454466605232,12.108097955048681]]]}},
{"type":"Feature","properties":{"name":"43"},"geometry":{"type":"Polygon","coordinates":[[[54.507142128078947,46.841040636752041],[42.247953797088599,38.528489141588956],[45.58013103677272,27.952813407938454],[58.360691694237879,23.758944785448943],[68.525531666218455,29.878695340962487],[68.355505106653567,42.11146729133592],[54.507142128078947,46.841040636752041]]]}},
{"type":"Feature","properties":{"name":"44"},"geometry":{"type":"Polygon","coordinates":[[[70.410660566712323,-6.116768897618418],[60.141454466605232,-12.108097955048661],[58.360691694237751,-23.758944785448872],[68.525531666218455,-29.878695340962494],[79.544443285922284,-23.410113762746917],[79.963883564982723,-11.644043428737872],[70.410660566712323,-6.116768897618418]]]}},
{"type":"Feature","properties":{"name":"45"},"geometry":{"type":"Polygon","coordinates":[[[68.525531666218455,29.878695340962487],[58.360691694237879,23.758944785448943],[60.141454466605232,12.108097955048681],[70.410660566712323,6.116768897618442],[79.963883564982666,11.644043428737872],[79.544443285922029,23.410113762746825],[68.525531666218455,29.878695340962487]]]}},
{"type":"Feature","properties":{"name":"46"},"geometry":{"type":"Polygon","coordinates":[[[79.963883564982666,11.644043428737872],[70.410660566712323,6.116768897618442],[70.410660566712323,-6.116768897618418],[79.963883564982723,-11.644043428737872],[90.648228583583574,-5.467192945485634],[90.648228583583574,5.467192945485735],[79.963883564982666,11.644043428737872]]]}},
{"type":"Feature","properties":{"name":"47"},"geometry":{"type":"Polygon","coordinates":[[[83.179200625535302,47.451351800013839],[68.355505106653567,42.11146729133592],[68.525531666218455,29.878695340962487],[79.544443285922029,23.410113762746825],[90.161095978171275,28.058998600227095],[93.402726593888985,39.799757231711112],[83.179200625535302,47.451351800013839]]]}},
{"type":"Feature","properties":{"name":"48"},"geometry":{"type":"Polygon","coordinates":[[[90.648228583583574,-5.467192945485634],[79.963883564982723,-11.644043428737872],[79.544443285922284,-23.410113762746917],[90.161095978171574,-28.058998600227191],[101.25,-21.437378172608909],[101.25,-10.810021881164024],[90.648228583583574,-5.467192945485634]]]}},
{"type":"Feature","properties":{"name":"49"},"geometry":{"type":"Polygon","coordinates":[[[90.161095978171275,28.058998600227095],[79.544443285922029,23.410113762746825],[79.963883564982666,11.644043428737872],[90.648228583583574,5.467192945485735],[101.25,10.810021881164213],[101.25,21.437378172609076],[90.161095978171275,28.058998600227095]]]}},
{"type":"Feature","properties":{"name":"50"},"geometry":{"type":"Polygon","coordinates":[[[93.402726593889099,39.799757231710998],[90.161095978171545,28.058998600227195],[101.25,21.437378172609062],[112.338904021828725,28.058998600227127],[109.097273406111128,39.799757231711247],[93.402726593889099,39.799757231710998]]]}},
{"type":"Feature","properties":{"name":"51"},"geometry":{"type":"Polygon","coordinates":[[[51.754907875801237,58.497531759252681],[54.507142128079046,46.84104063675202],[68.355505106653482,42.111467291335963],[83.179200625535302,47.451351800013803],[89.442430364294154,58.618601020688253],[71.668548758372509,65.867662107937662],[51.754907875801237,58.497531759252681]]]}},
{"type":"Feature","properties":{"name":"52"},"geometry":{"type":"Polygon","coordinates":[[[89.442430364294154,58.618601020688253],[83.179200625535302,47.451351800013803],[93.402726593889099,39.799757231710998],[109.097273406111128,39.799757231711247],[119.320799374464698,47.451351800013839],[113.057569635705931,58.618601020688295],[89.442430364294154,58.618601020688253]]]}},
{"type":"Feature","properties":{"name":"53"},"geometry":{"type":"Polygon","coordinates":[[[11.25,68.562621827391084],[31.090807828567556,59.995718851042746],[51.754907875801237,58.497531759252681],[71.668548758372211,65.867662107937747],[73.765598298300475,78.085905850973816],[11.25,79.189978118835796],[11.25,68.562621827391084]]]}},
{"type":"Feature","properties":{"name":"54"},"geometry":{"type":"Polygon","coordinates":[[[119.320799374464698,47.451351800013839],[109.097273406111128,39.799757231711247],[112.338904021828725,28.058998600227127],[122.955556714077858,23.410113762746906],[133.97446833378163,29.878695340962452],[134.144494893346462,42.111467291335948],[119.320799374464698,47.451351800013839]]]}},
{"type":"Feature","properties":{"name":"55"},"geometry":{"type":"Polygon","coordinates":[[[73.765598298300475,78.085905850973816],[71.668548758372509,65.867662107937662],[89.442430364294154,58.618601020688253],[113.057569635705931,58.618601020688295],[130.831451241627775,65.867662107937747],[128.734401701699255,78.085905850973816],[73.765598298300475,78.085905850973816]]]}},
{"type":"Feature","properties":{"name":"56"},"geometry":{"type":"Polygon","coordinates":[[[133.97446833378163,29.878695340962452],[122.955556714077858,23.410113762746906],[122.536116435017206,11.644043428737918],[132.089339433287734,6.116768897618379],[142.358545533394874,12.108097955048621],[144.139308305762199,23.758944785448907],[133.97446833378163,29.878695340962452]]]}},
{"type":"Feature","properties":{"name":"57"},"geometry":{"type":"Polygon","coordinates":[[[130.831451241627775,65.867662107937747],[113.057569635705931,58.618601020688295],[119.320799374464698,47.451351800013839],[134.144494893346462,42.111467291335948],[147.992857871920904,46.841040636752005],[150.745092124198862,58.497531759252695],[130.831451241627775,65.867662107937747]]]}},
{"type":"Feature","properties":{"name":"58"},"geometry":{"type":"Polygon","coordinates":[[[147.992857871920904,46.841040636752005],[134.144494893346462,42.111467291335948],[133.97446833378163,29.878695340962452],[144.139308305762199,23.758944785448907],[156.919868963227344,27.952813407938525],[160.25204620291143,38.528489141589034],[147.992857871920904,46.841040636752005]]]}},
{"type":"Feature","properties":{"name":"59"},"geometry":{"type":"Polygon","coordinates":[[[191.25,79.189978118835825],[128.734401701699255,78.085905850973816],[130.831451241627775,65.867662107937747],[150.745092124198862,58.497531759252695],[171.409192171432437,59.995718851042717],[191.25,68.562621827391084],[191.25,79.189978118835825]]]}},
{"type":"Feature","properties":{"name":"60"},"geometry":{"type":"Polygon","coordinates":[[[156.919868963227344,27.952813407938525],[144.139308305762199,23.758944785448907],[142.358545533394874,12.108097955048621],[151.18491339974463,6.021197802427015],[162.740427086367561,9.771885122035568],[166.265029747833438,19.839930894565004],[156.919868963227344,27.952813407938525]]]}},
{"type":"Feature","properties":{"name":"61"},"geometry":{"type":"Polygon","coordinates":[[[171.409192171432437,59.995718851042717],[150.745092124198862,58.497531759252695],[147.992857871920904,46.841040636752005],[160.25204620291143,38.528489141589034],[175.357103247946185,40.005481779570069],[181.943466512794032,49.560529239514906],[171.409192171432437,59.995718851042717]]]}},
{"type":"Feature","properties":{"name":"62"},"geometry":{"type":"Polygon","coordinates":[[[-128.684913399744659,6.021197802427022],[-140.240427086367504,9.771885122035442],[-147.312621827391126,-0.0],[-140.240427086367589,-9.771885122035684],[-128.684913399744431,-6.021197802427153],[-128.684913399744659,6.021197802427022]]]}},
{"type":"Feature","properties":{"name":"63"},"geometry":{"type":"Polygon","coordinates":[[[-100.455556714078,23.410113762746821],[-111.474468333781616,29.878695340962455],[-121.639308305762114,23.758944785448953],[-119.858545533394789,12.108097955048679],[-109.589339433287691,6.116768897618429],[-100.036116435017362,11.644043428737854],[-100.455556714078,23.410113762746821]]]}},
{"type":"Feature","properties":{"name":"64"},"geometry":{"type":"Polygon","coordinates":[[[-109.589339433287691,6.116768897618429],[-119.858545533394789,12.108097955048679],[-128.684913399744659,6.021197802427022],[-128.684913399744431,-6.021197802427153],[-119.858545533394789,-12.10809795504867],[-109.589339433287634,-6.116768897618454],[-109.589339433287691,6.116768897618429]]]}},
{"type":"Feature","properties":{"name":"65"},"geometry":{"type":"Polygon","coordinates":[[[-78.75,21.437378172608916],[-89.838904021828711,28.058998600227078],[-100.455556714078,23.410113762746821],[-100.03611643501722,11.644043428737918],[-89.35177141641644,5.467192945485788],[-78.75,10.810021881164193],[-78.75,21.437378172608916]]]}},
{"type":"Feature","properties":{"name":"66"},"geometry":{"type":"Polygon","coordinates":[[[-119.858545533394789,-12.10809795504867],[-128.684913399744431,-6.021197802427153],[-140.240427086367589,-9.771885122035684],[-143.765029747833353,-19.839930894564848],[-134.419868963227287,-27.952813407938439],[-121.639308305762199,-23.75894478544889],[-119.858545533394789,-12.10809795504867]]]}},
{"type":"Feature","properties":{"name":"67"},"geometry":{"type":"Polygon","coordinates":[[[-89.35177141641644,5.467192945485788],[-100.036116435017362,11.644043428737854],[-109.589339433287691,6.116768897618429],[-109.589339433287634,-6.116768897618454],[-100.036116435017234,-11.644043428737909],[-89.35177141641644,-5.467192945485719],[-89.35177141641644,5.467192945485788]]]}},
{"type":"Feature","properties":{"name":"68"},"geometry":{"type":"Polygon","coordinates":[[[-134.419868963227287,-27.952813407938439],[-143.765029747833353,-19.839930894564848],[-156.279234534750231,-20.827434436773093],[-161.6355505142526,-30.644780596601194],[-152.857103247946213,-40.005481779570175],[-137.75204620291143,-38.528489141589034],[-134.419868963227287,-27.952813407938439]]]}},
{"type":"Feature","properties":{"name":"69"},"geometry":{"type":"Polygon","coordinates":[[[-100.036116435017234,-11.644043428737909],[-109.589339433287634,-6.116768897618454],[-119.858545533394789,-12.10809795504867],[-121.639308305762199,-23.75894478544889],[-111.474468333781672,-29.878695340962398],[-100.455556714077971,-23.410113762746814],[-100.036116435017234,-11.644043428737909]]]}},
{"type":"Feature","properties":{"name":"70"},"geometry":{"type":"Polygon","coordinates":[[[-111.474468333781672,-29.878695340962398],[-121.639308305762199,-23.75894478544889],[-134.419868963227287,-27.952813407938439],[-137.75204620291143,-38.528489141589034],[-125.492857871920847,-46.841040636751998],[-111.644494893346433,-42.111467291335906],[-111.474468333781672,-29.878695340962398]]]}},
{"type":"Feature","properties":{"name":"71"},"geometry":{"type":"Polygon","coordinates":[[[-78.75,-10.810021881164182],[-89.35177141641644,-5.467192945485719],[-100.036116435017234,-11.644043428737909],[-100.455556714077971,-23.410113762746814],[-89.838904021828739,-28.058998600227078],[-78.75,-21.43737817260892],[-78.75,-10.810021881164182]]]}},
{"type":"Feature","properties":{"name":"72"},"geometry":{"type":"Polygon","coordinates":[[[-125.492857871920847,-46.841040636751998],[-137.75204620291143,-38.528489141589034],[-152.857103247946213,-40.005481779570175],[-159.443466512794032,-49.560529239514914],[-148.909192171432665,-59.995718851042732],[-128.245092124198749,-58.497531759252681],[-125.492857871920847,-46.841040636751998]]]}},
{"type":"Feature","properties":{"name":"73"},"geometry":{"type":"Polygon","coordinates":[[[-89.838904021828739,-28.058998600227078],[-100.455556714077971,-23.410113762746814],[-111.474468333781672,-29.878695340962398],[-111.644494893346433,-42.111467291335906],[-96.820799374464698,-47.451351800013796],[-86.597273406110901,-39.799757231710991],[-89.838904021828739,-28.058998600227078]]]}},
{"type":"Feature","properties":{"name":"74"},"geometry":{"type":"Polygon","coordinates":[[[-67.661095978171545,-28.058998600227195],[-78.75,-21.437378172609041],[-89.83890402182864,-28.058998600227159],[-86.597273406111114,-39.79975723171119],[-70.902726593888858,-39.799757231711183],[-67.661095978171545,-28.058998600227195]]]}},
{"type":"Feature","properties":{"name":"75"},"geometry":{"type":"Polygon","coordinates":[[[-37.64145446660536,-12.108097955048754],[-47.910660566712316,-6.11676889761841],[-57.463883564982652,-11.64404342873784],[-57.044443285922156,-23.410113762746882],[-46.025531666218384,-29.878695340962452],[-35.860691694237879,-23.758944785448943],[-37.64145446660536,-12.108097955048754]]]}},
{"type":"Feature","properties":{"name":"76"},"geometry":{"type":"Polygon","coordinates":[[[-46.025531666218384,-29.878695340962452],[-57.044443285922156,-23.410113762746882],[-67.661095978171545,-28.058998600227195],[-70.902726593888858,-39.799757231711183],[-60.679200625535294,-47.451351800013803],[-45.855505106653496,-42.111467291335956],[-46.025531666218384,-29.878695340962452]]]}},
{"type":"Feature","properties":{"name":"77"},"geometry":{"type":"Polygon","coordinates":[[[-17.259572913632454,-9.771885122035563],[-28.815086600255555,-6.021197802427176],[-37.64145446660536,-12.108097955048754],[-35.860691694237751,-23.758944785448865],[-23.080131036772727,-27.952813407938386],[-13.734970252166613,-19.839930894564848],[-17.259572913632454,-9.771885122035563]]]}},
{"type":"Feature","properties":{"name":"78"},"geometry":{"type":"Polygon","coordinates":[[[-60.679200625535294,-47.451351800013803],[-70.902726593888858,-39.799757231711183],[-86.597273406111114,-39.79975723171119],[-96.820799374464684,-47.451351800013818],[-90.557569635705846,-58.618601020688246],[-66.94243036429414,-58.618601020688246],[-60.679200625535294,-47.451351800013803]]]}},
{"type":"Feature","properties":{"name":"79"},"geometry":{"type":"Polygon","coordinates":[[[-23.080131036772727,-27.952813407938386],[-35.860691694237879,-23.758944785448943],[-46.025531666218384,-29.878695340962452],[-45.855505106653496,-42.111467291335956],[-32.007142128078939,-46.841040636752034],[-19.747953797088588,-38.528489141589041],[-23.080131036772727,-27.952813407938386]]]}},
{"type":"Feature","properties":{"name":"80"},"geometry":{"type":"Polygon","coordinates":[[[-90.557569635705846,-58.618601020688246],[-96.820799374464684,-47.451351800013818],[-111.644494893346447,-42.111467291335906],[-125.492857871920904,-46.841040636751984],[-128.245092124199232,-58.497531759252759],[-108.331451241627647,-65.867662107937718],[-90.557569635705846,-58.618601020688246]]]}},
{"type":"Feature","properties":{"name":"81"},"geometry":{"type":"Polygon","coordinates":[[[-32.007142128078939,-46.841040636752034],[-45.855505106653496,-42.111467291335956],[-60.679200625535294,-47.451351800013803],[-66.94243036429414,-58.618601020688246],[-49.168548758372459,-65.867662107937676],[-29.254907875801216,-58.497531759252681],[-32.007142128078939,-46.841040636752034]]]}},
{"type":"Feature","properties":{"name":"82"},"geometry":{"type":"Polygon","coordinates":[[[-49.168548758372459,-65.867662107937676],[-66.94243036429414,-58.618601020688246],[-90.557569635705846,-58.618601020688246],[-108.331451241627647,-65.867662107937718],[-106.234401701698971,-78.085905850973859],[-51.265598298300731,-78.08590585097383],[-49.168548758372459,-65.867662107937676]]]}},
{"type":"Feature","properties":{"name":"83"},"geometry":{"type":"Polygon","coordinates":[[[-4.642896752053826,-40.005481779570054],[-19.747953797088588,-38.528489141589041],[-32.007142128078939,-46.841040636752034],[-29.254907875801216,-58.497531759252681],[-8.590807828567595,-59.995718851042717],[1.943466512793907,-49.5605292395148],[-4.642896752053826,-40.005481779570054]]]}},
{"type":"Feature","properties":{"name":"84"},"geometry":{"type":"Polygon","coordinates":[[[-106.234401701698971,-78.085905850973859],[-108.331451241627647,-65.867662107937718],[-128.245092124199232,-58.497531759252759],[-148.90919217143292,-59.995718851042717],[-168.75,-68.562621827391084],[-168.75,-79.189978118835967],[-106.234401701698971,-78.085905850973859]]]}},
{"type":"Feature","properties":{"name":"85"},"geometry":{"type":"Polygon","coordinates":[[[-8.590807828567595,-59.995718851042717],[-29.254907875801216,-58.497531759252681],[-49.168548758372459,-65.867662107937676],[-51.265598298300731,-78.08590585097383],[11.25,-79.189978118835796],[11.25,-68.562621827390956],[-8.590807828567595,-59.995718851042717]]]}},
{"type":"Feature","properties":{"name":"86"},"geometry":{"type":"Polygon","coordinates":[[[20.556533487205993,-49.560529239514906],[1.943466512793996,-49.560529239514914],[-8.59080782856738,-59.995718851042746],[11.25,-68.562621827391197],[31.090807828567645,-59.995718851042696],[20.556533487205993,-49.560529239514906]]]}},
{"type":"Feature","properties":{"name":"87"},"geometry":{"type":"Polygon","coordinates":[[[36.234970252166569,-19.839930894564986],[23.720765465249784,-20.827434436773093],[18.36444948574746,-30.644780596601162],[27.142896752053833,-40.005481779570061],[42.247953797088584,-38.528489141589034],[45.580131036772684,-27.952813407938521],[36.234970252166569,-19.839930894564986]]]}},
{"type":"Feature","properties":{"name":"88"},"geometry":{"type":"Polygon","coordinates":[[[42.247953797088584,-38.528489141589034],[27.142896752053833,-40.005481779570061],[20.556533487205993,-49.560529239514906],[31.090807828567645,-59.995718851042696],[51.754907875800988,-58.497531759252723],[54.507142128079131,-46.841040636751984],[42.247953797088584,-38.528489141589034]]]}},
{"type":"Feature","properties":{"name":"89"},"geometry":{"type":"Polygon","coordinates":[[[51.315086600255476,-6.021197802427085],[39.759572913632447,-9.771885122035682],[36.234970252166569,-19.839930894564986],[45.580131036772734,-27.952813407938379],[58.360691694237751,-23.758944785448865],[60.141454466605232,-12.10809795504867],[51.315086600255476,-6.021197802427085]]]}},
{"type":"Feature","properties":{"name":"90"},"geometry":{"type":"Polygon","coordinates":[[[51.754907875800988,-58.497531759252723],[31.090807828567645,-59.995718851042696],[11.25,-68.562621827391197],[11.25,-79.189978118835825],[73.765598298300759,-78.085905850973816],[71.668548758372381,-65.867662107937704],[51.754907875800988,-58.497531759252723]]]}},
{"type":"Feature","properties":{"name":"91"},"geometry":{"type":"Polygon","coordinates":[[[58.360691694237751,-23.758944785448865],[45.580131036772684,-27.952813407938521],[42.247953797088584,-38.528489141589034],[54.507142128079131,-46.841040636751984],[68.355505106653652,-42.111467291335885],[68.525531666218384,-29.878695340962452],[58.360691694237751,-23.758944785448865]]]}},
{"type":"Feature","properties":{"name":"92"},"geometry":{"type":"Polygon","coordinates":[[[73.765598298300759,-78.085905850973816],[11.25,-79.189978118835825],[308.734401701699198,-78.085905850973816],[253.765598298300944,-78.08590585097383],[191.25,-79.189978118835697],[128.734401701699227,-78.08590585097383],[73.765598298300759,-78.085905850973816]]]}},
{"type":"Feature","properties":{"name":"93"},"geometry":{"type":"Polygon","coordinates":[[[68.355505106653652,-42.111467291335885],[54.507142128079131,-46.841040636751984],[51.754907875800988,-58.497531759252723],[71.668548758372381,-65.867662107937704],[89.442430364294097,-58.618601020688281],[83.179200625535188,-47.451351800013882],[68.355505106653652,-42.111467291335885]]]}},
{"type":"Feature","properties":{"name":"94"},"geometry":{"type":"Polygon","coordinates":[[[89.442430364294097,-58.618601020688281],[71.668548758372381,-65.867662107937704],[73.765598298300759,-78.085905850973816],[128.734401701699227,-78.08590585097383],[130.831451241627519,-65.867662107937662],[113.05756963570586,-58.618601020688246],[89.442430364294097,-58.618601020688281]]]}},
{"type":"Feature","properties":{"name":"95"},"geometry":{"type":"Polygon","coordinates":[[[79.544443285922142,-23.410113762746874],[68.525531666218384,-29.878695340962452],[68.355505106653652,-42.111467291335885],[83.179200625535188,-47.451351800013882],[93.4027265938889,-39.799757231711183],[90.161095978171417,-28.058998600227149],[79.544443285922142,-23.410113762746874]]]}},
{"type":"Feature","properties":{"name":"96"},"geometry":{"type":"Polygon","coordinates":[[[130.831451241627519,-65.867662107937662],[128.734401701699227,-78.08590585097383],[191.25,-79.189978118835697],[191.25,-68.562621827390956],[171.409192171432693,-59.995718851042717],[150.745092124198777,-58.497531759252681],[130.831451241627519,-65.867662107937662]]]}},
{"type":"Feature","properties":{"name":"97"},"geometry":{"type":"Polygon","coordinates":[[[93.4027265938889,-39.799757231711183],[83.179200625535188,-47.451351800013882],[89.442430364294097,-58.618601020688281],[113.05756963570586,-58.618601020688246],[119.320799374464698,-47.451351800013803],[109.097273406110915,-39.799757231710991],[93.4027265938889,-39.799757231711183]]]}},
{"type":"Feature","properties":{"name":"98"},"geometry":{"type":"Polygon","coordinates":[[[101.25,-21.437378172609048],[90.161095978171574,-28.058998600227191],[93.402726593889,-39.799757231711148],[109.097273406111142,-39.799757231711183],[112.338904021828739,-28.058998600227046],[101.25,-21.437378172609048]]]}},
{"type":"Feature","properties":{"name":"99"},"geometry":{"type":"Polygon","coordinates":[[[101.25,10.810021881164042],[90.64822858358356,5.467192945485742],[90.648228583583574,-5.467192945485628],[101.25,-10.810021881164198],[111.85177141641644,-5.467192945485717],[111.851771416416426,5.467192945485642],[101.25,10.810021881164042]]]}},
{"type":"Feature","properties":{"name":"100"},"geometry":{"type":"Polygon","coordinates":[[[111.85177141641644,-5.467192945485717],[101.25,-10.810021881164198],[101.25,-21.437378172609048],[112.338904021828739,-28.058998600227046],[122.955556714077858,-23.410113762746871],[122.536116435017334,-11.644043428737843],[111.85177141641644,-5.467192945485717]]]}},
{"type":"Feature","properties":{"name":"101"},"geometry":{"type":"Polygon","coordinates":[[[112.338904021828597,28.058998600227156],[101.25,21.437378172608806],[101.25,10.810021881164042],[111.85177141641644,5.467192945485799],[122.536116435017206,11.644043428737923],[122.955556714077858,23.410113762746892],[112.338904021828597,28.058998600227156]]]}},
{"type":"Feature","properties":{"name":"102"},"geometry":{"type":"Polygon","coordinates":[[[122.955556714077858,-23.410113762746871],[112.338904021828739,-28.058998600227046],[109.097273406111142,-39.799757231711183],[119.320799374464727,-47.451351800013803],[134.144494893346462,-42.111467291335906],[133.97446833378163,-29.87869534096242],[122.955556714077858,-23.410113762746871]]]}},
{"type":"Feature","properties":{"name":"103"},"geometry":{"type":"Polygon","coordinates":[[[122.536116435017206,11.644043428737923],[111.851771416416426,5.467192945485642],[111.85177141641644,-5.467192945485717],[122.536116435017334,-11.644043428737843],[132.089339433287734,-6.11676889761838],[132.089339433287677,6.116768897618425],[122.536116435017206,11.644043428737923]]]}},
{"type":"Feature","properties":{"name":"104"},"geometry":{"type":"Polygon","coordinates":[[[134.144494893346462,-42.111467291335906],[119.320799374464727,-47.451351800013803],[113.05756963570586,-58.618601020688246],[130.831451241627548,-65.867662107937704],[150.74509212419926,-58.497531759252745],[147.99285787192099,-46.841040636752005],[134.144494893346462,-42.111467291335906]]]}},
{"type":"Feature","properties":{"name":"105"},"geometry":{"type":"Polygon","coordinates":[[[132.089339433287734,-6.11676889761838],[122.536116435017334,-11.644043428737843],[122.955556714077858,-23.410113762746871],[133.97446833378163,-29.87869534096242],[144.139308305762142,-23.758944785448914],[142.358545533394704,-12.108097955048736],[132.089339433287734,-6.11676889761838]]]}},
{"type":"Feature","properties":{"name":"106"},"geometry":{"type":"Polygon","coordinates":[[[144.139308305762142,-23.758944785448914],[133.97446833378163,-29.87869534096242],[134.144494893346462,-42.111467291335906],[147.99285787192099,-46.841040636752005],[160.25204620291143,-38.528489141588949],[156.919868963227316,-27.952813407938436],[144.139308305762142,-23.758944785448914]]]}},
{"type":"Feature","properties":{"name":"107"},"geometry":{"type":"Polygon","coordinates":[[[142.358545533394761,12.108097955048688],[132.089339433287677,6.116768897618425],[132.089339433287734,-6.11676889761838],[142.358545533394704,-12.108097955048736],[151.184913399744431,-6.021197802427153],[151.184913399744516,6.02119780242709],[142.358545533394761,12.108097955048688]]]}},
{"type":"Feature","properties":{"name":"108"},"geometry":{"type":"Polygon","coordinates":[[[160.25204620291143,-38.528489141588949],[147.99285787192099,-46.841040636752005],[150.74509212419926,-58.497531759252745],[171.40919217143292,-59.995718851042717],[181.943466512793947,-49.560529239514786],[175.3571032479461,-40.005481779569912],[160.25204620291143,-38.528489141588949]]]}},
{"type":"Feature","properties":{"name":"109"},"geometry":{"type":"Polygon","coordinates":[[[151.184913399744431,-6.021197802427153],[142.358545533394704,-12.108097955048736],[144.139308305762142,-23.758944785448914],[156.919868963227316,-27.952813407938436],[166.265029747833381,-19.839930894564837],[162.740427086367504,-9.771885122035426],[151.184913399744431,-6.021197802427153]]]}},
{"type":"Feature","properties":{"name":"110"},"geometry":{"type":"Polygon","coordinates":[[[162.740427086367504,9.77188512203543],[151.18491339974463,6.021197802427015],[151.184913399744516,-6.021197802427129],[162.740427086367561,-9.771885122035693],[169.812621827391212,0.0],[162.740427086367504,9.77188512203543]]]}},
{"type":"Feature","properties":{"name":"111"},"geometry":{"type":"Polygon","coordinates":[[[175.357103247946071,40.005481779569934],[160.25204620291143,38.528489141589041],[156.919868963227316,27.952813407938535],[166.265029747833353,19.839930894564837],[178.779234534750231,20.827434436773107],[184.135550514252543,30.644780596601166],[175.357103247946071,40.005481779569934]]]}},
{"type":"Feature","properties":{"name":"112"},"geometry":{"type":"Polygon","coordinates":[[[178.779234534750231,20.827434436773107],[166.265029747833353,19.839930894564837],[162.740427086367504,9.77188512203543],[169.812621827391212,0.0],[180.439978118835796,-0.0],[185.688449680597955,10.552988882570956],[178.779234534750231,20.827434436773107]]]}},
{"type":"Feature","properties":{"name":"113"},"geometry":{"type":"Polygon","coordinates":[[[200.55653348720611,49.560529239514807],[181.943466512793805,49.560529239514693],[175.357103247946071,40.005481779569934],[184.135550514252628,30.644780596601294],[198.364449485747372,30.644780596601294],[207.142896752053844,40.005481779570061],[200.55653348720611,49.560529239514807]]]}},
{"type":"Feature","properties":{"name":"114"},"geometry":{"type":"Polygon","coordinates":[[[180.439978118835796,-0.0],[169.812621827391212,0.0],[162.740427086367561,-9.771885122035693],[166.265029747833353,-19.839930894564866],[178.779234534750231,-20.827434436773114],[185.688449680597898,-10.552988882570945],[180.439978118835796,-0.0]]]}},
{"type":"Feature","properties":{"name":"115"},"geometry":{"type":"Polygon","coordinates":[[[198.364449485747372,30.644780596601294],[184.135550514252543,30.644780596601166],[178.779234534750231,20.827434436773107],[185.688449680597955,10.552988882570956],[196.811550319402158,10.552988882570951],[203.720765465249769,20.8274344367731],[198.364449485747372,30.644780596601294]]]}},
{"type":"Feature","properties":{"name":"116"},"geometry":{"type":"Polygon","coordinates":[[[178.779234534750231,-20.827434436773114],[166.265029747833353,-19.839930894564866],[156.919868963227287,-27.952813407938439],[160.252046202911401,-38.528489141588992],[175.357103247946213,-40.005481779570175],[184.1355505142526,-30.644780596601244],[178.779234534750231,-20.827434436773114]]]}},
{"type":"Feature","properties":{"name":"117"},"geometry":{"type":"Polygon","coordinates":[[[-163.188449680597842,10.552988882570951],[-174.311550319402045,10.552988882570956],[-179.560021881164204,-0.0],[-174.311550319402102,-10.552988882570945],[-163.188449680597955,-10.552988882570945],[-157.939978118835938,-0.0],[-163.188449680597842,10.552988882570951]]]}},
{"type":"Feature","properties":{"name":"118"},"geometry":{"type":"Polygon","coordinates":[[[196.811550319402045,-10.552988882570945],[185.688449680597898,-10.552988882570945],[178.779234534750231,-20.827434436773114],[184.1355505142526,-30.644780596601244],[198.364449485747457,-30.644780596601166],[203.720765465249769,-20.827434436773093],[196.811550319402045,-10.552988882570945]]]}},
{"type":"Feature","properties":{"name":"119"},"geometry":{"type":"Polygon","coordinates":[[[-143.765029747833381,19.839930894564848],[-156.279234534750231,20.8274344367731],[-163.188449680597842,10.552988882570951],[-157.939978118835938,-0.0],[-147.31262182739124,0.0],[-140.240427086367532,9.771885122035549],[-143.765029747833381,19.839930894564848]]]}},
{"type":"Feature","properties":{"name":"120"},"geometry":{"type":"Polygon","coordinates":[[[198.364449485747457,-30.644780596601166],[184.1355505142526,-30.644780596601244],[175.357103247946213,-40.005481779570175],[181.943466512794004,-49.560529239514914],[200.556533487206138,-49.5605292395148],[207.142896752053929,-40.005481779569912],[198.364449485747457,-30.644780596601166]]]}},
{"type":"Feature","properties":{"name":"121"},"geometry":{"type":"Polygon","coordinates":[[[-147.31262182739124,0.0],[-157.939978118835938,-0.0],[-163.188449680597955,-10.552988882570945],[-156.279234534750231,-20.827434436773093],[-143.765029747833381,-19.839930894564823],[-140.240427086367504,-9.771885122035425],[-147.31262182739124,0.0]]]}},
{"type":"Feature","properties":{"name":"122"},"geometry":{"type":"Polygon","coordinates":[[[191.25,-68.562621827391126],[211.09080782856708,-59.995718851042717],[200.556533487205968,-49.560529239514899],[181.943466512793748,-49.5605292395147],[171.409192171432608,-59.995718851042732],[191.25,-68.562621827391126]]]}}
]
}
