{
"type": "FeatureCollection",
"name": "points.geojson",
"features": [
{"type":"Feature","properties":{"name":"1"},"geometry":{"type":"Point","coordinates":[11.25,58.282525588539009]}},
{"type":"Feature","properties":{"name":"2"},"geometry":{"type":"Point","coordinates":[191.25,58.282525588538995]}},
{"type":"Feature","properties":{"name":"3"},"geometry":{"type":"Point","coordinates":[0.0,90.0]}},
{"type":"Feature","properties":{"name":"4"},"geometry":{"type":"Point","coordinates":[-133.894062939495484,70.500497309865196]}},
{"type":"Feature","properties":{"name":"5"},"geometry":{"type":"Point","coordinates":[-23.605937060504459,70.500497309865224]}},
{"type":"Feature","properties":{"name":"6"},"geometry":{"type":"Point","coordinates":[-140.833847384232257,48.752923259643161]}},
{"type":"Feature","properties":{"name":"7"},"geometry":{"type":"Point","coordinates":[-78.75,69.094842552110691]}},
{"type":"Feature","properties":{"name":"8"},"geometry":{"type":"Point","coordinates":[-147.84484255211072,30.0]}},
{"type":"Feature","properties":{"name":"9"},"geometry":{"type":"Point","coordinates":[-110.467474411460998,54.0]}},
{"type":"Feature","properties":{"name":"10"},"geometry":{"type":"Point","coordinates":[-123.75,35.264389682754661]}},
{"type":"Feature","properties":{"name":"11"},"geometry":{"type":"Point","coordinates":[-78.75,50.656328342029774]}},
{"type":"Feature","properties":{"name":"12"},"geometry":{"type":"Point","coordinates":[-130.979822066866575,17.979329774477058]}},
{"type":"Feature","properties":{"name":"13"},"geometry":{"type":"Point","coordinates":[-101.070094598850574,35.632653542284835]}},
{"type":"Feature","properties":{"name":"14"},"geometry":{"type":"Point","coordinates":[-78.75,31.717474411461023]}},
{"type":"Feature","properties":{"name":"15"},"geometry":{"type":"Point","coordinates":[-47.032525588538974,54.0]}},
{"type":"Feature","properties":{"name":"16"},"geometry":{"type":"Point","coordinates":[-56.429905401149426,35.632653542284821]}},
{"type":"Feature","properties":{"name":"17"},"geometry":{"type":"Point","coordinates":[-16.666152615767743,48.752923259643161]}},
{"type":"Feature","properties":{"name":"18"},"geometry":{"type":"Point","coordinates":[-67.309092025612202,15.897211004144737]}},
{"type":"Feature","properties":{"name":"19"},"geometry":{"type":"Point","coordinates":[-33.75,35.264389682754661]}},
{"type":"Feature","properties":{"name":"20"},"geometry":{"type":"Point","coordinates":[-78.75,0.0]}},
{"type":"Feature","properties":{"name":"21"},"geometry":{"type":"Point","coordinates":[-47.032525588538981,18.0]}},
{"type":"Feature","properties":{"name":"22"},"geometry":{"type":"Point","coordinates":[-57.844842552110705,0.0]}},
{"type":"Feature","properties":{"name":"23"},"geometry":{"type":"Point","coordinates":[-26.520177933133414,17.979329774477062]}},
{"type":"Feature","properties":{"name":"24"},"geometry":{"type":"Point","coordinates":[-67.309092025612216,-15.897211004144724]}},
{"type":"Feature","properties":{"name":"25"},"geometry":{"type":"Point","coordinates":[-39.406328342029781,0.0]}},
{"type":"Feature","properties":{"name":"26"},"geometry":{"type":"Point","coordinates":[-20.467474411461016,-0.0]}},
{"type":"Feature","properties":{"name":"27"},"geometry":{"type":"Point","coordinates":[-9.655157447889302,30.0]}},
{"type":"Feature","properties":{"name":"28"},"geometry":{"type":"Point","coordinates":[-4.952740424294043,10.997778887404815]}},
{"type":"Feature","properties":{"name":"29"},"geometry":{"type":"Point","coordinates":[11.25,39.343671657970219]}},
{"type":"Feature","properties":{"name":"30"},"geometry":{"type":"Point","coordinates":[-4.952740424294046,-10.997778887404825]}},
{"type":"Feature","properties":{"name":"31"},"geometry":{"type":"Point","coordinates":[11.25,20.905157447889298]}},
{"type":"Feature","properties":{"name":"32"},"geometry":{"type":"Point","coordinates":[-9.655157447889296,-30.0]}},
{"type":"Feature","properties":{"name":"33"},"geometry":{"type":"Point","coordinates":[11.25,0.0]}},
{"type":"Feature","properties":{"name":"34"},"geometry":{"type":"Point","coordinates":[11.25,-20.905157447889298]}},
{"type":"Feature","properties":{"name":"35"},"geometry":{"type":"Point","coordinates":[27.452740424294046,10.997778887404817]}},
{"type":"Feature","properties":{"name":"36"},"geometry":{"type":"Point","coordinates":[11.25,-39.343671657970219]}},
{"type":"Feature","properties":{"name":"37"},"geometry":{"type":"Point","coordinates":[27.452740424294038,-10.997778887404806]}},
{"type":"Feature","properties":{"name":"38"},"geometry":{"type":"Point","coordinates":[42.967474411461005,0.0]}},
{"type":"Feature","properties":{"name":"39"},"geometry":{"type":"Point","coordinates":[32.155157447889295,30.0]}},
{"type":"Feature","properties":{"name":"40"},"geometry":{"type":"Point","coordinates":[49.020177933133432,17.979329774477058]}},
{"type":"Feature","properties":{"name":"41"},"geometry":{"type":"Point","coordinates":[39.16615261576775,48.752923259643161]}},
{"type":"Feature","properties":{"name":"42"},"geometry":{"type":"Point","coordinates":[61.906328342029788,0.0]}},
{"type":"Feature","properties":{"name":"43"},"geometry":{"type":"Point","coordinates":[56.25,35.264389682754661]}},
{"type":"Feature","properties":{"name":"44"},"geometry":{"type":"Point","coordinates":[69.532525588539002,-18.0]}},
{"type":"Feature","properties":{"name":"45"},"geometry":{"type":"Point","coordinates":[69.532525588539002,18.0]}},
{"type":"Feature","properties":{"name":"46"},"geometry":{"type":"Point","coordinates":[80.344842552110705,0.0]}},
{"type":"Feature","properties":{"name":"47"},"geometry":{"type":"Point","coordinates":[78.929905401149441,35.632653542284835]}},
{"type":"Feature","properties":{"name":"48"},"geometry":{"type":"Point","coordinates":[89.809092025612202,-15.897211004144733]}},
{"type":"Feature","properties":{"name":"49"},"geometry":{"type":"Point","coordinates":[89.809092025612202,15.897211004144749]}},
{"type":"Feature","properties":{"name":"50"},"geometry":{"type":"Point","coordinates":[101.25,31.717474411461009]}},
{"type":"Feature","properties":{"name":"51"},"geometry":{"type":"Point","coordinates":[69.532525588538959,54.0]}},
{"type":"Feature","properties":{"name":"52"},"geometry":{"type":"Point","coordinates":[101.25,50.656328342029781]}},
{"type":"Feature","properties":{"name":"53"},"geometry":{"type":"Point","coordinates":[46.105937060504459,70.500497309865224]}},
{"type":"Feature","properties":{"name":"54"},"geometry":{"type":"Point","coordinates":[123.570094598850574,35.632653542284821]}},
{"type":"Feature","properties":{"name":"55"},"geometry":{"type":"Point","coordinates":[101.25,69.094842552110691]}},
{"type":"Feature","properties":{"name":"56"},"geometry":{"type":"Point","coordinates":[132.967474411460984,18.0]}},
{"type":"Feature","properties":{"name":"57"},"geometry":{"type":"Point","coordinates":[132.967474411461012,54.0]}},
{"type":"Feature","properties":{"name":"58"},"geometry":{"type":"Point","coordinates":[146.25,35.264389682754661]}},
{"type":"Feature","properties":{"name":"59"},"geometry":{"type":"Point","coordinates":[156.394062939495512,70.500497309865196]}},
{"type":"Feature","properties":{"name":"60"},"geometry":{"type":"Point","coordinates":[153.479822066866575,17.979329774477055]}},
{"type":"Feature","properties":{"name":"61"},"geometry":{"type":"Point","coordinates":[163.333847384232257,48.752923259643175]}},
{"type":"Feature","properties":{"name":"62"},"geometry":{"type":"Point","coordinates":[-137.032525588539016,0.0]}},
{"type":"Feature","properties":{"name":"63"},"geometry":{"type":"Point","coordinates":[-110.467474411460998,18.0]}},
{"type":"Feature","properties":{"name":"64"},"geometry":{"type":"Point","coordinates":[-118.093671657970219,0.0]}},
{"type":"Feature","properties":{"name":"65"},"geometry":{"type":"Point","coordinates":[-90.190907974387798,15.897211004144737]}},
{"type":"Feature","properties":{"name":"66"},"geometry":{"type":"Point","coordinates":[-130.979822066866575,-17.979329774477058]}},
{"type":"Feature","properties":{"name":"67"},"geometry":{"type":"Point","coordinates":[-99.655157447889309,0.0]}},
{"type":"Feature","properties":{"name":"68"},"geometry":{"type":"Point","coordinates":[-147.84484255211072,-30.0]}},
{"type":"Feature","properties":{"name":"69"},"geometry":{"type":"Point","coordinates":[-110.467474411460998,-18.0]}},
{"type":"Feature","properties":{"name":"70"},"geometry":{"type":"Point","coordinates":[-123.75,-35.264389682754654]}},
{"type":"Feature","properties":{"name":"71"},"geometry":{"type":"Point","coordinates":[-90.190907974387798,-15.897211004144729]}},
{"type":"Feature","properties":{"name":"72"},"geometry":{"type":"Point","coordinates":[-140.833847384232257,-48.752923259643161]}},
{"type":"Feature","properties":{"name":"73"},"geometry":{"type":"Point","coordinates":[-101.070094598850574,-35.632653542284807]}},
{"type":"Feature","properties":{"name":"74"},"geometry":{"type":"Point","coordinates":[-78.75,-31.717474411460998]}},
{"type":"Feature","properties":{"name":"75"},"geometry":{"type":"Point","coordinates":[-47.032525588538995,-18.0]}},
{"type":"Feature","properties":{"name":"76"},"geometry":{"type":"Point","coordinates":[-56.429905401149441,-35.632653542284821]}},
{"type":"Feature","properties":{"name":"77"},"geometry":{"type":"Point","coordinates":[-26.520177933133422,-17.979329774477062]}},
{"type":"Feature","properties":{"name":"78"},"geometry":{"type":"Point","coordinates":[-78.75,-50.656328342029781]}},
{"type":"Feature","properties":{"name":"79"},"geometry":{"type":"Point","coordinates":[-33.75,-35.264389682754661]}},
{"type":"Feature","properties":{"name":"80"},"geometry":{"type":"Point","coordinates":[-110.467474411460984,-54.0]}},
{"type":"Feature","properties":{"name":"81"},"geometry":{"type":"Point","coordinates":[-47.032525588538981,-54.0]}},
{"type":"Feature","properties":{"name":"82"},"geometry":{"type":"Point","coordinates":[-78.75,-69.094842552110691]}},
{"type":"Feature","properties":{"name":"83"},"geometry":{"type":"Point","coordinates":[-16.66615261576775,-48.752923259643161]}},
{"type":"Feature","properties":{"name":"84"},"geometry":{"type":"Point","coordinates":[-133.894062939495541,-70.500497309865196]}},
{"type":"Feature","properties":{"name":"85"},"geometry":{"type":"Point","coordinates":[-23.605937060504498,-70.500497309865196]}},
{"type":"Feature","properties":{"name":"86"},"geometry":{"type":"Point","coordinates":[11.25,-58.282525588538995]}},
{"type":"Feature","properties":{"name":"87"},"geometry":{"type":"Point","coordinates":[32.155157447889309,-30.0]}},
{"type":"Feature","properties":{"name":"88"},"geometry":{"type":"Point","coordinates":[39.166152615767757,-48.752923259643161]}},
{"type":"Feature","properties":{"name":"89"},"geometry":{"type":"Point","coordinates":[49.020177933133432,-17.979329774477055]}},
{"type":"Feature","properties":{"name":"90"},"geometry":{"type":"Point","coordinates":[46.105937060504495,-70.500497309865196]}},
{"type":"Feature","properties":{"name":"91"},"geometry":{"type":"Point","coordinates":[56.25,-35.264389682754661]}},
{"type":"Feature","properties":{"name":"92"},"geometry":{"type":"Point","coordinates":[0.0,-90.0]}},
{"type":"Feature","properties":{"name":"93"},"geometry":{"type":"Point","coordinates":[69.532525588539031,-54.0]}},
{"type":"Feature","properties":{"name":"94"},"geometry":{"type":"Point","coordinates":[101.25,-69.094842552110691]}},
{"type":"Feature","properties":{"name":"95"},"geometry":{"type":"Point","coordinates":[78.929905401149441,-35.632653542284821]}},
{"type":"Feature","properties":{"name":"96"},"geometry":{"type":"Point","coordinates":[156.394062939495541,-70.500497309865224]}},
{"type":"Feature","properties":{"name":"97"},"geometry":{"type":"Point","coordinates":[101.25,-50.656328342029774]}},
{"type":"Feature","properties":{"name":"98"},"geometry":{"type":"Point","coordinates":[101.25,-31.717474411461005]}},
{"type":"Feature","properties":{"name":"99"},"geometry":{"type":"Point","coordinates":[101.25,0.0]}},
{"type":"Feature","properties":{"name":"100"},"geometry":{"type":"Point","coordinates":[112.690907974387798,-15.897211004144724]}},
{"type":"Feature","properties":{"name":"101"},"geometry":{"type":"Point","coordinates":[112.690907974387798,15.897211004144745]}},
{"type":"Feature","properties":{"name":"102"},"geometry":{"type":"Point","coordinates":[123.570094598850574,-35.632653542284814]}},
{"type":"Feature","properties":{"name":"103"},"geometry":{"type":"Point","coordinates":[122.155157447889295,0.0]}},
{"type":"Feature","properties":{"name":"104"},"geometry":{"type":"Point","coordinates":[132.967474411461012,-54.0]}},
{"type":"Feature","properties":{"name":"105"},"geometry":{"type":"Point","coordinates":[132.967474411461012,-18.0]}},
{"type":"Feature","properties":{"name":"106"},"geometry":{"type":"Point","coordinates":[146.25,-35.264389682754654]}},
{"type":"Feature","properties":{"name":"107"},"geometry":{"type":"Point","coordinates":[140.593671657970219,0.0]}},
{"type":"Feature","properties":{"name":"108"},"geometry":{"type":"Point","coordinates":[163.333847384232257,-48.752923259643175]}},
{"type":"Feature","properties":{"name":"109"},"geometry":{"type":"Point","coordinates":[153.479822066866575,-17.979329774477044]}},
{"type":"Feature","properties":{"name":"110"},"geometry":{"type":"Point","coordinates":[159.532525588538988,-0.0]}},
{"type":"Feature","properties":{"name":"111"},"geometry":{"type":"Point","coordinates":[170.344842552110691,30.0]}},
{"type":"Feature","properties":{"name":"112"},"geometry":{"type":"Point","coordinates":[175.047259575705937,10.997778887404809]}},
{"type":"Feature","properties":{"name":"113"},"geometry":{"type":"Point","coordinates":[191.25,39.343671657970219]}},
{"type":"Feature","properties":{"name":"114"},"geometry":{"type":"Point","coordinates":[175.047259575705937,-10.997778887404825]}},
{"type":"Feature","properties":{"name":"115"},"geometry":{"type":"Point","coordinates":[191.25,20.905157447889295]}},
{"type":"Feature","properties":{"name":"116"},"geometry":{"type":"Point","coordinates":[170.34484255211072,-30.0]}},
{"type":"Feature","properties":{"name":"117"},"geometry":{"type":"Point","coordinates":[-168.75,0.0]}},
{"type":"Feature","properties":{"name":"118"},"geometry":{"type":"Point","coordinates":[191.25,-20.905157447889298]}},
{"type":"Feature","properties":{"name":"119"},"geometry":{"type":"Point","coordinates":[-152.547259575705965,10.997778887404806]}},
{"type":"Feature","properties":{"name":"120"},"geometry":{"type":"Point","coordinates":[191.25,-39.343671657970219]}},
{"type":"Feature","properties":{"name":"121"},"geometry":{"type":"Point","coordinates":[-152.547259575705965,-10.997778887404793]}},
{"type":"Feature","properties":{"name":"122"},"geometry":{"type":"Point","coordinates":[191.25,-58.282525588538995]}}
]
}
