<?xml version="1.0" encoding="UTF-8"?>
<kml xmlns="http://earth.google.com/kml/2.1">
<Folder>
   <name>Dymaxion Spherical Icosahedron</name>
   <description>www.discreteglobalgrids.org</description>
   <Style id="lineStyle1">
      <LineStyle id="lineStyle2">
         <color>ffff0000</color>
         <width>6</width>
      </LineStyle>
   </Style>
   <Placemark>
      <name>1</name>
      <Point>
         <coordinates>
            -77.2070594,60.4327918
         </coordinates>
      </Point>
   </Placemark>
   <Placemark>
      <name>2</name>
      <Point>
         <coordinates>
            -25.8177047,34.3884440
         </coordinates>
      </Point>
   </Placemark>
   <Placemark>
      <name>3</name>
      <Point>
         <coordinates>
            -83.8492661,-9.8975817
         </coordinates>
      </Point>
   </Placemark>
   <Placemark>
      <name>4</name>
      <Point>
         <coordinates>
            -42.0224156,-4.5301571
         </coordinates>
      </Point>
   </Placemark>
   <Placemark>
      <name>5</name>
      <Point>
         <coordinates>
            -34.6437468,-74.9284363
         </coordinates>
      </Point>
   </Placemark>
   <Placemark>
      <name>6</name>
      <Point>
         <coordinates>
            -10.7526579,-34.7171933
         </coordinates>
      </Point>
   </Placemark>
   <Placemark>
      <name>7</name>
      <Point>
         <coordinates>
            71.7753660,-24.4865235
         </coordinates>
      </Point>
   </Placemark>
   <Placemark>
      <name>8</name>
      <Point>
         <coordinates>
            29.0200601,-13.2331255
         </coordinates>
      </Point>
   </Placemark>
   <Placemark>
      <name>9</name>
      <Point>
         <coordinates>
            71.5279022,46.0418978
         </coordinates>
      </Point>
   </Placemark>
   <Placemark>
      <name>10</name>
      <Point>
         <coordinates>
            23.0322256,28.1732204
         </coordinates>
      </Point>
   </Placemark>
   <Placemark>
      <name>11</name>
      <Point>
         <coordinates>
            -150.9799399,13.2331255
         </coordinates>
      </Point>
   </Placemark>
   <Placemark>
      <name>12</name>
      <Point>
         <coordinates>
            -108.2246340,24.4865235
         </coordinates>
      </Point>
   </Placemark>
   <Placemark>
      <name>13</name>
      <Point>
         <coordinates>
            -156.9677744,-28.1732204
         </coordinates>
      </Point>
   </Placemark>
   <Placemark>
      <name>14</name>
      <Point>
         <coordinates>
            -108.4720978,-46.0418978
         </coordinates>
      </Point>
   </Placemark>
   <Placemark>
      <name>15</name>
      <Point>
         <coordinates>
            154.1822953,-34.3884440
         </coordinates>
      </Point>
   </Placemark>
   <Placemark>
      <name>16</name>
      <Point>
         <coordinates>
            102.7929406,-60.4327918
         </coordinates>
      </Point>
   </Placemark>
   <Placemark>
      <name>17</name>
      <Point>
         <coordinates>
            137.9775844,4.5301571
         </coordinates>
      </Point>
   </Placemark>
   <Placemark>
      <name>18</name>
      <Point>
         <coordinates>
            96.1507339,9.8975817
         </coordinates>
      </Point>
   </Placemark>
   <Placemark>
      <name>19</name>
      <Point>
         <coordinates>
            169.2473421,34.7171933
         </coordinates>
      </Point>
   </Placemark>
   <Placemark>
      <name>20</name>
      <Point>
         <coordinates>
            145.3562532,74.9284363
         </coordinates>
      </Point>
   </Placemark>
</Folder>
</kml>
