{
"type": "FeatureCollection",
"name": "airportCells.geojson",
"features": [
{"type":"Feature","properties":{"name":"30949","numAirports":1},"geometry":{"type":"Polygon","coordinates":[[[-123.396157373507478,46.285994884756704],[-123.531817699405764,46.413160805711478],[-123.761989331147277,46.379604183268327],[-123.855370169285862,46.219017371929894],[-123.719450144112102,46.092445062057102],[-123.490402288297375,46.12586367812743],[-123.396157373507478,46.285994884756704]]]}},
{"type":"Feature","properties":{"name":"31436","numAirports":3},"geometry":{"type":"Polygon","coordinates":[[[-122.992777656143289,45.903117323766878],[-123.126640304506537,46.030974399083817],[-123.355505846297532,45.998648672279941],[-123.449391628778784,45.838609031904731],[-123.315247234754139,45.711342656489094],[-123.087492368624083,45.743522695714233],[-122.992777656143289,45.903117323766878]]]}},
{"type":"Feature","properties":{"name":"31678","numAirports":1},"geometry":{"type":"Polygon","coordinates":[[[-123.275373285332492,45.424074007197596],[-123.408777168718387,45.551394220581507],[-123.635622905104299,45.518256732474633],[-123.727979140668211,45.357939836108926],[-123.59431730937871,45.23122260407375],[-123.368550598295869,45.26421648119323],[-123.275373285332492,45.424074007197596]]]}},
{"type":"Feature","properties":{"name":"31679","numAirports":7},"geometry":{"type":"Polygon","coordinates":[[[-122.954369842645477,45.615608912238834],[-123.087492368624083,45.743522695714233],[-123.315247234754139,45.711342656489094],[-123.408777168718387,45.551394220581507],[-123.275373285332378,45.424074007197582],[-123.04871444037164,45.456105954683714],[-122.954369842645477,45.615608912238834]]]}},
{"type":"Feature","properties":{"name":"31680","numAirports":2},"geometry":{"type":"Polygon","coordinates":[[[-122.631306317166931,45.805864041993459],[-122.7641248367175,45.934362306524065],[-122.992777656143289,45.903117323766878],[-123.087492368624083,45.743522695714233],[-122.954369842645477,45.615608912238834],[-122.726830403420095,45.646702673969799],[-122.631306317166931,45.805864041993459]]]}},
{"type":"Feature","properties":{"name":"31919","numAirports":1},"geometry":{"type":"Polygon","coordinates":[[[-123.86890612909248,44.750243476569899],[-124.002071640768577,44.876396270976294],[-124.226008960415811,44.84139466009831],[-124.315740976809622,44.680368192787022],[-124.182367765805054,44.554843266296757],[-123.959463102921205,44.589713718141596],[-123.86890612909248,44.750243476569899]]]}},
{"type":"Feature","properties":{"name":"31921","numAirports":4},"geometry":{"type":"Polygon","coordinates":[[[-123.235875985258104,45.136839758568335],[-123.368550598295869,45.26421648119323],[-123.59431730937871,45.23122260407375],[-123.686338050151235,45.070994999256683],[-123.553405766829087,44.944225048649578],[-123.328703845994852,44.977072918808027],[-123.235875985258104,45.136839758568335]]]}},
{"type":"Feature","properties":{"name":"31922","numAirports":8},"geometry":{"type":"Polygon","coordinates":[[[-122.916320981768934,45.328132491472772],[-123.04871444037164,45.456105954683714],[-123.275373285332378,45.424074007197582],[-123.368550598295869,45.26421648119323],[-123.235875985258104,45.136839758568335],[-123.010298876704013,45.168720923253453],[-122.916320981768934,45.328132491472772]]]}},
{"type":"Feature","properties":{"name":"31923","numAirports":4},"geometry":{"type":"Polygon","coordinates":[[[-122.594740745478504,45.51814213609623],[-122.726830403420095,45.646702673969799],[-122.954369842645477,45.615608912238834],[-123.04871444037164,45.456105954683714],[-122.916320981768934,45.328132491472772],[-122.689880586808783,45.359072128974937],[-122.594740745478504,45.51814213609623]]]}},
{"type":"Feature","properties":{"name":"32162","numAirports":1},"geometry":{"type":"Polygon","coordinates":[[[-123.827016306706454,44.463510558580161],[-123.959463102921205,44.589713718141596],[-124.182367765805054,44.554843266296757],[-124.271799608462445,44.393899062079051],[-124.139145710975384,44.26832942184037],[-123.917259896526048,44.30306699280235],[-123.827016306706454,44.463510558580161]]]}},
{"type":"Feature","properties":{"name":"32163","numAirports":1},"geometry":{"type":"Polygon","coordinates":[[[-123.512880097960689,44.657261328212527],[-123.645093957357119,44.784086524857962],[-123.86890612909248,44.750243476569899],[-123.959463102921205,44.589713718141596],[-123.827016306706454,44.463510558580161],[-123.604238633855559,44.497211761028829],[-123.512880097960689,44.657261328212527]]]}},
{"type":"Feature","properties":{"name":"32164","numAirports":2},"geometry":{"type":"Polygon","coordinates":[[[-123.196747559919203,44.849636790807992],[-123.328703845994852,44.977072918808027],[-123.553405766829087,44.944225048649578],[-123.645093957357119,44.784086524857962],[-123.512880097960689,44.657261328212527],[-123.289229075650553,44.689960488402207],[-123.196747559919203,44.849636790807992]]]}},
{"type":"Feature","properties":{"name":"32165","numAirports":6},"geometry":{"type":"Polygon","coordinates":[[[-122.878623745585358,45.040684567210434],[-123.010298876704013,45.168720923253453],[-123.235875985258104,45.136839758568335],[-123.328703845994852,44.977072918808027],[-123.196747559919174,44.849636790807992],[-122.972238277275011,44.881364167593603],[-122.878623745585358,45.040684567210434]]]}},
{"type":"Feature","properties":{"name":"32166","numAirports":5},"geometry":{"type":"Polygon","coordinates":[[[-122.558509270441007,45.230445833749386],[-122.689880586808783,45.359072128974937],[-122.916320981768934,45.328132491472772],[-123.010298876704013,45.168720923253453],[-122.878623745585358,45.040684567210434],[-122.653268462587093,45.071466863609309],[-122.558509270441007,45.230445833749386]]]}},
{"type":"Feature","properties":{"name":"32167","numAirports":10},"geometry":{"type":"Polygon","coordinates":[[[-122.236401107169655,45.418956160096165],[-122.367446749162511,45.548162522010387],[-122.594740745478504,45.51814213609623],[-122.689880586808783,45.359072128974937],[-122.558509270441007,45.230445833749386],[-122.332317901849052,45.260306631970224],[-122.236401107169655,45.418956160096165]]]}},
{"type":"Feature","properties":{"name":"32168","numAirports":3},"geometry":{"type":"Polygon","coordinates":[[[-121.912293230197264,45.606246218018981],[-122.042992027755361,45.736023185107292],[-122.271131789001259,45.706902341893496],[-122.367446749162482,45.548162522010387],[-122.236401107169655,45.418956160096165],[-122.009381620977493,45.447916293052295],[-121.912293230197264,45.606246218018981]]]}},
{"type":"Feature","properties":{"name":"32407","numAirports":6},"geometry":{"type":"Polygon","coordinates":[[[-123.15798047155431,44.562461808697059],[-123.289229075650553,44.689960488402207],[-123.512880097960689,44.657261328212527],[-123.604238633855559,44.497211761028829],[-123.472732352664863,44.370328564754949],[-123.250118684737672,44.402875973537327],[-123.15798047155431,44.562461808697059]]]}},
{"type":"Feature","properties":{"name":"32408","numAirports":13},"geometry":{"type":"Polygon","coordinates":[[[-122.841271052852932,44.753261437412093],[-122.972238277275011,44.881364167593603],[-123.196747559919174,44.849636790807992],[-123.289229075650553,44.689960488402207],[-123.157980471554225,44.562461808697044],[-122.934525485483363,44.594032047665678],[-122.841271052852932,44.753261437412093]]]}},
{"type":"Feature","properties":{"name":"32409","numAirports":7},"geometry":{"type":"Polygon","coordinates":[[[-122.522605307355562,44.942771045935203],[-122.653268462587093,45.071466863609309],[-122.878623745585358,45.040684567210434],[-122.972238277275011,44.881364167593603],[-122.841271052852932,44.753261437412093],[-122.6169873622176,44.783882832739771],[-122.522605307355562,44.942771045935203]]]}},
{"type":"Feature","properties":{"name":"32411","numAirports":1},"geometry":{"type":"Polygon","coordinates":[[[-121.879391281741377,45.318065318502434],[-122.009381620977493,45.447916293052295],[-122.236401107169655,45.418956160096165],[-122.332317901849052,45.260306631970231],[-122.201980627099488,45.13102822004474],[-121.976067869001184,45.159823874170677],[-121.879391281741377,45.318065318502434]]]}},
{"type":"Feature","properties":{"name":"32413","numAirports":2},"geometry":{"type":"Polygon","coordinates":[[[-121.228283338971778,45.688586456345526],[-121.357519129117563,45.819554235808056],[-121.586177140895813,45.792342383380067],[-121.684451977296902,45.634324087886029],[-121.554828982190358,45.503910134360311],[-121.327312993427725,45.530958020212708],[-121.228283338971778,45.688586456345526]]]}},
{"type":"Feature","properties":{"name":"32647","numAirports":1},"geometry":{"type":"Polygon","coordinates":[[[-124.053924707946251,43.695405994694461],[-124.18517315068884,43.821070536830661],[-124.405153664375646,43.785380237708964],[-124.492900389657351,43.624145311729372],[-124.36147389344849,43.499140919570962],[-124.142470967490041,43.534707118068454],[-124.053924707946251,43.695405994694461]]]}},
{"type":"Feature","properties":{"name":"32648","numAirports":2},"geometry":{"type":"Polygon","coordinates":[[[-123.744411519960636,43.890142733595731],[-123.875453668825145,44.01645373029681],[-124.096334163281057,43.981851049197395],[-124.185173150688883,43.821070536830682],[-124.053924707946251,43.695405994694461],[-123.834036284253358,43.729871456824235],[-123.744411519960636,43.890142733595731]]]}},
{"type":"Feature","properties":{"name":"32650","numAirports":4},"geometry":{"type":"Polygon","coordinates":[[[-123.119567419484042,44.275311316308205],[-123.250118684737672,44.402875973537327],[-123.472732352664863,44.370328564754949],[-123.563764077517263,44.210367922184844],[-123.432954807618714,44.08342371959732],[-123.211365304131917,44.115815961168323],[-123.119567419484042,44.275311316308205]]]}},
{"type":"Feature","properties":{"name":"32651","numAirports":7},"geometry":{"type":"Polygon","coordinates":[[[-122.804256072429908,44.465859163094947],[-122.934525485483363,44.594032047665678],[-123.157980471554225,44.562461808697044],[-123.250118684737672,44.402875973537327],[-123.119567419484014,44.275311316308205],[-122.897153591501521,44.306720687711405],[-122.804256072429908,44.465859163094947]]]}},
{"type":"Feature","properties":{"name":"32652","numAirports":4},"geometry":{"type":"Polygon","coordinates":[[[-122.487022536385638,44.655113414959231],[-122.6169873622176,44.783882832739771],[-122.841271052852932,44.753261437412093],[-122.934525485483363,44.594032047665678],[-122.804256072429908,44.465859163094947],[-122.581030879454161,44.496315721026974],[-122.487022536385638,44.655113414959231]]]}},
{"type":"Feature","properties":{"name":"32653","numAirports":1},"geometry":{"type":"Polygon","coordinates":[[[-122.167864576608622,44.843113775743234],[-122.297503042818207,44.972468562757435],[-122.522605307355562,44.942771045935203],[-122.6169873622176,44.783882832739771],[-122.487022536385638,44.655113414959231],[-122.262996307947702,44.684643589965717],[-122.167864576608622,44.843113775743234]]]}},
{"type":"Feature","properties":{"name":"32656","numAirports":1},"geometry":{"type":"Polygon","coordinates":[[[-121.198776554432087,45.39990901384396],[-121.327312993427725,45.530958020212708],[-121.554828982190358,45.503910134360311],[-121.652674415804199,45.34597852785668],[-121.523750795934561,45.215484437211721],[-121.297363696269358,45.242364244046698],[-121.198776554432087,45.39990901384396]]]}},
{"type":"Feature","properties":{"name":"32890","numAirports":3},"geometry":{"type":"Polygon","coordinates":[[[-124.011909142033275,43.408992016612245],[-124.142470967490041,43.534707118068454],[-124.36147389344849,43.499140919570962],[-124.448942480013116,43.337980933714661],[-124.318203401464288,43.212934447959299],[-124.100165105756929,43.248374792230642],[-124.011909142033275,43.408992016612245]]]}},
{"type":"Feature","properties":{"name":"32893","numAirports":1},"geometry":{"type":"Polygon","coordinates":[[[-123.081501342209378,43.988181587108009],[-123.211365304131917,44.115815961168323],[-123.432954807618714,44.08342371959732],[-123.523662509434644,43.92355206894306],[-123.393539964993025,43.79654356881592],[-123.172961799662033,43.828776811748348],[-123.081501342209378,43.988181587108009]]]}},
{"type":"Feature","properties":{"name":"32899","numAirports":2},"geometry":{"type":"Polygon","coordinates":[[[-121.16951833302987,45.111228822801642],[-121.297363696269358,45.242364244046698],[-121.523750795934561,45.215484437211721],[-121.621171142678179,45.05763877728883],[-121.492938326396583,44.927059492241909],[-121.26766753065067,44.953766763087202],[-121.16951833302987,45.111228822801642]]]}},
{"type":"Feature","properties":{"name":"32901","numAirports":1},"geometry":{"type":"Polygon","coordinates":[[[-120.516887672384343,45.476166602636944],[-120.643901988248146,45.608385663766796],[-120.871841933691741,45.583189387945531],[-120.971611655539007,45.425940081409337],[-120.844172610690649,45.294258227525255],[-120.617383692915226,45.319285804961751],[-120.516887672384343,45.476166602636944]]]}},
{"type":"Feature","properties":{"name":"32903","numAirports":2},"geometry":{"type":"Polygon","coordinates":[[[-119.856440553846852,45.836681017117861],[-119.982551596617967,45.969948582403845],[-120.212036440717441,45.946386702051633],[-120.314220405343775,45.789717299400806],[-120.18764885666458,45.656969807672127],[-119.959349087395651,45.680369242712359],[-119.856440553846852,45.836681017117861]]]}},
{"type":"Feature","properties":{"name":"33133","numAirports":2},"geometry":{"type":"Polygon","coordinates":[[[-123.970279468948675,43.122606770743353],[-124.100165105756929,43.248374792230642],[-124.318203401464288,43.212934447959299],[-124.405396118146243,43.051849085308888],[-124.275333921597422,42.92675894165469],[-124.058247539827079,42.962071349097648],[-123.970279468948675,43.122606770743353]]]}},
{"type":"Feature","properties":{"name":"33135","numAirports":2},"geometry":{"type":"Polygon","coordinates":[[[-123.354480552757011,43.509684673867916],[-123.483926372054327,43.636761084122703],[-123.703680581432153,43.603502523459454],[-123.792999819870388,43.443317572108619],[-123.663320320399507,43.316887662684827],[-123.444548328787931,43.349991643941905],[-123.354480552757011,43.509684673867916]]]}},
{"type":"Feature","properties":{"name":"33137","numAirports":3},"geometry":{"type":"Polygon","coordinates":[[[-122.731213212669047,43.891100028271083],[-122.860115937717708,44.019425941433042],[-123.08150134220935,43.988181587108009],[-123.172961799662033,43.828776811748348],[-123.043775421799509,43.701068628436587],[-122.823406127157511,43.732143350725011],[-122.731213212669047,43.891100028271083]]]}},
{"type":"Feature","properties":{"name":"33140","numAirports":1},"geometry":{"type":"Polygon","coordinates":[[[-121.78239049683485,44.453560033334774],[-121.910309486899749,44.583661692224332],[-122.134047477750414,44.55520774518471],[-122.228792125834261,44.396826647796694],[-122.100524164971119,44.267304663227904],[-121.877855242847204,44.295580576250345],[-121.78239049683485,44.453560033334774]]]}},
{"type":"Feature","properties":{"name":"33143","numAirports":1},"geometry":{"type":"Polygon","coordinates":[[[-120.816731717880444,45.005314251240939],[-120.943487175758861,45.13708892509257],[-121.16951833302987,45.111228822801642],[-121.26766753065067,44.953766763087202],[-121.14050544413098,44.822539340052671],[-120.915595977743166,44.848223741848869],[-120.816731717880444,45.005314251240939]]]}},
{"type":"Feature","properties":{"name":"33144","numAirports":2},"geometry":{"type":"Polygon","coordinates":[[[-120.491052956517194,45.186973583493433],[-120.617383692915226,45.319285804961751],[-120.844172610690649,45.294258227525255],[-120.943487175758861,45.13708892509257],[-120.816731717880444,45.005314251240939],[-120.591081704685735,45.030168508982356],[-120.491052956517194,45.186973583493433]]]}},
{"type":"Feature","properties":{"name":"33145","numAirports":1},"geometry":{"type":"Polygon","coordinates":[[[-120.16345444576001,45.367533931905498],[-120.289342772303655,45.500374493393657],[-120.516887672384343,45.476166602636944],[-120.617383692915226,45.319285804961751],[-120.491052956517194,45.186973583493433],[-120.264663973348391,45.21101114740646],[-120.16345444576001,45.367533931905498]]]}},
{"type":"Feature","properties":{"name":"33147","numAirports":1},"geometry":{"type":"Polygon","coordinates":[[[-119.502434818510409,45.725410357079497],[-119.627386495275303,45.859281792044186],[-119.856440553846852,45.836681017117861],[-119.959349087395651,45.680369242712359],[-119.833920533043994,45.547009086642142],[-119.606055778383706,45.569447026943372],[-119.502434818510409,45.725410357079497]]]}},
{"type":"Feature","properties":{"name":"33376","numAirports":1},"geometry":{"type":"Polygon","coordinates":[[[-123.929027893570805,42.836247792772156],[-124.058247539827079,42.962071349097648],[-124.275333921597422,42.92675894165469],[-124.362253026055953,42.765747998940718],[-124.232857386778988,42.64061245978769],[-124.016710442338052,42.675794474004412],[-123.929027893570805,42.836247792772156]]]}},
{"type":"Feature","properties":{"name":"33378","numAirports":4},"geometry":{"type":"Polygon","coordinates":[[[-123.315769526961986,43.222843346291555],[-123.444548328787931,43.349991643941905],[-123.663320320399507,43.316887662684827],[-123.752336561660925,43.156789328442194],[-123.623323281929544,43.030295086537201],[-123.405521265462056,43.063240183261193],[-123.315769526961986,43.222843346291555]]]}},
{"type":"Feature","properties":{"name":"33379","numAirports":6},"geometry":{"type":"Polygon","coordinates":[[[-123.006383091133259,43.413968139102074],[-123.134901275866312,43.541754623582477],[-123.354480552757011,43.509684673867916],[-123.444548328787931,43.349991643941905],[-123.315769526961986,43.222843346291555],[-123.097177082506164,43.254745190106334],[-123.006383091133259,43.413968139102074]]]}},
{"type":"Feature","properties":{"name":"33381","numAirports":1},"geometry":{"type":"Polygon","coordinates":[[[-122.382142383816969,43.792195015633979],[-122.510067514415411,43.92121340338916],[-122.731213212669047,43.891100028271083],[-122.823406127157511,43.732143350725011],[-122.695172990172395,43.603733764014351],[-122.475049236936471,43.633667831141196],[-122.382142383816969,43.792195015633979]]]}},
{"type":"Feature","properties":{"name":"33383","numAirports":1},"geometry":{"type":"Polygon","coordinates":[[[-121.750610139604163,44.165384452447576],[-121.877855242847204,44.295580576250345],[-122.100524164971119,44.267304663227904],[-122.194885236022358,44.109012280210088],[-122.067289808676591,43.979398626304388],[-121.845678477993559,44.007491116886662],[-121.750610139604163,44.165384452447576]]]}},
{"type":"Feature","properties":{"name":"33384","numAirports":1},"geometry":{"type":"Polygon","coordinates":[[[-121.432095343715872,44.350186455930782],[-121.558970414558729,44.480952957844309],[-121.78239049683485,44.453560033334774],[-121.877855242847204,44.295580576250345],[-121.750610139604163,44.165384452447576],[-121.528265374344343,44.192593851107091],[-121.432095343715872,44.350186455930782]]]}},
{"type":"Feature","properties":{"name":"33385","numAirports":5},"geometry":{"type":"Polygon","coordinates":[[[-121.111735075051413,44.533833520195493],[-121.238221174272283,44.665158975013547],[-121.462387676990943,44.638629070545058],[-121.558970414558729,44.480952957844309],[-121.432095343715872,44.350186455930782],[-121.209021728550439,44.376533758196466],[-121.111735075051413,44.533833520195493]]]}},
{"type":"Feature","properties":{"name":"33386","numAirports":1},"geometry":{"type":"Polygon","coordinates":[[[-120.789517146033148,44.716350132396329],[-120.915595977743166,44.848223741848869],[-121.14050544413098,44.822539340052671],[-121.238221174272283,44.665158975013547],[-121.111735075051314,44.533833520195472],[-120.887935871615511,44.559337109482954],[-120.789517146033148,44.716350132396329]]]}},
{"type":"Feature","properties":{"name":"33387","numAirports":1},"geometry":{"type":"Polygon","coordinates":[[[-120.465427903159878,44.897756956281789],[-120.591081704685735,45.030168508982356],[-120.816731717880444,45.005314251240939],[-120.915595977743166,44.848223741848869],[-120.789517146033148,44.716350132396329],[-120.564994550778721,44.741026100499866],[-120.465427903159878,44.897756956281789]]]}},
{"type":"Feature","properties":{"name":"33388","numAirports":1},"geometry":{"type":"Polygon","coordinates":[[[-120.139452527876941,45.07807131550755],[-120.264663973348391,45.21101114740646],[-120.491052956517194,45.186973583493433],[-120.591081704685735,45.030168508982356],[-120.465427903159878,44.897756956281789],[-120.240183257955493,44.921619376597896],[-120.139452527876941,45.07807131550755]]]}},
{"type":"Feature","properties":{"name":"33389","numAirports":3},"geometry":{"type":"Polygon","coordinates":[[[-119.811575278715864,45.257307603153698],[-119.936327394632443,45.390766559100371],[-120.16345444576001,45.367533931905498],[-120.264663973348291,45.211011147406438],[-120.139452527876941,45.07807131550755],[-119.913486492894904,45.101132476968523],[-119.811575278715864,45.257307603153698]]]}},
{"type":"Feature","properties":{"name":"33390","numAirports":1},"geometry":{"type":"Polygon","coordinates":[[[-119.481779687129105,45.435477630144781],[-119.606055778383706,45.569447026943372],[-119.833920533043994,45.547009086642142],[-119.936327394632443,45.390766559100371],[-119.811575278715864,45.257307603153698],[-119.584887975071908,45.279578211347349],[-119.481779687129105,45.435477630144781]]]}},
{"type":"Feature","properties":{"name":"33391","numAirports":1},"geometry":{"type":"Polygon","coordinates":[[[-119.150048716677873,45.612590922855034],[-119.27383230169302,45.747062514038717],[-119.502434818510409,45.725410357079497],[-119.606055778383706,45.569447026943372],[-119.481779687129105,45.435477630144781],[-119.254370815155468,45.456966980905705],[-119.150048716677873,45.612590922855034]]]}},
{"type":"Feature","properties":{"name":"33618","numAirports":1},"geometry":{"type":"Polygon","coordinates":[[[-124.190765923544333,42.354492991261615],[-124.31950512434058,42.479675862264983],[-124.534773572156624,42.443283956175058],[-124.620378885956711,42.28181386679875],[-124.49149825843125,42.157349649104454],[-124.277144525842644,42.19363081032003],[-124.190765923544333,42.354492991261615]]]}},
{"type":"Feature","properties":{"name":"33620","numAirports":2},"geometry":{"type":"Polygon","coordinates":[[[-123.583682221837606,42.743721511710824],[-123.712039001891426,42.870283805208146],[-123.929027893570805,42.836247792772156],[-124.016710442338024,42.675794474004412],[-123.888146818119878,42.549912476643357],[-123.672099837784714,42.583797877714439],[-123.583682221837606,42.743721511710824]]]}},
{"type":"Feature","properties":{"name":"33628","numAirports":7},"geometry":{"type":"Polygon","coordinates":[[[-121.083204877569742,44.245103748047605],[-121.209021728550439,44.376533758196466],[-121.432095343715872,44.350186455930782],[-121.528265374344343,44.192593851107091],[-121.402058256840732,44.061724377215924],[-121.180066766895351,44.087883400477686],[-121.083204877569742,44.245103748047605]]]}},
{"type":"Feature","properties":{"name":"33629","numAirports":3},"geometry":{"type":"Polygon","coordinates":[[[-120.762527277248381,44.427357965725371],[-120.887935871615511,44.559337109482954],[-121.111735075051314,44.533833520195472],[-121.209021728550439,44.376533758196466],[-121.083204877569742,44.245103748047619],[-120.860505169091283,44.270421004905543],[-120.762527277248381,44.427357965725371]]]}},
{"type":"Feature","properties":{"name":"33631","numAirports":2},"geometry":{"type":"Polygon","coordinates":[[[-120.115642956819912,44.788573617552231],[-120.240183257955493,44.921619376597896],[-120.465427903159878,44.897756956281789],[-120.564994550778721,44.741026100499866],[-120.440011629426735,44.608508575293527],[-120.215900424770354,44.632190690403554],[-120.115642956819912,44.788573617552231]]]}},
{"type":"Feature","properties":{"name":"33632","numAirports":1},"geometry":{"type":"Polygon","coordinates":[[[-119.789405380936429,44.967568071380796],[-119.913486492894904,45.101132476968523],[-120.139452527876941,45.07807131550755],[-120.240183257955465,44.921619376597896],[-120.115642956819912,44.788573617552231],[-119.890826923621233,44.811458339813861],[-119.789405380936429,44.967568071380796]]]}},
{"type":"Feature","properties":{"name":"33633","numAirports":1},"geometry":{"type":"Polygon","coordinates":[[[-119.461282322245381,45.145504228379686],[-119.584887975071908,45.279578211347349],[-119.811575278715864,45.257307603153698],[-119.913486492894904,45.101132476968523],[-119.789405380936429,44.967568071380796],[-119.563884366770637,44.989666561969287],[-119.461282322245381,45.145504228379686]]]}},
{"type":"Feature","properties":{"name":"33636","numAirports":1},"geometry":{"type":"Polygon","coordinates":[[[-118.465427118019136,45.67305189842471],[-118.587510779120151,45.808604795012535],[-118.816364893108926,45.788654978263459],[-118.921917654481973,45.633307052661578],[-118.799310870381262,45.49823924717348],[-118.571670333806864,45.518032032333117],[-118.465427118019136,45.67305189842471]]]}},
{"type":"Feature","properties":{"name":"33637","numAirports":1},"geometry":{"type":"Polygon","coordinates":[[[-118.12958735814135,45.846834265578686],[-118.251132213697517,45.982864880615686],[-118.480710411235151,45.963675483499472],[-118.587510779120151,45.808604795012535],[-118.465427118019136,45.67305189842471],[-118.237077765410632,45.692089844216774],[-118.12958735814135,45.846834265578686]]]}},
{"type":"Feature","properties":{"name":"33861","numAirports":1},"geometry":{"type":"Polygon","coordinates":[[[-124.149051846214718,42.06839844154139],[-124.277144525842644,42.19363081032003],[-124.49149825843125,42.157349649104454],[-124.576847054489889,41.995941723056148],[-124.448614545094287,41.87144200190712],[-124.235163529537843,41.907610915662339],[-124.149051846214718,42.06839844154139]]]}},
{"type":"Feature","properties":{"name":"33864","numAirports":1},"geometry":{"type":"Polygon","coordinates":[[[-123.239365631182707,42.649197124675048],[-123.366838294096382,42.77650285339832],[-123.583682221837606,42.743721511710824],[-123.672099837784714,42.583797877714439],[-123.544390108238076,42.457163396224239],[-123.328492759680145,42.489775470604997],[-123.239365631182707,42.649197124675048]]]}},
{"type":"Feature","properties":{"name":"33865","numAirports":1},"geometry":{"type":"Polygon","coordinates":[[[-122.932574254216348,42.839785505149216],[-123.059782824574071,42.967743948406103],[-123.277400076520351,42.936015605049612],[-123.366838294096382,42.77650285339832],[-123.239365631182707,42.649197124675048],[-123.022712376793123,42.680745916821749],[-122.932574254216348,42.839785505149216]]]}},
{"type":"Feature","properties":{"name":"33869","numAirports":1},"geometry":{"type":"Polygon","coordinates":[[[-121.687856081419028,43.588982032734251],[-121.813775322890521,43.719386400414322],[-122.034339945533262,43.69148322726452],[-122.127943995779432,43.533367137916045],[-122.001670517221498,43.403551478257889],[-121.782142358236456,43.431258881204663],[-121.687856081419028,43.588982032734251]]]}},
{"type":"Feature","properties":{"name":"33870","numAirports":2},"geometry":{"type":"Polygon","coordinates":[[[-121.372273832828895,43.773234928973295],[-121.497819529483635,43.904214345980066],[-121.719099777820816,43.877194279425254],[-121.813775322890521,43.719386400414322],[-121.687856081419028,43.588982032734251],[-121.467630217076689,43.615806441580112],[-121.372273832828895,43.773234928973295]]]}},
{"type":"Feature","properties":{"name":"33871","numAirports":3},"geometry":{"type":"Polygon","coordinates":[[[-121.054913025295093,43.956341759992384],[-121.180066766895351,44.087883400477686],[-121.402058256840732,44.061724377215924],[-121.497819529483635,43.904214345980066],[-121.372273832828895,43.773234928973295],[-121.151354394452724,43.799199515990217],[-121.054913025295093,43.956341759992384]]]}},
{"type":"Feature","properties":{"name":"33872","numAirports":3},"geometry":{"type":"Polygon","coordinates":[[[-120.735761046968193,44.138329190128815],[-120.860505169091283,44.270421004905543],[-121.083204877569742,44.245103748047619],[-121.180066766895351,44.087883400477686],[-121.054913025295093,43.956341759992384],[-120.83330274830962,43.98146672230569],[-120.735761046968193,44.138329190128815]]]}},
{"type":"Feature","properties":{"name":"33873","numAirports":2},"geometry":{"type":"Polygon","coordinates":[[[-120.414803832863029,44.319219637283155],[-120.539121285797748,44.451850298528726],[-120.762527277248381,44.427357965725371],[-120.860505169091283,44.270421004905543],[-120.735761046968193,44.138329190128815],[-120.513461560808338,44.162632136631579],[-120.414803832863029,44.319219637283155]]]}},
{"type":"Feature","properties":{"name":"33874","numAirports":1},"geometry":{"type":"Polygon","coordinates":[[[-120.092026189365242,44.499031842582383],[-120.215900424770354,44.632190690403554],[-120.440011629426735,44.608508575293527],[-120.539121285797748,44.451850298528726],[-120.414803832863029,44.319219637283155],[-120.191815894130386,44.342715915272038],[-120.092026189365242,44.499031842582383]]]}},
{"type":"Feature","properties":{"name":"33875","numAirports":1},"geometry":{"type":"Polygon","coordinates":[[[-119.76741205075578,44.677781348368804],[-119.890826923621233,44.811458339813861],[-120.115642956819912,44.788573617552231],[-120.215900424770325,44.632190690403554],[-120.092026189365242,44.499031842582383],[-119.868349870358614,44.521734814847228],[-119.76741205075578,44.677781348368804]]]}},
{"type":"Feature","properties":{"name":"33879","numAirports":1},"geometry":{"type":"Polygon","coordinates":[[[-118.450249038322099,45.38237218371647],[-118.571670333806864,45.518032032333117],[-118.799310870381262,45.49823924717348],[-118.904323668074468,45.342945778306429],[-118.782380926359082,45.207769150136976],[-118.555942936830846,45.227400426629778],[-118.450249038322099,45.38237218371647]]]}},
{"type":"Feature","properties":{"name":"33882","numAirports":1},"geometry":{"type":"Polygon","coordinates":[[[-117.44223636489194,45.9000669404303],[-117.56200224195797,46.037132159301358],[-117.791773401043358,46.019589159381091],[-117.900527815217785,45.865122567530499],[-117.780194969205198,45.728518778259833],[-117.551670704547618,45.745918156951817],[-117.44223636489194,45.9000669404303]]]}},
{"type":"Feature","properties":{"name":"34107","numAirports":4},"geometry":{"type":"Polygon","coordinates":[[[-123.201659873671844,42.362383171829826],[-123.328492759680145,42.489775470604997],[-123.544390108238076,42.457163396224239],[-123.632511971877634,42.297328178812826],[-123.505440125591946,42.170616889942032],[-123.290478250870876,42.203053452714634],[-123.201659873671844,42.362383171829826]]]}},
{"type":"Feature","properties":{"name":"34108","numAirports":4},"geometry":{"type":"Polygon","coordinates":[[[-122.896145989640871,42.552692702240023],[-123.022712376793123,42.680745916821749],[-123.239365631182707,42.649197124675048],[-123.328492759680145,42.489775470604997],[-123.201659873671844,42.362383171829826],[-122.985959903959042,42.393745618846296],[-122.896145989640871,42.552692702240023]]]}},
{"type":"Feature","properties":{"name":"34109","numAirports":1},"geometry":{"type":"Polygon","coordinates":[[[-122.588909328405876,42.741622919383708],[-122.715183983911345,42.870318151760117],[-122.932574254216348,42.839785505149216],[-123.022712376793123,42.680745916821749],[-122.8961459896408,42.552692702240009],[-122.67972732269719,42.583031426125601],[-122.588909328405876,42.741622919383708]]]}},
{"type":"Feature","properties":{"name":"34117","numAirports":1},"geometry":{"type":"Polygon","coordinates":[[[-120.068603368655019,44.209436256705082],[-120.191815894130386,44.342715915272038],[-120.414803832863029,44.319219637283155],[-120.513461560808338,44.162632136631579],[-120.389804871569595,44.029880594362993],[-120.167930795932648,44.053185105443298],[-120.068603368655019,44.209436256705082]]]}},
{"type":"Feature","properties":{"name":"34118","numAirports":1},"geometry":{"type":"Polygon","coordinates":[[[-119.745597206054853,44.387937563080804],[-119.868349870358614,44.521734814847228],[-120.092026189365242,44.499031842582383],[-120.191815894130386,44.342715915272038],[-120.068603368655019,44.209436256705082],[-119.846057249340888,44.231951807492877],[-119.745597206054853,44.387937563080804]]]}},
{"type":"Feature","properties":{"name":"34119","numAirports":2},"geometry":{"type":"Polygon","coordinates":[[[-119.420769450670619,44.565397683288751],[-119.543046892725059,44.699702629339832],[-119.76741205075578,44.677781348368804],[-119.868349870358614,44.521734814847228],[-119.745597206054853,44.387937563080804],[-119.522378242488145,44.409676216241337],[-119.420769450670619,44.565397683288751]]]}},
{"type":"Feature","properties":{"name":"34120","numAirports":1},"geometry":{"type":"Polygon","coordinates":[[[-119.094102704575974,44.741827244917829],[-119.215889821368975,44.876630559020185],[-119.44094468299852,44.855480901131195],[-119.543046892725059,44.699702629339832],[-119.420769450670619,44.565397683288751],[-119.196876450312402,44.586369882323623],[-119.094102704575974,44.741827244917829]]]}},
{"type":"Feature","properties":{"name":"34121","numAirports":1},"geometry":{"type":"Polygon","coordinates":[[[-118.765579234555261,44.917234642479706],[-118.886861113662121,45.052527523224519],[-119.112606846437927,45.03214079266376],[-119.215889821368975,44.876630559020185],[-119.094102704575974,44.741827244917829],[-118.869534187392432,44.762042001021825],[-118.765579234555261,44.917234642479706]]]}},
{"type":"Feature","properties":{"name":"34122","numAirports":1},"geometry":{"type":"Polygon","coordinates":[[[-118.435181075505369,45.091626300175513],[-118.555942936830846,45.227400426629778],[-118.782380926359082,45.207769150136976],[-118.886861113662121,45.052527523224519],[-118.765579234555261,44.917234642479706],[-118.540333518571927,44.936699695163064],[-118.435181075505369,45.091626300175513]]]}},
{"type":"Feature","properties":{"name":"34125","numAirports":2},"geometry":{"type":"Polygon","coordinates":[[[-117.432556969707107,45.608746011091291],[-117.551670704547618,45.745918156951817],[-117.780194969205198,45.728518778259833],[-117.888365922269884,45.574092929598812],[-117.768688152542992,45.437379554626233],[-117.541399715050574,45.454631188494012],[-117.432556969707107,45.608746011091291]]]}},
{"type":"Feature","properties":{"name":"34352","numAirports":5},"geometry":{"type":"Polygon","coordinates":[[[-122.55409024866492,42.454227342469679],[-122.67972732269719,42.583031426125601],[-122.8961459896408,42.552692702240009],[-122.985959903959042,42.393745618846296],[-122.860027848689512,42.265590886450831],[-122.644571049859579,42.295727776839627],[-122.55409024866492,42.454227342469679]]]}},
{"type":"Feature","properties":{"name":"34353","numAirports":1},"geometry":{"type":"Polygon","coordinates":[[[-122.246467872743338,42.641546917193452],[-122.371786575503748,42.770981241470103],[-122.588909328405876,42.741622919383708],[-122.67972732269719,42.583031426125601],[-122.55409024866492,42.454227342469679],[-122.337948260575487,42.483378802105115],[-122.246467872743338,42.641546917193452]]]}},
{"type":"Feature","properties":{"name":"34355","numAirports":1},"geometry":{"type":"Polygon","coordinates":[[[-121.626157959787548,43.012457755285453],[-121.75077667432339,43.143100283351323],[-121.969277919892221,43.115595719017854],[-122.062137814217252,42.957654243823974],[-121.9371590672895,42.827607507239577],[-121.719675946343557,42.854901483413713],[-121.626157959787548,43.012457755285453]]]}},
{"type":"Feature","properties":{"name":"34359","numAirports":1},"geometry":{"type":"Polygon","coordinates":[[[-120.365015861899963,43.740481052862194],[-120.488015707602372,43.873361870327713],[-120.709218019941119,43.849254498827584],[-120.806328133510988,43.692464777715834],[-120.682898483510911,43.560123734496365],[-120.462784841790878,43.584028869269261],[-120.365015861899963,43.740481052862194]]]}},
{"type":"Feature","properties":{"name":"34363","numAirports":1},"geometry":{"type":"Polygon","coordinates":[[[-119.075748507128353,44.451440565421038],[-119.196876450312402,44.586369882323623],[-119.420769450670619,44.565397683288751],[-119.522378242488145,44.409676216241337],[-119.400760133533026,44.275243807457471],[-119.178019970314992,44.296033063051915],[-119.075748507128353,44.451440565421038]]]}},
{"type":"Feature","properties":{"name":"34366","numAirports":1},"geometry":{"type":"Polygon","coordinates":[[[-118.089684823163338,44.973981039075333],[-118.209256347243965,45.110348255894756],[-118.435181075505369,45.091626300175513],[-118.540333518571927,44.936699695163064],[-118.420228978168936,44.800803473847907],[-118.195501566248595,44.819360454884951],[-118.089684823163338,44.973981039075333]]]}},
{"type":"Feature","properties":{"name":"34367","numAirports":3},"geometry":{"type":"Polygon","coordinates":[[[-117.757260121427791,45.14616084707253],[-117.87628448622749,45.282991348425213],[-118.102890113440679,45.265006896151768],[-118.209256347243965,45.110348255894756],[-118.089684823163338,44.973981039075333],[-117.864290749038759,44.991806907303854],[-117.757260121427791,45.14616084707253]]]}},
{"type":"Feature","properties":{"name":"34368","numAirports":3},"geometry":{"type":"Polygon","coordinates":[[[-117.422936652412943,45.317344717662102],[-117.541399715050574,45.454631188494012],[-117.768688152542992,45.437379554626233],[-117.87628448622749,45.282991348425213],[-117.757260121427763,45.14616084707253],[-117.531197209284414,45.163260436887526],[-117.422936652412943,45.317344717662102]]]}},
{"type":"Feature","properties":{"name":"34369","numAirports":3},"geometry":{"type":"Polygon","coordinates":[[[-117.086696242468378,45.487533208655883],[-117.204583826606381,45.625268694286142],[-117.432556969707107,45.608746011091291],[-117.541399715050574,45.454631188494012],[-117.422936652412943,45.317344717662102],[-117.196202758708026,45.333722023706514],[-117.086696242468378,45.487533208655883]]]}},
{"type":"Feature","properties":{"name":"34371","numAirports":1},"geometry":{"type":"Polygon","coordinates":[[[-116.408392336388985,45.824920725987162],[-116.525086159893831,45.963534657895948],[-116.754434170088345,45.948461152527166],[-116.865818665499148,45.794903617661753],[-116.748520798602001,45.656725744217383],[-116.52043879915523,45.671667517167158],[-116.408392336388985,45.824920725987162]]]}},
{"type":"Feature","properties":{"name":"34600","numAirports":2},"geometry":{"type":"Polygon","coordinates":[[[-120.971458713154632,43.089768092016158],[-121.094652958624209,43.221693652196478],[-121.313455474563213,43.196138555323742],[-121.408013422656182,43.038869535505889],[-121.284419471353431,42.907511721956588],[-121.066663525026087,42.932850564633753],[-120.971458713154632,43.089768092016158]]]}},
{"type":"Feature","properties":{"name":"34601","numAirports":1},"geometry":{"type":"Polygon","coordinates":[[[-120.65680356257036,43.27092576639447],[-120.779581593237992,43.403404797279165],[-120.999040101834765,43.378684271939129],[-121.094652958624209,43.221693652196478],[-120.971458713154604,43.089768092016165],[-120.753064261800333,43.114275385908684],[-120.65680356257036,43.27092576639447]]]}},
{"type":"Feature","properties":{"name":"34606","numAirports":1},"geometry":{"type":"Polygon","coordinates":[[[-119.057549489596653,44.160969074833105],[-119.178019970314992,44.296033063051915],[-119.400760133533026,44.275243807457471],[-119.501881966957484,44.119576284097128],[-119.380921192760169,43.985007603121325],[-119.159325713989134,44.005608101284878],[-119.057549489596653,44.160969074833105]]]}},
{"type":"Feature","properties":{"name":"34607","numAirports":2},"geometry":{"type":"Polygon","coordinates":[[[-118.732381647784763,44.335928333516634],[-118.852347967610569,44.471478129735686],[-119.075748507128353,44.451440565421038],[-119.178019970314992,44.296033063051915],[-119.057549489596653,44.160969074833105],[-118.835308548334964,44.180823936487116],[-118.732381647784763,44.335928333516634]]]}},
{"type":"Feature","properties":{"name":"34608","numAirports":2},"geometry":{"type":"Polygon","coordinates":[[[-118.405399464659467,44.509892112194748],[-118.52484789408075,44.645918784985192],[-118.748910812586971,44.626624920779477],[-118.852347967610569,44.471478129735686],[-118.732381647784763,44.335928333516634],[-118.509492895354654,44.355045783553244],[-118.405399464659467,44.509892112194748]]]}},
{"type":"Feature","properties":{"name":"34610","numAirports":2},"geometry":{"type":"Polygon","coordinates":[[[-117.745919001900731,44.854851256032539],[-117.864290749038759,44.991806907303854],[-118.089684823163338,44.973981039075333],[-118.195501566248595,44.819360454884951],[-118.076584673339624,44.682865320346792],[-117.85239295699246,44.70052789415076],[-117.745919001900731,44.854851256032539]]]}},
{"type":"Feature","properties":{"name":"34611","numAirports":1},"geometry":{"type":"Polygon","coordinates":[[[-117.413384220154967,45.02585178685645],[-117.531197209284414,45.163260436887526],[-117.757260121427763,45.14616084707253],[-117.86429074903873,44.991806907303854],[-117.745919001900731,44.854851256032539],[-117.521072114574878,44.871794321798262],[-117.413384220154967,45.02585178685645]]]}},
{"type":"Feature","properties":{"name":"34614","numAirports":2},"geometry":{"type":"Polygon","coordinates":[[[-116.404384270559063,45.532941275210668],[-116.52043879915523,45.671667517167158],[-116.748520798602001,45.656725744217383],[-116.859289288758077,45.503191469808918],[-116.742634829996504,45.364897860208877],[-116.515808363622554,45.379704008420049],[-116.404384270559063,45.532941275210668]]]}},
{"type":"Feature","properties":{"name":"34839","numAirports":1},"geometry":{"type":"Polygon","coordinates":[[[-122.180340551531614,42.066052000078862],[-122.304394996640795,42.195742468147536],[-122.51956481798382,42.166806734211448],[-122.609710808374317,42.008399409103696],[-122.485329316101556,41.879352339277162],[-122.271123909293834,41.908062489230012],[-122.180340551531614,42.066052000078862]]]}},
{"type":"Feature","properties":{"name":"34842","numAirports":1},"geometry":{"type":"Polygon","coordinates":[[[-121.25563222157227,42.618817417491101],[-121.378583774323928,42.750320263501223],[-121.595699706737449,42.724126771171882],[-121.688838530073767,42.566652369926771],[-121.565500671817787,42.435735516218344],[-121.34940656600881,42.461701746274152],[-121.25563222157227,42.618817417491101]]]}},
{"type":"Feature","properties":{"name":"34850","numAirports":4},"geometry":{"type":"Polygon","coordinates":[[[-118.715998846966997,44.045132279133412],[-118.835308548334964,44.180823936487116],[-119.057549489596653,44.160969074833105],[-119.159325713989134,44.005608101284878],[-119.039512002947205,43.870400108404688],[-118.818423198891622,43.890066448442852],[-118.715998846966997,44.045132279133412]]]}},
{"type":"Feature","properties":{"name":"34852","numAirports":1},"geometry":{"type":"Polygon","coordinates":[[[-118.063598204524951,44.391647355481538],[-118.181860464518138,44.528279159692758],[-118.405399464659467,44.509892112194748],[-118.509492895354654,44.355045783553244],[-118.390700370778205,44.218879708856718],[-118.168341758245262,44.237091623763575],[-118.063598204524951,44.391647355481538]]]}},
{"type":"Feature","properties":{"name":"34853","numAirports":1},"geometry":{"type":"Polygon","coordinates":[[[-117.734674017818222,44.563438540999385],[-117.85239295699246,44.70052789415076],[-118.076584673339624,44.682865320346792],[-118.181860464518138,44.528279159692758],[-118.063598204524951,44.391647355481538],[-117.840600512002112,44.409141713217601],[-117.734674017818222,44.563438540999385]]]}},
{"type":"Feature","properties":{"name":"34856","numAirports":1},"geometry":{"type":"Polygon","coordinates":[[[-116.73678743739373,45.072965788286901],[-116.852797819367424,45.211383092881974],[-117.078962176920527,45.195867504951828],[-117.187879758330368,45.042079448494505],[-117.07128670000165,44.9040977424592],[-116.846355601706847,44.919466444932375],[-116.73678743739373,45.072965788286901]]]}},
{"type":"Feature","properties":{"name":"35084","numAirports":3},"geometry":{"type":"Polygon","coordinates":[[[-121.535560995402392,42.1472716359673],[-121.658263583963773,42.278341674159265],[-121.873733346448773,42.251495228879271],[-121.96549950249198,42.093811264805062],[-121.842423741751546,41.963349037889408],[-121.627951225753691,41.989956765062914],[-121.535560995402392,42.1472716359673]]]}},
{"type":"Feature","properties":{"name":"35085","numAirports":2},"geometry":{"type":"Polygon","coordinates":[[[-121.227094938414695,42.330042772214263],[-121.34940656600881,42.461701746274152],[-121.565500671817787,42.435735516218344],[-121.658263583963773,42.278341674159265],[-121.535560995402392,42.1472716359673],[-121.320483029354477,42.173000787074727],[-121.227094938414695,42.330042772214263]]]}},
{"type":"Feature","properties":{"name":"35086","numAirports":1},"geometry":{"type":"Polygon","coordinates":[[[-120.917012056465353,42.511700913497343],[-121.038916198531282,42.643931436653702],[-121.25563222157227,42.618817417491101],[-121.34940656600881,42.461701746274152],[-121.227094938414695,42.330042772214263],[-121.011413293192476,42.354922644172234],[-120.917012056465353,42.511700913497343]]]}},
{"type":"Feature","properties":{"name":"35088","numAirports":1},"geometry":{"type":"Polygon","coordinates":[[[-120.291933788293363,42.871800194462274],[-120.412977242916597,43.00512693414322],[-120.630935361787849,42.981648345821021],[-120.726778290165157,42.825063972245445],[-120.605297142410876,42.692277935351981],[-120.388407954784626,42.715531062052385],[-120.291933788293363,42.871800194462274]]]}},
{"type":"Feature","properties":{"name":"35090","numAirports":2},"geometry":{"type":"Polygon","coordinates":[[[-119.660192210295591,43.227763299111821],[-119.78031859717801,43.362131337417203],[-119.999522592803089,43.340216071319766],[-120.097496450606869,43.184143135391295],[-119.976904748714674,43.050289395885258],[-119.758801876682924,43.071990423873437],[-119.660192210295591,43.227763299111821]]]}},
{"type":"Feature","properties":{"name":"35093","numAirports":1},"geometry":{"type":"Polygon","coordinates":[[[-118.699770815722459,43.754223089435484],[-118.818423198891622,43.890066448442852],[-119.039512002947205,43.870400108404688],[-119.140800183699426,43.715081959508218],[-119.021643695569409,43.579719890807603],[-118.801700555603688,43.599191567797561],[-118.699770815722459,43.754223089435484]]]}},
{"type":"Feature","properties":{"name":"35095","numAirports":1},"geometry":{"type":"Polygon","coordinates":[[[-118.050735239266373,44.100313781959123],[-118.168341758245262,44.237091623763575],[-118.390700370778205,44.218879708856718],[-118.494276528718331,44.064067816958662],[-118.376140825677254,43.927752735214604],[-118.154955514834967,43.945784070338647],[-118.050735239266373,44.100313781959123]]]}},
{"type":"Feature","properties":{"name":"35099","numAirports":1},"geometry":{"type":"Polygon","coordinates":[[[-116.730990985052685,44.7809170061551],[-116.846355601706847,44.919466444932375],[-117.07128670000165,44.9040977424592],[-117.179625538503004,44.75032872853356],[-117.06368156852723,44.612211169658579],[-116.839975238326844,44.627428633291181],[-116.730990985052685,44.7809170061551]]]}},
{"type":"Feature","properties":{"name":"35328","numAirports":2},"geometry":{"type":"Polygon","coordinates":[[[-121.198810060610072,42.041173383687294],[-121.320483029354477,42.173000787074727],[-121.535560995402392,42.1472716359673],[-121.627951225753691,41.989956765062914],[-121.5058819430852,41.858721246746512],[-121.291815668559195,41.884202569616797],[-121.198810060610072,42.041173383687294]]]}},
{"type":"Feature","properties":{"name":"35330","numAirports":1},"geometry":{"type":"Polygon","coordinates":[[[-120.579893543234661,42.402799506212929],[-120.700727034342606,42.535756624831713],[-120.91701205646531,42.511700913497329],[-121.011413293192476,42.354922644172234],[-120.890152610025027,42.222521879293105],[-120.674915291913905,42.246337833146143],[-120.579893543234661,42.402799506212929]]]}},
{"type":"Feature","properties":{"name":"35335","numAirports":1},"geometry":{"type":"Polygon","coordinates":[[[-119.003953733219433,43.288913391887824],[-119.122451246164644,43.424440428267346],[-119.341777992167991,43.404236296618087],[-119.441478829613786,43.248709984956498],[-119.322488952705669,43.113672199628816],[-119.104288368502026,43.133667970928364],[-119.003953733219433,43.288913391887824]]]}},
{"type":"Feature","properties":{"name":"35339","numAirports":1},"geometry":{"type":"Polygon","coordinates":[[[-117.712515877087796,43.980249999122435],[-117.828924150519384,44.117634785205205],[-118.050735239266373,44.100313781959123],[-118.154955514834967,43.945784070338647],[-118.038007086666823,43.808850144783484],[-117.817376155952545,43.825992434032941],[-117.712515877087796,43.980249999122435]]]}},
{"type":"Feature","properties":{"name":"35574","numAirports":3},"geometry":{"type":"Polygon","coordinates":[[[-120.244329866342383,42.292136200881039],[-120.364068978245953,42.425818198828139],[-120.579893543234661,42.402799506212929],[-120.674915291913905,42.246337833146143],[-120.554730858419987,42.113196296730926],[-120.339967969316646,42.135970883329499],[-120.244329866342383,42.292136200881039]]]}},
{"type":"Feature","properties":{"name":"35582","numAirports":1},"geometry":{"type":"Polygon","coordinates":[[[-117.701628326563124,43.688444582133158],[-117.817376155952545,43.825992434032941],[-118.038007086666823,43.808850144783484],[-118.141713372060053,43.654341569752383],[-118.025426786737242,43.517240766190817],[-117.805970611897195,43.534198758230396],[-117.701628326563124,43.688444582133158]]]}},
{"type":"Feature","properties":{"name":"35583","numAirports":1},"geometry":{"type":"Polygon","coordinates":[[[-117.376070965527049,43.858708148826949],[-117.491268732613293,43.996694744266399],[-117.712515877087782,43.980249999122435],[-117.817376155952545,43.825992434032941],[-117.701628326563124,43.688444582133151],[-117.481568143085738,43.704713002891154],[-117.376070965527049,43.858708148826949]]]}},
{"type":"Feature","properties":{"name":"35584","numAirports":1},"geometry":{"type":"Polygon","coordinates":[[[-117.048736612827255,44.028031783872848],[-117.163372927825861,44.166449329718979],[-117.385239532916671,44.150697830552836],[-117.491268732613293,43.996694744266399],[-117.376070965527049,43.858708148826949],[-117.155403228894826,43.874291305458861],[-117.048736612827255,44.028031783872848]]]}},
{"type":"Feature","properties":{"name":"35823","numAirports":1},"geometry":{"type":"Polygon","coordinates":[[[-118.333414896726325,43.053531045766796],[-118.449561118247559,43.190358407781922],[-118.667820515863028,43.172004475909077],[-118.768786203753407,43.017026728370801],[-118.652123726029586,42.880661075681637],[-118.43501025949962,42.898808178021639],[-118.333414896726325,43.053531045766796]]]}},
{"type":"Feature","properties":{"name":"35825","numAirports":1},"geometry":{"type":"Polygon","coordinates":[[[-117.690888641077933,43.396476604932985],[-117.805970611897195,43.534198758230396],[-118.025426786737242,43.517240766190817],[-118.128628800670498,43.36274789941335],[-118.013009403549191,43.225468597000422],[-117.794723705333553,43.242236484587565],[-117.690888641077933,43.396476604932985]]]}},
{"type":"Feature","properties":{"name":"35828","numAirports":1},"geometry":{"type":"Polygon","coordinates":[[[-116.714052761379079,43.903931206094732],[-116.827457955553186,44.042933151317001],[-117.048736612827255,44.028031783872848],[-117.155403228894826,43.874291305458861],[-117.041428241161071,43.735708348011727],[-116.821354426440934,43.750444587885923],[-116.714052761379079,43.903931206094732]]]}},
{"type":"Feature","properties":{"name":"36062","numAirports":1},"geometry":{"type":"Polygon","coordinates":[[[-119.5780738306009,42.065619573207933],[-119.695551192948074,42.200743602450189],[-119.910373030527467,42.17973473860939],[-120.006625523615924,42.023846141905125],[-119.888671707292772,41.889228930702124],[-119.674940910607489,41.909988708647518],[-119.5780738306009,42.065619573207933]]]}},
{"type":"Feature","properties":{"name":"36065","numAirports":1},"geometry":{"type":"Polygon","coordinates":[[[-118.636633363884783,42.589136205413439],[-118.752620940036209,42.725701542082916],[-118.969154754959476,42.706854128580439],[-119.068568454266952,42.551660386819457],[-118.952074370889349,42.415563391954471],[-118.736672030661708,42.434188094826865],[-118.636633363884783,42.589136205413439]]]}},
{"type":"Feature","properties":{"name":"36069","numAirports":1},"geometry":{"type":"Polygon","coordinates":[[[-117.358147879073712,43.274225174904842],[-117.472010681443081,43.412563275546944],[-117.690888641077933,43.396476604932985],[-117.794723705333553,43.242236484587565],[-117.680314773495184,43.104327945497737],[-117.462615459993017,43.120227255661611],[-117.358147879073712,43.274225174904842]]]}},
{"type":"Feature","properties":{"name":"36070","numAirports":1},"geometry":{"type":"Polygon","coordinates":[[[-117.034253684857134,43.443206613570894],[-117.147560205976291,43.581966214974528],[-117.367034273629457,43.566556479715324],[-117.472010681443081,43.412563275546944],[-117.358147879073712,43.274225174904842],[-117.139863389856572,43.289456257333072],[-117.034253684857134,43.443206613570894]]]}},
{"type":"Feature","properties":{"name":"36307","numAirports":1},"geometry":{"type":"Polygon","coordinates":[[[-118.935230489171673,42.124069943071632],[-119.051041284221583,42.26038578005771],[-119.26588133255494,42.241060676248772],[-119.363790986286674,42.08565572137551],[-119.247481823424877,41.949815847270898],[-119.033760879671391,41.968900758182173],[-118.935230489171673,42.124069943071632]]]}},
{"type":"Feature","properties":{"name":"36308","numAirports":1},"geometry":{"type":"Polygon","coordinates":[[[-118.621368635779305,42.297408402101347],[-118.736672030661708,42.434188094826865],[-118.952074370889349,42.415563391954471],[-119.051041284221583,42.26038578005771],[-118.935230489171673,42.124069943071632],[-118.720959595102798,42.142464006698248],[-118.621368635779305,42.297408402101347]]]}},
{"type":"Feature","properties":{"name":"36309","numAirports":1},"geometry":{"type":"Polygon","coordinates":[[[-118.305876812086822,42.469837051637867],[-118.420663770081404,42.607069480868418],[-118.636633363884783,42.589136205413439],[-118.736672030661708,42.434188094826865],[-118.621368635779305,42.297408402101347],[-118.406542319714347,42.315120541485577],[-118.305876812086822,42.469837051637867]]]}},
{"type":"Feature","properties":{"name":"36554","numAirports":1},"geometry":{"type":"Polygon","coordinates":[[[-117.659750421005484,42.519407754352422],[-117.772783333642948,42.657729167468212],[-117.988735958556887,42.641359788686842],[-118.090489834818314,42.486874720074653],[-117.976923716594882,42.348980537104666],[-117.762136440350545,42.365141095062377],[-117.659750421005484,42.519407754352422]]]}},
{"type":"Feature","properties":{"name":"36556","numAirports":1},"geometry":{"type":"Polygon","coordinates":[[[-117.020394646232276,42.857592245266979],[-117.132335034000647,42.996742117002675],[-117.349432844532274,42.981695061061593],[-117.453404408223804,42.827685018351872],[-117.34091333751158,42.68894525836216],[-117.125000589043196,42.703802787270256],[-117.020394646232276,42.857592245266979]]]}},
{"type":"Feature","properties":{"name":"37040","numAirports":1},"geometry":{"type":"Polygon","coordinates":[[[-117.640143021320043,41.93350265939182],[-117.751742517371383,42.072297899357707],[-117.965363189711056,42.056352789864242],[-118.066215315984962,41.901831423039944],[-117.954086663983404,41.763449533173329],[-117.741635571541863,41.77917241262324],[-117.640143021320043,41.93350265939182]]]}}
]
}
